OID,PARCELID,FDEM_ID,NAME,ADDRESS,CITY,ZIPCODE,COUNTY,PHONE,TYPE,OWNER,OPERATING,OP_CLASS,AHCA_OWNER,PROFIT,CAPACITY,BEDS,STATE_ID,EFCLASS,AHCA_NUM,CON1_TYPE,CON1_UP,CON1_DOWN,CON2_TYPE,CON2_UP,CON2_DOWN,CON3_TYPE,CON3_UP,CON3_DOWN,NET_CONS,WEBSITE,ACTYRBLT,FSOURCE,DATASOURCE,NOTES,LAT_DD,LONG_DD,MGRS,GCID,ACRES,DESCRIPT,FLAG,UPDATE_DAY,FGDLAQDATE,AUTOID,DDLat,DDLon,ORIG_OID
1,00434430220000000,N/A,SELECT SPECIALTY HOSPITAL - PALM BEACH,3060 MELALEAUCA LANE,LAKE WORTH,33461,PALM BEACH,561-357-7200,HOSPITALS - ACUTE CARE,SELECT SPECIALITY HOSPITAL,PRIVATE,PRIVATE,SELECT MEDICAL CORPORATION,INVESTOR-OWNED,0,60,N/A,EFHM,23960072, , , , , , , , , , ,HTTP://WWW.SELECTSPECIALTYHOSPITALS.COM/,2007,GEOPLAN,GEOPLAN, ,26.60891855,-80.09167855,17RNK9043143442,107,6.49786087,SELECT SPECIALTY HOSPITAL - PALM BEACH,V,2011-05-10,2017-09-06,1,26.60891855,-80.09167855,1
2,331S303000000070,N/A,SELECT SPECIALTY HOSPITAL - PENSACOLA,7000 COBBLE CREEK DR,PENSACOLA,32504,ESCAMBIA,850-473-4800,HOSPITALS - ACUTE CARE,SELECT SPECIALTY HOSPITAL PENS,PRIVATE,PRIVATE,SELECT MEDICAL CORPORATION,INVESTOR-OWNED,0,75,N/A,EFHM,23960076, , , , , , , , , , ,HTTP://WWW.SELECTSPECIALTYHOSPITALS.COM/,2008,GEOPLAN,GEOPLAN, ,30.47863843,-87.21552596,16RDU7931371844,108,7.61674642,SELECT SPECIALTY HOSPITAL - PENSACOLA,V,2016-05-17,2017-09-06,2,30.47863843,-87.21552596,2
3,21084-000-000,N/A,SELECT SPECIALTY HOSPITAL - PANAMA CITY,615 N BONITA AVE (3RD FLOOR OF BAY MEDICAL CENTER),PANAMA CITY,32401,BAY,850-767-3180,HOSPITALS - ACUTE CARE,BAY COUNTY SACRED HEART,PRIVATE,PRIVATE,SELECT MEDICAL CORPORATION,INVESTOR-OWNED,0,30,N/A,EFHS,23960045, , , , , , , , , , ,HTTP://WWW.SELECTSPECIALTYHOSPITALS.COM/,1949,GEOPLAN,GEOPLAN,TWO HOSPITALS ON ONE PARCEL,30.15934085,-85.64990949,16RFU3001137211,109,28.86347789,SELECT SPECIALTY HOSPITAL - PANAMA CITY,V,2012-11-19,2017-09-06,3,30.15934085,-85.64990949,3
4,0131350760010,N/A,JACKSON BEHAVIORAL HEALTH HOSPITAL,1695 NW 9TH AVE,MIAMI,33136,MIAMI-DADE,305-355-8234,HOSPITALS - PSYCHIATRIC,MIAMI-DADE COUNTY,COUNTY,PUBLIC,JACKSON HEALTH SYSTEM,PUBLIC/GOVERNMENT,0,239,N/A,EFHL,N/A, , , , , , , , , , ,HTTP://WWW.JHSMIAMI.ORG/BODY.CFM?ID=53,1999,GEOPLAN,GEOPLAN,JACKSON BEHAVIORAL HEALTH HOSPITAL,25.79085915,-80.20958781,17RNJ7924452761,110,6.48961218,JACKSON BEHAVIORAL HEALTH HOSPITAL,V,2016-05-17,2017-09-06,4,25.79085915,-80.20958781,4
5,0596010000R,N/A,NORTHEAST FLORIDA COMMUNITY HOSPICE - DR GASTON J ACOSTA-RUA CENTER FOR CARING,5450 RAMONA BLVD,JACKSONVILLE,32205,DUVAL,904-407-6132,HOSPITALS - HOSPICE,COMMUNITY HOSPICE OF NORTHEAST,PRIVATE,PRIVATE,N/A,NOT-FOR-PROFIT,0,16,N/A,EFHS,N/A, , , , , , , , , , ,HTTP://WWW.COMMUNITYHOSPICE.COM/GETINVOLVED/RELEASE_32.HTM,2006,GEOPLAN,GEOPLAN, ,30.31365607,-81.74024861,17RMP2882953774,111,5.4679638,NORTHEAST FLORIDA COMMUNITY HOSPICE - DR GASTON J ACOSTA-RUA CENTER FOR CARING,V,2011-05-10,2017-09-06,5,30.31365607,-81.74024861,5
6,282412000000028,N/A,CENTRAL FLORIDA BEHAVIORAL HOSPITAL,6601 CENTRAL FLORIDA PKWY,ORLANDO,32821,ORANGE,407-370-0111,HOSPITALS - PSYCHIATRIC,CENTRAL FLORIDA BEHAVIORAL HOS,PRIVATE,PRIVATE,UNIVERSAL HEALTH SERVICES INC,INVESTOR-OWNED,0,126,N/A,EFHM,23960083, , , , , , , , , , ,HTTP://WWW.CENTRALFLORIDABEHAVIORAL.COM/,1986,GEOPLAN,GEOPLAN, ,28.40919126,-81.46958366,17RMM5400542622,112,7.14332355,CENTRAL FLORIDA BEHAVIORAL HOSPITAL,V,2016-05-17,2017-09-06,6,28.40919126,-81.46958366,6
7,504131080010,N/A,HIGH POINT TREATMENT CENTER,5960 SW 160TH AVE,COOPER CITY,33328,BROWARD,954-680-2700,HOSPITALS - PSYCHIATRIC,HHC FOCUS FLORIDA INC,PRIVATE,PRIVATE,PSYCHIATRIC SOLUTIONS INC,INVESTOR-OWNED,0,88,N/A,EFHM,N/A, , , , , , , , , , ,HTTP://WWW.HIGHPOINTTREATMENT.COM/,1977,GEOPLAN,GEOPLAN, ,26.04580572,-80.28697536,17RNJ7133180951,113,6.30337936,HIGH POINT TREATMENT CENTER,V,2011-05-10,2017-09-06,7,26.04580572,-80.28697536,7
8,56424225410000010,N/A,KINDRED HOSPITAL - THE PALM BEACHES,5555 W BLUE HERON BLVD,RIVIERA BEACH,33418,PALM BEACH,561-840-0754,HOSPITALS - ACUTE CARE,KINDRED HOSPITALS EAST LLC,PRIVATE,PRIVATE,KINDRED EAST REGION OFFICE,INVESTOR-OWNED,0,70,N/A,EFHM,23960074, , , , , , , , , , ,HTTP://WWW.KHTHEPALMBEACHES.COM/,2008,GEOPLAN,GEOPLAN, ,26.78288629,-80.11046327,17RNK8842762698,114,3.96811687,KINDRED HOSPITAL - THE PALM BEACHES,V,2011-05-10,2017-09-06,8,26.78288629,-80.11046327,8
9,5165320002,N/A,SUNCOAST BEHAVIORAL HEALTH CENTER,4480 51ST ST W,BRADENTON,34210,MANATEE,941-792-2222,HOSPITALS - PSYCHIATRIC,PREMIER BEHAVIORAL SOLUTIONS O,PRIVATE,PRIVATE,UNIVERSAL HEALTH SERVICES INC,INVESTOR-OWNED,0,60,N/A,EFHM,110049, , , , , , , , , , ,HTTP://WWW.MANATEEPALMSYOUTHSERVICES.COM/,1989,GEOPLAN,GEOPLAN,SUNCOAST BEHAVIORAL HEALTH CENTER,27.45974489,-82.61282547,17RLL4062738392,115,8.8264526,SUNCOAST BEHAVIORAL HEALTH CENTER,V,2016-05-17,2017-09-06,9,27.45974489,-82.61282547,9
10,12424626000001200,N/A,FAIR OAKS PAVILION - PSYCHIATRIC HOSPITAL - DELRAY MEDICAL CENTER,5440 LINTON BLVD,DELRAY BEACH,33484,PALM BEACH,561-495-1000,HOSPITALS - PSYCHIATRIC,TENET HEALTHCARE CORP,PRIVATE,PRIVATE,TENET HEALTHSYSTEM,INVESTOR-OWNED,0,53,N/A,EFHM,N/A, , , , , , , , , , ,HTTP://WWW.DELRAYMEDICALCTR.COM/EN-US/PAGES/DEFAULT.ASPX,1985,GEOPLAN,FHA,BELONGS TO DELRAY MEDICAL CENTER,26.43634918,-80.12940862,17RNK8680424302,153,5.43235956,FAIR OAKS PAVILION - PSYCHIATRIC HOSPITAL - DELRAY MEDICAL CENTER,V,2012-11-19,2017-09-06,10,26.43634918,-80.12940862,10
11,08434533100000010,10225012,BETHESDA HOSPITAL EAST,2815 S SEACREST BLVD,BOYNTON BEACH,33435,PALM BEACH,561-737-7733,HOSPITALS - ACUTE CARE,BETHESDA HOSPITAL INC,PRIVATE,PRIVATE,BETHESDA MEM. HOSP.,NOT-FOR-PROFIT,0,401,FL000132,EFHL,100002, , , ,OTHER COPPER WIRELINE,50 MBPS TO 100 MBPS,1.5 MBPS TO 3 MBPS,OTHER COPPER WIRELINE,1.5 MBPS TO 3 MBPS,1.5 MBPS TO 3 MBPS,4,HTTP://WWW.BETHESDAWEB.COM,1958,GEOPLAN,FDEM,BETHESDA HOSPITAL EAST,26.50451268,-80.07054519,17RNK9261931893,154,27.49850913,BETHESDA HOSPITAL EAST,V,2016-05-17,2017-09-06,11,26.50451268,-80.07054519,11
12,044624030000B0000,N/A,HEALTHPARK MEDICAL CENTER,9981 HEALTHPARK DR,FORT MYERS,33908,LEE,239-433-7799,HOSPITALS - ACUTE CARE,LEE MEMORIAL HEALTH SYSTEM,PRIVATE,PRIVATE,LEE MEMORIAL HEALTH SYSTEM,PUBLIC/GOVERNMENT,0,368,N/A,EFHL,120005,OPTICAL FIBER,100 MBPS TO 1 GBPS,100 MBPS TO 1 GBPS, , , , , , ,2,HTTP://WWW.LEEMEMORIAL.ORG/FACILITIES/HEALTHPARK.ASP,1991,GEOPLAN,FHA, ,26.50731789,-81.91316119,17RMK0900732192,155,196.4044721,HEALTHPARK MEDICAL CENTER,V,2011-05-10,2017-09-06,12,26.50731789,-81.91316119,12
13,19452528000000020,10225009,GULF COAST MEDICAL CENTER,13681 DOCTORS WAY,FORT MYERS,33912,LEE,239-343-1000,HOSPITALS - ACUTE CARE,LEE MEMORIAL HEALTH SYSTEM,PRIVATE,PRIVATE,LEE MEMORIAL HEALTH SYSTEM,PUBLIC/GOVERNMENT,0,356,FL000129,EFHL,100220, , , , , , , , , , ,HTTP://WWW.LEEMEMORIAL.ORG/,1990,GEOPLAN,FDEM, ,26.54377481,-81.8507936,17RMK1524836187,156,70.44439215,GULF COAST MEDICAL CENTER,V,2016-05-17,2017-09-06,13,26.54377481,-81.8507936,13
14,02434431210010000,10225029,JFK MEDICAL CENTER,5301 S CONGRESS AVE,ATLANTIS,33462,PALM BEACH,561-965-7300,HOSPITALS - ACUTE CARE,JFK MEDICAL CENTER LTD PTNRSHP,PRIVATE,PRIVATE,HCA EAST FLORIDA DIVISION,INVESTOR-OWNED,0,472,FL000149,EFHL,100080, , , ,OTHER,50 MBPS TO 100 MBPS,10 MBPS TO 25 MBPS,OPTICAL FIBER,6 MBPS TO 10 MBPS,6 MBPS TO 10 MBPS,4,HTTP://JFKMC.COM/HOME/INDEX.DOT,1991,GEOPLAN,FDEM, ,26.59867065,-80.09147485,17RNK9046042307,158,20.38984301,JFK MEDICAL CENTER,V,2016-05-17,2017-09-06,14,26.59867065,-80.09147485,14
15,3044270000001005A,10224895,LEHIGH REGIONAL MEDICAL CENTER,1500 LEE BLVD,LEHIGH ACRES,33936,LEE,239-369-2101,HOSPITALS - ACUTE CARE,1550 LEE BLVD LLC,PRIVATE,PRIVATE,HEALTH MANAGEMENT ASSOCIATES,INVESTOR-OWNED,0,88,FL000033,EFHM,100107, , , , , , , , , , ,HTTP://WWW.LEHIGHREGIONAL.COM/,1969,GEOPLAN,FDEM, ,26.61542799,-81.65944602,17RMK3435144011,160,15.53540355,LEHIGH REGIONAL MEDICAL CENTER,V,2011-05-10,2017-09-06,15,26.61542799,-81.65944602,15
16,234424P3020130010,10225065,LEE MEMORIAL HEALTH SYSTEM,2776 CLEVELAND AVE,FORT MYERS,33901,LEE,239-343-2000,HOSPITALS - ACUTE CARE,LEE MEMORIAL HEALTH SYSTEM,PRIVATE,PRIVATE,LEE MEMORIAL HEALTH SYSTEM,PUBLIC/GOVERNMENT,0,411,FL000185,EFHL,100012,OPTICAL FIBER,100 MBPS TO 1 GBPS,100 MBPS TO 1 GBPS, , , , , , ,2,HTTP://WWW.LEEMEMORIAL.ORG/,1967,GEOPLAN,FDEM, ,26.628529,-81.8742157,17RMK1297945590,161,23.58850775,LEE MEMORIAL HEALTH SYSTEM,V,2016-05-17,2017-09-06,16,26.628529,-81.8742157,16
17,184424C3000020000,10225024,CAPE CORAL HOSPITAL,636 DEL PRADO BLVD,CAPE CORAL,33990,LEE,239-574-2323,HOSPITALS - ACUTE CARE,CAPE MEMORIAL HOSPITAL INC,PRIVATE,PRIVATE,LEE MEMORIAL HEALTH SYSTEM,PUBLIC/GOVERNMENT,0,291,FL000144,EFHL,100244,OPTICAL FIBER,100 MBPS TO 1 GBPS,100 MBPS TO 1 GBPS, , , , , , ,2,HTTP://WWW.LEEMEMORIAL.ORG/FACILITIES/CAPECORALHOSPITAL.ASP,1976,GEOPLAN,FDEM, ,26.63948902,-81.94199106,17RMK0624146852,162,43.29906414,CAPE CORAL HOSPITAL,V,2011-05-10,2017-09-06,17,26.63948902,-81.94199106,17
18,73424327050180204,10225106,WELLINGTON REGIONAL MEDICAL CENTER,10101 FOREST HILL BLVD,WEST PALM BEACH,33414,PALM BEACH,561-798-8500,HOSPITALS - ACUTE CARE,UNIVERSAL HEALTH REALTY INCOME,PRIVATE,PRIVATE,UNIVERSAL HEALTH SERVICES INC,INVESTOR-OWNED,0,233,FL000230,EFHL,110010, , , ,OTHER COPPER WIRELINE,3 MBPS TO 6 MBPS,200 KBPS TO 768 KBPS,DSL ASYMMETRIC,200 KBPS TO 768 KBPS,6 MBPS TO 10 MBPS,3,HTTP://WWW.WELLINGTONREGIONAL.COM/,1986,GEOPLAN,FDEM, ,26.65183121,-80.20509304,17RNK7911048119,163,56.66434532,WELLINGTON REGIONAL MEDICAL CENTER,V,2016-05-17,2017-09-06,18,26.65183121,-80.20509304,18
19,0940360000290,10224978,SOUTH MIAMI HOSPITAL,6200 SW 73RD ST,MIAMI,33143,MIAMI-DADE,786-662-4000,HOSPITALS - ACUTE CARE,SOUTH MIAMI HOSPITAL,PRIVATE,PRIVATE,BAPTIST HEALTH SOUTH FLORIDA,NOT-FOR-PROFIT,0,452,FL000213,EFHL,100154, , , ,OPTICAL FIBER,100 MBPS TO 1 GBPS,10 MBPS TO 25 MBPS,OPTICAL FIBER,100 MBPS TO 1 GBPS,100 MBPS TO 1 GBPS,3,HTTP://WWW.BAPTISTHEALTH.NET,1958,GEOPLAN,FDEM, ,25.70148778,-80.29418306,17RNJ7081542815,164,17.80470338,SOUTH MIAMI HOSPITAL,V,2016-05-17,2017-09-06,19,25.70148778,-80.29418306,19
20,0940250270010,10224977,LARKIN COMMUNITY HOSPITAL,7031 SW 62ND AVE,SOUTH MIAMI,33143,MIAMI-DADE,305-284-7500,HOSPITALS - ACUTE CARE,LARKIN COMMUNITY HOSPITAL INC,PRIVATE,PRIVATE,"ORACLE HEALTH SYSTEMS, INC.",INVESTOR-OWNED,0,146,FL000212,EFHM,100181, , , ,OPTICAL FIBER,25 MBPS TO 50 MBPS,200 KBPS TO 768 KBPS,DSL ASYMMETRIC,200 KBPS TO 768 KBPS,3 MBPS TO 6 MBPS,3,HTTP://WWW.LARKINHOSPITAL.COM/,1968,GEOPLAN,FDEM, ,25.70549205,-80.29314337,17RNJ7091743259,165,4.42547764,LARKIN COMMUNITY HOSPITAL,V,2016-05-17,2017-09-06,20,25.70549205,-80.29314337,20
21,0341190030010,10225042,DOCTORS HOSPITAL - BAPTIST HEALTH SOUTH FLORIDA,5000 UNIVERSITY DR,CORAL GABLES,33146,MIAMI-DADE,786-308-3078,HOSPITALS - ACUTE CARE,DOCTORS HOSPITAL INC,PRIVATE,PRIVATE,BAPTIST HEALTH SOUTH FLORIDA,NOT-FOR-PROFIT,0,281,FL000162,EFHL,100020, , , ,DSL ASYMMETRIC,100 MBPS TO 1 GBPS,10 MBPS TO 25 MBPS,OTHER COPPER WIRELINE,100 MBPS TO 1 GBPS,100 MBPS TO 1 GBPS,3,HTTP://WWW.BAPTISTHEALTH.NET,1953,GEOPLAN,FDEM,DOCTORS HOSPITAL,25.72435666,-80.27401796,17RNJ7282545359,166,14.53627965,DOCTORS HOSPITAL - BAPTIST HEALTH SOUTH FLORIDA,V,2016-05-17,2017-09-06,21,25.72435666,-80.27401796,21
22,3049130000011,10224904,KENDALL REGIONAL MEDICAL CENTER,11750 BIRD RD,MIAMI,33175,MIAMI-DADE,305-223-3000,HOSPITALS - ACUTE CARE,COLUMBIA LAGRANGE HOSPITAL INC,PRIVATE,PRIVATE,HCA EAST FLORIDA DIVISION,INVESTOR-OWNED,0,417,FL000042,EFHL,100209, , , ,OPTICAL FIBER,50 MBPS TO 100 MBPS,10 MBPS TO 25 MBPS,OPTICAL FIBER,6 MBPS TO 10 MBPS,6 MBPS TO 10 MBPS,4,HTTP://WWW.KENDALLMED.COM/,1962,GEOPLAN,FDEM, ,25.73098453,-80.38535664,17RNJ6165246036,167,18.06707078,KENDALL REGIONAL MEDICAL CENTER,V,2016-05-17,2017-09-06,22,25.73098453,-80.38535664,22
23,3040140150010,10225091,WESTCHESTER GENERAL HOSPITAL,2500 SW 75TH AVE,MIAMI,33155,MIAMI-DADE,305-264-5252,HOSPITALS - ACUTE CARE,WESTCHESTER GENERAL HOSPITAL I,PRIVATE,PRIVATE,WESTCHESTER GENERAL HOSPITAL,INVESTOR-OWNED,0,125,FL000242,EFHM,100165,OPTICAL FIBER,6 MBPS TO 10 MBPS,10 MBPS TO 25 MBPS, , , , , , ,2,HTTP://WWW.WESTCHESTERHOSPITAL.COM/,1965,GEOPLAN,FDEM, ,25.74738649,-80.31757695,17RNJ6844247886,168,6.75018222,WESTCHESTER GENERAL HOSPITAL,V,2011-05-10,2017-09-06,23,25.74738649,-80.31757695,23
24,3040140270020,N/A,WEST GABLES REHABILITATION HOSPITAL,2525 SW 75TH AVE,MIAMI,33155,MIAMI-DADE,305-262-6800,HOSPITALS - REHABILITATION,FIELD WILLOW REAL ESTATE B V,PRIVATE,PRIVATE,WEST GABLES REHABILITATION HOS,INVESTOR-OWNED,0,60,N/A,EFHM,110041, , , , , , , , , , ,HTTP://WWW.REHABCARE.COM,1988,GEOPLAN,FHA, ,25.74707974,-80.31651416,17RNJ6854847853,169,4.95487409,WEST GABLES REHABILITATION HOSPITAL,V,2011-05-10,2017-09-06,24,25.74707974,-80.31651416,24
25,3040130090140,10224920,NICKLAUS CHILDREN'S HOPSPITAL - FORMERLY MIAMI CHILDREN'S HOSPITAL,3100 SW 62ND AVE,MIAMI,33155,MIAMI-DADE,305-666-6511,HOSPITALS - CHILDREN/ACUTE CARE,MIAMI CHILDRENS HOSPITAL,PRIVATE,PRIVATE,MIAMI CHILDREN'S HOSPITAL,NOT-FOR-PROFIT,0,289,FL000058,EFHL,110199,OTHER COPPER WIRELINE,100 MBPS TO 1 GBPS,GREATER THAN 1 GBPS, , , , , , ,2,HTTP://WWW.MCH.COM/,1951,GEOPLAN,FDEM,NICKLAUS CHILDREN'S HOSPITAL,25.74131096,-80.29441955,17RNJ7076847225,170,24.01572921,NICKLAUS CHILDREN'S HOPSPITAL - FORMERLY MIAMI CHILDREN'S HOSPITAL,V,2016-05-17,2017-09-06,25,25.74131096,-80.29441955,25
26,0341170059010,10225084,CORAL GABLES HOSPITAL,3100 DOUGLAS RD,CORAL GABLES,33134,MIAMI-DADE,305-445-8461,HOSPITALS - ACUTE CARE,RICHARD B SILVER TR,PRIVATE,PRIVATE,TENET HEALTHSYSTEM,INVESTOR-OWNED,0,245,FL000234,EFHL,100183, , , , , , , , , , ,HTTP://WWW.CORALGABLESHOSPITAL.COM,1959,GEOPLAN,FDEM, ,25.74359587,-80.2547048,17RNJ7475047500,171,3.15706796,CORAL GABLES HOSPITAL,V,2011-05-10,2017-09-06,26,25.74359587,-80.2547048,26
27,0141140270010,10224911,MERCY HOSPITAL,3663 S MIAMI AVE,MIAMI,33133,MIAMI-DADE,305-854-4400,HOSPITALS - ACUTE CARE,PLANTATION GENERAL HOSPITAL L,PRIVATE,PRIVATE,CATHOLIC HEALTH EAST,NOT-FOR-PROFIT,0,488,FL000049,EFHL,100061,OPTICAL FIBER,10 MBPS TO 25 MBPS,10 MBPS TO 25 MBPS, , , , , , ,2,HTTP://WWW.MERCYMIAMI.COM/,1947,GEOPLAN,FDEM,TWO HOSPITALS ON ONE PARCEL,25.74028384,-80.21407309,17RNJ7882747157,172,50.13490366,MERCY HOSPITAL,V,2016-05-17,2017-09-06,27,25.74028384,-80.21407309,27
28,0141140270010,N/A,SISTER EMMANUEL HOSPITAL,3663 S MIAMI AVE - 4TH FLOOR,MIAMI,33133,MIAMI-DADE,305-285-2939,HOSPITALS - ACUTE CARE,PLANTATION GENERAL HOSPITAL L,PRIVATE,PRIVATE,CATHOLIC HEALTH EAST,NOT-FOR-PROFIT,0,29,N/A,EFHS,23960044, , , , , , , , , , ,HTTP://WWW.MERCYMIAMI.ORG/SISTER-EMMANUEL-HOSPITAL/,1947,GEOPLAN,FHA,SISTER EMMANUEL HOSPITAL,25.74206875,-80.21655226,17RNJ7857847353,173,50.15268467,SISTER EMMANUEL HOSPITAL,V,2016-05-17,2017-09-06,28,25.74206875,-80.21655226,28
29,0341070240010,10224907,KINDRED HOSPITAL SOUTH FLORIDA - CORAL GABLES,5190 SW EIGHTH ST,CORAL GABLES,33134,MIAMI-DADE,305-448-1585,HOSPITALS - ACUTE CARE,VENTAS REALTY LTD PARTNERSHIP,PRIVATE,PRIVATE,KINDRED EAST REGION OFFICE,INVESTOR-OWNED,0,55,FL000045,EFHM,100152, , , , , , , , , , ,HTTP://WWW.KHCORALGABLES.COM/,1956,GEOPLAN,FDEM, ,25.76359248,-80.27882523,17RNJ7231949701,174,1.57453107,KINDRED HOSPITAL SOUTH FLORIDA - CORAL GABLES,V,2016-05-17,2017-09-06,29,25.76359248,-80.27882523,29
30,0130510040010,10224919,THE MIAMI MEDICAL CENTER,5959 NW SEVENTH ST,MIAMI,33126,MIAMI-DADE,305-264-1000,HOSPITALS - ACUTE CARE,METROPOLITAN HEALTH COMMUNITY,PRIVATE,PRIVATE,METROPOLITAN HEALTH COMMUNITY SERVICES,NOT-FOR-PROFIT,0,69,FL000057,EFHM,100076, , , , , , , , , , ,HTTP://WWW.MHMIAMI.COM,1962,GEOPLAN,FDEM,THE MIAMI MEDICAL CENTER,25.77834576,-80.29348787,17RNJ7083951327,175,4.16752974,THE MIAMI MEDICAL CENTER,V,2016-05-17,2017-09-06,30,25.77834576,-80.29348787,30
31,0141020410001,N/A,SELECT SPECIALTY HOSPITAL - MIAMI (VICTORIA CENTER),955 NW 3RD ST,MIAMI,33128,MIAMI-DADE,305-416-5700,HOSPITALS - ACUTE CARE,REFERENCE ONLY,PRIVATE,PRIVATE,SELECT MEDICAL CORPORATION,INVESTOR-OWNED,0,47,N/A,EFHS,23960028, , , , , , , , , , ,HTTP://WWW.SELECTSPECIALTYHOSPITALS.COM/,0,GEOPLAN,FHA, ,25.77700247,-80.21085036,17RNJ7912651226,176,2.49550176,SELECT SPECIALTY HOSPITAL - MIAMI (VICTORIA CENTER),V,2011-05-10,2017-09-06,31,25.77700247,-80.21085036,31
32,0131350000160,10225043,BRUCE W CARTER DEPARTMENT OF VETERANS AFFAIRS MEDICAL CENTER,1201 NW 16TH ST,MIAMI,33125,MIAMI-DADE,305-575-7000,HOSPITALS - FEDERAL,UNITED STATES OF AMERICA,FEDERAL,PUBLIC,FEDERAL GOVERNMENT,PUBLIC,0,372,FL000163,EFHL,N/A, , , , , , , , , , ,HTTP://WWW.MIAMI.VA.GOV/,1959,GEOPLAN,FDEM, ,25.79207176,-80.21614074,17RNJ7858652891,178,24.44874714,BRUCE W CARTER DEPARTMENT OF VETERANS AFFAIRS MEDICAL CENTER,V,2016-05-17,2017-09-06,32,25.79207176,-80.21614074,32
33,0131350380010,10224916,UNIVERSITY OF MIAMI HOSPITAL/SYLVESTER COMPREHENSIVE CANCER CENTER,1475 NW 12TH AVE,MIAMI,33136,MIAMI-DADE,305-243-1000,HOSPITALS - ACUTE CARE,UNIVERSITY OF MIAMI,PRIVATE,PRIVATE,UNIVERSITY OF MIAMI SPECIALTY HOSPITALS,NOT-FOR-PROFIT,0,40,FL000054,EFHS,100079, , , , , , , , , , ,HTTP://WWW.SYLVESTER.ORG/,0,GEOPLAN,FDEM, ,25.78893522,-80.21420897,17RNJ7878252545,179,16.7290822,UNIVERSITY OF MIAMI HOSPITAL/SYLVESTER COMPREHENSIVE CANCER CENTER,V,2012-11-15,2017-09-06,33,25.78893522,-80.21420897,33
34,0131350030030,10224912,JACKSON MEMORIAL HOSPITAL - RYDER TRAUMA CENTER - HOLTZ CHILDREN'S HOSPITAL - JACKSON REHAB HOSPITAL,1611 NW 12TH AVE,MIAMI,33136,MIAMI-DADE,305-585-1111,HOSPITALS - ACUTE CARE,UNIVERSITY OF MIAMI,PRIVATE,PRIVATE,JACKSON HEALTH SYSTEM,PUBLIC/GOVERNMENT,0,1254,FL000050,EFHL,100022, , , , , , , , , , ,HTTP://WWW.JHSMIAMI.ORG,1961,GEOPLAN,FDEM,JACKSON MEMORIAL HOSPITAL,25.79166388,-80.21229713,17RNJ7897252848,180,51.89473253,JACKSON MEMORIAL HOSPITAL - RYDER TRAUMA CENTER - HOLTZ CHILDREN'S HOSPITAL - JACKSON REHAB HOSPITAL,V,2016-05-17,2017-09-06,34,25.79166388,-80.21229713,34
35,34-1S-24-0000-0052-0050,10225068,FORT WALTON BEACH MEDICAL CENTER,1000 MAR WALT DR,FORT WALTON BEACH,32547,OKALOOSA,850-862-1111,HOSPITALS - ACUTE CARE,FT WALTON BEACH MEDICAL CENTER,PRIVATE,PRIVATE,HCA NORTH FLORIDA DIVISION,INVESTOR-OWNED,0,237,FL000188,EFHL,100223, , , ,OTHER COPPER WIRELINE,25 MBPS TO 50 MBPS,1.5 MBPS TO 3 MBPS,OTHER COPPER WIRELINE,25 MBPS TO 50 MBPS,25 MBPS TO 50 MBPS,4,HTTP://FWBMC.COM/HOME/INDEX.DOT,1973,GEOPLAN,FDEM, ,30.4549043,-86.63359202,16REU3517769251,82,24.30733842,FORT WALTON BEACH MEDICAL CENTER,V,2016-05-17,2017-09-06,35,30.4549043,-86.63359202,35
36,17 31 19 03478 001 0011,10224967,BAYFRONT HEALTH ST. PETERSBURG,701 SIXTH ST S,ST PETERSBURG,33701,PINELLAS,727-823-1234,HOSPITALS - ACUTE CARE,CITY OF ST PETERSBURG,MUNICIPAL,PUBLIC,BAYFRONT HEALTH SYSTEM,NOT-FOR-PROFIT,0,480,FL000202,EFHL,100032, , , ,OPTICAL FIBER,10 MBPS TO 25 MBPS,768 KBPS TO 1.5 KBPS,DSL SYMMETRIC,1.5 MBPS TO 3 MBPS,1.5 MBPS TO 3 MBPS,3,HTTP://WWW.BAYFRONT.ORG/,1952,GEOPLAN,FDEM,BAYFRONT HEALTH ST PETERSBURG,27.76279716,-82.64197536,17RLL3819272007,250,25.95032231,BAYFRONT HEALTH ST. PETERSBURG,V,2016-05-17,2017-09-06,36,27.76279716,-82.64197536,36
37,092226090505500000,10225038,SOUTH LAKE HOSPITAL,1900 DON WICKHAM DR,CLERMONT,34711,LAKE,352-394-4071,HOSPITALS - ACUTE CARE,SOUTH LAKE MEMORIAL HOSPITAL,PRIVATE,PRIVATE,ORLANDO HEALTH,NOT-FOR-PROFIT,0,170,FL000158,EFHL,100051, , , ,OPTICAL FIBER,768 KBPS TO 1.5 KBPS,10 MBPS TO 25 MBPS,OPTICAL FIBER,768 KBPS TO 1.5 KBPS,768 KBPS TO 1.5 KBPS,4,HTTP://WWW.SOUTHLAKEHOSPITAL.COM/,2003,GEOPLAN,FDEM, ,28.55211179,-81.72160714,17RMM2941458578,343,32.14365842,SOUTH LAKE HOSPITAL,V,2016-05-17,2017-09-06,37,28.55211179,-81.72160714,37
38,282110000000016,N/A,FLORIDA HOSPITAL APOPKA,201 N PARK AVE,APOPKA,32703,ORANGE,407-889-1000,HOSPITALS - ACUTE CARE,ADVENTIST HEALTH SYSTEM/SUNBEL,PRIVATE,PRIVATE,ADVENTIST HEALTH SYSTEM,NOT-FOR-PROFIT,0,50,N/A,EFHM,120003, , , ,OPTICAL FIBER,100 MBPS TO 1 GBPS,10 MBPS TO 25 MBPS,OPTICAL FIBER,100 MBPS TO 1 GBPS,100 MBPS TO 1 GBPS,3,HTTP://WWW.FLORIDAHOSPITALAPOPKA.COM/,1967,GEOPLAN,FHA, ,28.68090898,-81.50864946,17RMM5030672740,1,22.93074209,FLORIDA HOSPITAL APOPKA,V,2012-11-26,2017-09-06,38,28.68090898,-81.50864946,38
39,31203030003500000,10225003,SOUTH SEMINOLE HOSPITAL,555 W STATE ROAD 434,LONGWOOD,32750,SEMINOLE,407-767-1200,HOSPITALS - ACUTE CARE,ORLANDO HEALTH INC C/O ACCOUNT,PRIVATE,PRIVATE,ORLANDO HEALTH,NOT-FOR-PROFIT,0,206,FL000123,EFHL,100263, , , ,OPTICAL FIBER,768 KBPS TO 1.5 KBPS,10 MBPS TO 25 MBPS,OPTICAL FIBER,768 KBPS TO 1.5 KBPS,768 KBPS TO 1.5 KBPS,4,HTTP://WWW.ORLANDOHEALTH.COM/,1984,GEOPLAN,FDEM,SOUTH SEMINOLE HOPSITAL,28.6992438,-81.35282529,17RMM6553674716,2,26.05088571,SOUTH SEMINOLE HOSPITAL,V,2016-05-17,2017-09-06,39,28.6992438,-81.35282529,39
40,251924000200022100,10224986,LEESBURG REGIONAL MEDICAL CENTER,600 E DIXIE AVE,LEESBURG,34748,LAKE,352-323-5762,HOSPITALS - ACUTE CARE,LEESBURG REGIONAL MEDICAL CENT,PRIVATE,PRIVATE,CENTRAL FLORIDA HEALTH ALLIANCE,NOT-FOR-PROFIT,0,308,FL000106,EFHL,100084, , , ,OPTICAL FIBER,GREATER THAN 1 GBPS,50 MBPS TO 100 MBPS,UNLICENSED TERRESTRIAL FIXED WIRELESS,6 MBPS TO 10 MBPS,6 MBPS TO 10 MBPS,4,HTTP://WWW.CFHALLIANCE.ORG/,1973,GEOPLAN,FDEM, ,28.80797402,-81.86790367,17RMM1530987020,3,49.73951872,LEESBURG REGIONAL MEDICAL CENTER,V,2016-05-17,2017-09-06,40,28.80797402,-81.86790367,40
41,2519305AG01170000,10224972,CENTRAL FLORIDA REGIONAL HOSPITAL,1401 W SEMINOLE BLVD,SANFORD,32771,SEMINOLE,407-321-4500,HOSPITALS - ACUTE CARE,CENTRAL FLA REGIONAL HOSP INC,PRIVATE,PRIVATE,HCA WEST FLORIDA DIVISION,INVESTOR-OWNED,0,221,FL000207,EFHL,100161, , , , , , , , , , ,HTTP://WWW.CENTRALFLORIDAREGIONAL.COM/,1982,GEOPLAN,FDEM, ,28.81432424,-81.28364817,17RMM7232387448,5,31.04207541,CENTRAL FLORIDA REGIONAL HOSPITAL,V,2016-05-17,2017-09-06,41,28.81432424,-81.28364817,41
42,211926000100000200,10225054,FLORIDA HOSPITAL WATERMAN,1000 WATERMAN WAY,TAVARES,32778,LAKE,352-253-3333,HOSPITALS - ACUTE CARE,FLORIDA HOSPITAL/WATERMAN INC,PRIVATE,PRIVATE,ADVENTIST HEALTH SYSTEM,NOT-FOR-PROFIT,0,269,N/A,EFHL,100057, , , , , , , , , ,2,HTTP://WWW.FHWAT.ORG/,0,GEOPLAN,LAKE COUNTY, ,28.8238325,-81.711253,17RMM3060688676,6,158.0206317,FLORIDA HOSPITAL WATERMAN,V,2016-05-17,2017-09-06,42,28.8238325,-81.711253,42
43,20E19S170050  00960 0010,10224874,CITRUS MEMORIAL HEALTH SYSTEM,502 W HIGHLAND BLVD,INVERNESS,34452,CITRUS,352-726-1551,HOSPITALS - ACUTE CARE,CITRUS COUNTY HOSPITAL BOARD,PRIVATE,PRIVATE,N/A,NOT-FOR-PROFIT,0,204,FL000012,EFHL,100023, , , ,OPTICAL FIBER,10 MBPS TO 25 MBPS,10 MBPS TO 25 MBPS,OPTICAL FIBER,10 MBPS TO 25 MBPS,10 MBPS TO 25 MBPS,3,HTTP://WWW.CITRUSMH.COM/,1956,GEOPLAN,FDEM,CITRUS MEMORIAL HEALTH SYSTEM,28.83342705,-82.33585951,17RLM6967390264,7,21.76846211,CITRUS MEMORIAL HEALTH SYSTEM,V,2016-05-17,2017-09-06,43,28.83342705,-82.33585951,43
44,151924000100002200,N/A,LIFESTREAM BEHAVIORAL CENTER,2020 TALLEY RD,LEESBURG,34748,LAKE,352-315-7800,HOSPITALS - PSYCHIATRIC,LIFESTREAM BEHAVIORAL CENTER I,PRIVATE,PRIVATE,LIFESTREAM BEHAVIORAL CENTER,NOT-FOR-PROFIT,20,46,N/A,EFHS,104018, , , , , , , , , , ,HTTP://WWW.LSBC.NET/,1975,GEOPLAN,FDOH,LIFESTREAM BEHAVIORAL CENTER,28.83683,-81.8953498,17RMM1265490237,8,31.74380219,LIFESTREAM BEHAVIORAL CENTER,V,2016-05-17,2017-09-06,44,28.83683,-81.8953498,44
45,30182323000020,10225008,FLORIDA HOSPITAL FISH MEMORIAL,1055 SAXON BLVD,ORANGE CITY,32763,VOLUSIA,386-917-5000,HOSPITALS - ACUTE CARE,SOUTHWEST VOLUSIA HEALTHCARE &,PRIVATE,PRIVATE,ADVENTIST HEALTH SYSTEM,NOT-FOR-PROFIT,0,175,FL000128,EFHL,100072,OTHER COPPER WIRELINE,GREATER THAN 1 GBPS,GREATER THAN 1 GBPS, , , , , , ,2,HTTP://WWW.FHFISHMEMORIAL.ORG/,1996,GEOPLAN,FDEM, ,28.91451326,-81.28530836,17RMM7218898548,9,74.1589483,FLORIDA HOSPITAL FISH MEMORIAL,V,2016-05-17,2017-09-06,45,28.91451326,-81.28530836,45
46,D01J1100B,N/A,THE VILLAGES REGIONAL HOSPITAL,1451 EL CAMINO REAL,THE VILLAGES,32159,SUMTER,352-751-8000,HOSPITALS - ACUTE CARE,"THE VILLAGES TRI-COUNTY, MEDIC",PRIVATE,PRIVATE,CENTRAL FLORIDA HEALTH ALLIANCE,NOT-FOR-PROFIT,0,277,N/A,EFHL,23960032, , , , , , , , , , ,HTTP://WWW.CFHALLIANCE.ORG/,2002,GEOPLAN,FHA, ,28.95042138,-81.958466,17RMN0659902871,10,34.29587812,THE VILLAGES REGIONAL HOSPITAL,V,2016-05-17,2017-09-06,46,28.95042138,-81.958466,46
47,17E17S31      22400,10225045,SEVEN RIVERS REGIONAL MEDICAL CENTER,6201 N SUNCOAST BLVD,CRYSTAL RIVER,34428,CITRUS,352-795-6560,HOSPITALS - ACUTE CARE,CITRUS HMA LLC,PRIVATE,PRIVATE,HEALTH MANAGEMENT ASSOCIATES,INVESTOR-OWNED,0,128,FL000165,EFHM,100249, , , ,DON'T KNOW,DON'T KNOW,DON'T KNOW,DON'T KNOW,DON'T KNOW,DON'T KNOW,4,HTTP://WWW.SEVENRIVERSREGIONAL.COM/DEFAULT.ASPX,1978,GEOPLAN,FDEM, ,28.95193439,-82.6243747,17RLN4170203747,11,26.67588315,SEVEN RIVERS REGIONAL MEDICAL CENTER,V,2011-05-10,2017-09-06,47,28.95193439,-82.6243747,47
48,34174138162221,10224924,FLORIDA HOSPITAL NEW SMYRNA,401 PALMETTO ST,NEW SMYRNA BEACH,32168,VOLUSIA,386-424-5000,HOSPITALS - ACUTE CARE,SE VOLUSIA HOSPITAL DISTRICT,PRIVATE,PRIVATE,ADVENTIST HEALTH SYSTEM,PUBLIC/GOVERNMENT,0,112,FL000062,EFHM,100014, , , ,OPTICAL FIBER,10 MBPS TO 25 MBPS,6 MBPS TO 10 MBPS,CABLE MODEM,200 KBPS TO 768 KBPS,6 MBPS TO 10 MBPS,4,HTTP://WWW.BERTFISH.COM,1996,GEOPLAN,FDEM,FLORIDA HOSPITAL NEW SMYRNA,29.02067267,-80.92183836,17RNN0761110278,12,10.74912709,FLORIDA HOSPITAL NEW SMYRNA,V,2016-05-17,2017-09-06,48,29.02067267,-80.92183836,48
49,30170500000010,10225051,FLORIDA HOSPITAL DELAND,701 W PLYMOUTH AVE,DELAND,32720,VOLUSIA,386-943-4522,HOSPITALS - ACUTE CARE,MEMORIAL HOSPITAL WEST VOLUSIA,PRIVATE,PRIVATE,ADVENTIST HEALTH SYSTEM,NOT-FOR-PROFIT,0,156,FL000171,EFHL,100045,OPTICAL FIBER,GREATER THAN 1 GBPS,GREATER THAN 1 GBPS, , , , , , ,2,HTTP://WWW.FHDELAND.ORG/,1999,GEOPLAN,FDEM, ,29.04409201,-81.31796017,17RMN6904412912,13,47.53834279,FLORIDA HOSPITAL DELAND,V,2011-05-10,2017-09-06,49,29.04409201,-81.31796017,49
50,33160930000030,N/A,HALIFAX HEALTH MEDICAL CENTER OF PORT ORANGE,1041 DUNLAWTON AVE,PORT ORANGE,32127,VOLUSIA,386-322-4700,HOSPITALS - ACUTE CARE,HALIFAX HOSPITAL MED CENTER,PRIVATE,PRIVATE,HALIFAX HEALTH,PUBLIC/GOVERNMENT,0,80,N/A,EFHM,23960051, , , ,OTHER COPPER WIRELINE,50 MBPS TO 100 MBPS,1.5 MBPS TO 3 MBPS,OTHER COPPER WIRELINE,50 MBPS TO 100 MBPS,50 MBPS TO 100 MBPS,4,HTTP://WWW.HALIFAXHEALTH.ORG/,1994,GEOPLAN,FHA, ,29.1262528,-81.00867535,17RMN9915621974,14,17.42232811,HALIFAX HEALTH MEDICAL CENTER OF PORT ORANGE,V,2011-05-10,2017-09-06,50,29.1262528,-81.00867535,50
51,35460-004-00,N/A,THE CENTERS - FORMERLY MARION-CITRUS MENTAL HEALTH CENTERS,5664 SW 60TH AVE,OCALA,34474,MARION,352-291-5500,HOSPITALS - PSYCHIATRIC,THE CENTERS INC,PRIVATE,PRIVATE,N/A,NOT-FOR-PROFIT,0,15,N/A,EFHS,23960047, , , , , , , , , , ,HTTP://WWW.MARION-CITRUSMHC.ORG,1987,GEOPLAN,FHA,THE CENTERS,29.13088599,-82.21952677,17RLN8136323101,15,24.85440992,THE CENTERS - FORMERLY MARION-CITRUS MENTAL HEALTH CENTERS,V,2016-05-17,2017-09-06,51,29.13088599,-82.21952677,51
52,23832-001-00,N/A,WEST MARION COMMUNITY HOSPITAL,4600 SW 46TH CT,OCALA,34474,MARION,352-291-3000,HOSPITALS - ACUTE CARE,MARION COMMUNITY HOSPITAL INC,PRIVATE,PRIVATE,HCA NORTH FLORIDA DIVISION,INVESTOR-OWNED,0,94,N/A,EFHM,23960039, , , ,OTHER COPPER WIRELINE,25 MBPS TO 50 MBPS,1.5 MBPS TO 3 MBPS,OTHER COPPER WIRELINE,25 MBPS TO 50 MBPS,25 MBPS TO 50 MBPS,4,HTTP://OCALAHEALTHSYSTEM.COM/HOME/INDEX.DOT,2002,GEOPLAN,FHA, ,29.14113929,-82.20014079,17RLN8326124218,16,47.70240757,WEST MARION COMMUNITY HOSPITAL,V,2016-05-17,2017-09-06,52,29.14113929,-82.20014079,52
53,2372-006-001,N/A,THE VINES HOSPITAL,3130 SW 27TH AVE,OCALA,34471,MARION,352-671-3130,HOSPITALS - PSYCHIATRIC,OCALA BEHAVIORAL HEALTH LLC,PRIVATE,PRIVATE,UNIVERSAL HEALTH SERVICES INC,INVESTOR-OWNED,0,64,N/A,EFHM,23960073, , , , , , , , , , ,HTTP://WWW.THEVINESHOSPITAL.COM/,1985,GEOPLAN,FHA, ,29.1557431,-82.17069977,17RLN8614125808,17,8.34502137,THE VINES HOSPITAL,V,2016-05-17,2017-09-06,53,29.1557431,-82.17069977,53
54,28609-000-00,10224932,OCALA REGIONAL MEDICAL CENTER,1431 SW FIRST AVE,OCALA,34471,MARION,352-401-1000,HOSPITALS - ACUTE CARE,MARION COMMUNITY HOSPITAL,PRIVATE,PRIVATE,HCA NORTH FLORIDA DIVISION,INVESTOR-OWNED,0,216,FL000070,EFHL,100212, , , ,OTHER COPPER WIRELINE,25 MBPS TO 50 MBPS,1.5 MBPS TO 3 MBPS,OTHER COPPER WIRELINE,25 MBPS TO 50 MBPS,25 MBPS TO 50 MBPS,4,HTTP://OCALAHEALTHSYSTEM.COM/HOME/INDEX.DOT,1977,GEOPLAN,FDEM, ,29.17547863,-82.13653956,17RLN8948527962,18,14.73334193,OCALA REGIONAL MEDICAL CENTER,V,2016-05-17,2017-09-06,54,29.17547863,-82.13653956,54
55,28566-000-00,10224926,MUNROE REGIONAL MEDICAL CENTER,1500 SW 1ST AVE,OCALA,34471,MARION,352-351-7200,HOSPITALS - ACUTE CARE,MARION COUNTY HOSPITAL DISTRIC,PRIVATE,PRIVATE,"MUNROE REGIONAL HEALTH SYSTEM, INC.",NOT-FOR-PROFIT,0,421,FL000064,EFHL,100062, , , ,OPTICAL FIBER,100 MBPS TO 1 GBPS,10 MBPS TO 25 MBPS,OPTICAL FIBER,100 MBPS TO 1 GBPS,100 MBPS TO 1 GBPS,4,HTTP://WWW.MUNROEREGIONAL.COM/,1970,GEOPLAN,FDEM,TWO HOSPITALS ON ONE PARCEL,29.17537048,-82.1386145,17RLN8928327952,19,26.35712723,MUNROE REGIONAL MEDICAL CENTER,V,2011-05-10,2017-09-06,55,29.17537048,-82.1386145,55
56,28566-000-00,10053874,KINDRED HOSPITAL - OCALA,1500 SW 1ST AVE,OCALA,34474,MARION,352-369-0513,HOSPITALS - ACUTE CARE,MARION COUNTY HOSPITAL DISTRIC,PRIVATE,PRIVATE,KINDRED EAST REGION OFFICE,INVESTOR-OWNED,0,31,N/A,EFHS,23960060, , , , , , , , , , ,HTTP://WWW.KINDREDOCALA.COM/,1970,GEOPLAN,FDEM,TWO HOSPITALS ON ONE PARCEL,29.17543694,-82.13880525,17RLN8926427959,20,26.35712723,KINDRED HOSPITAL - OCALA,V,2011-05-10,2017-09-06,56,29.17543694,-82.13880525,56
57,32153844020010,10225017,HALIFAX HEALTH MEDICAL CENTER OF DAYTONA BEACH,303 N CLYDE MORRIS BLVD,DAYTONA BEACH,32114,VOLUSIA,386-254-4000,HOSPITALS - ACUTE CARE,HALIFAX HOSPITAL MEDICAL CTR,PRIVATE,PRIVATE,HALIFAX HEALTH,PUBLIC/GOVERNMENT,0,568,FL000137,EFHL,100017, , , ,OTHER COPPER WIRELINE,50 MBPS TO 100 MBPS,1.5 MBPS TO 3 MBPS,OTHER COPPER WIRELINE,50 MBPS TO 100 MBPS,50 MBPS TO 100 MBPS,4,HTTP://WWW.HALIFAXHEALTH.ORG/,2009,GEOPLAN,FDEM, ,29.20100948,-81.0542426,17RMN9472730257,21,128.4080718,HALIFAX HEALTH MEDICAL CENTER OF DAYTONA BEACH,V,2016-05-17,2017-09-06,57,29.20100948,-81.0542426,57
58,32151124000030,N/A,HALIFAX HEALTH BEHAVIORAL SERVICES,841 JIMMY ANN DR,DAYTONA BEACH,32117,VOLUSIA,386-274-5333,HOSPITALS - PSYCHIATRIC,HALIFAX HOSPITAL MEDICAL CTR,PRIVATE,PRIVATE,HALIFAX HEALTH,PUBLIC/GOVERNMENT,0,30,N/A,EFHS,110016, , , , , , , , , , ,HTTP://WWW.HALIFAXHEALTH.ORG/,1986,GEOPLAN,FHA,HALIFAX HEALTH - BEHAVIORAL SERVICES,29.21403414,-81.06883679,17RMN9330931701,22,9.56441658,HALIFAX HEALTH BEHAVIORAL SERVICES,V,2016-05-17,2017-09-06,58,29.21403414,-81.06883679,58
59,32141418060010,10225092,FLORIDA HOSPITAL OCEANSIDE (COLUMBIA MEDICAL),264 S ATLANTIC AVE,ORMOND BEACH,32176,VOLUSIA,386-672-4161,HOSPITALS - ACUTE CARE,MEMORIAL HEALTH SYSTEMS INC,PRIVATE,PRIVATE,ADVENTIST HEALTH SYSTEM,NOT-FOR-PROFIT,0,80,FL000243,EFHM,100068,OPTICAL FIBER,100 MBPS TO 1 GBPS,100 MBPS TO 1 GBPS, , , , , , ,2,HTTP://WWW.FLORIDAHOSPITALMEMORIAL.ORG/CONTACTUS.ASPX,1985,GEOPLAN,FDEM, ,29.28477603,-81.03683741,17RMN9642239538,24,4.84473679,FLORIDA HOSPITAL OCEANSIDE (COLUMBIA MEDICAL),V,2016-05-17,2017-09-06,59,29.28477603,-81.03683741,59
60,0507600100,10225104,REGIONAL GENERAL HOSPITAL WILLISTON - FORMERLY TRI-COUNTY HOSPITAL,125 SW SEVENTH ST,WILLISTON,32696,LEVY,352-528-2801,HOSPITALS - ACUTE CARE,REGIONAL HEALTH PARTNERS LLC,PRIVATE,PRIVATE,CYPRESS HEALTH SYSTEMS,INVESTOR-OWNED,0,40,FL000228,EFHS,100139, , , , , , , , , , ,HTTP://TRICOUNTYHOSP.COM/,0,GEOPLAN,FDEM,REGIONAL GENERAL HOSPITAL WILLISTON,29.38395755,-82.45489353,17RLN5881251406,25,6.95500853,REGIONAL GENERAL HOSPITAL WILLISTON - FORMERLY TRI-COUNTY HOSPITAL,V,2016-05-17,2017-09-06,60,29.38395755,-82.45489353,60
61,09-12-31-0000-02030-0020,N/A,FLORIDA HOSPITAL FLAGLER,60 MEMORIAL MEDICAL PKWY,PALM COAST,32164,FLAGLER,386-586-2000,HOSPITALS - ACUTE CARE,MEMORIAL HOSPITAL-FLAGLER INC,PRIVATE,PRIVATE,ADVENTIST HEALTH SYSTEM,NOT-FOR-PROFIT,0,99,N/A,EFHM,100118, , , ,OPTICAL FIBER,100 MBPS TO 1 GBPS,10 MBPS TO 25 MBPS,OPTICAL FIBER,100 MBPS TO 1 GBPS,100 MBPS TO 1 GBPS,3,HTTP://WWW.FLORIDAHOSPITALFLAGLER.COM/,2002,GEOPLAN,FHA, ,29.47928164,-81.18930921,17RMN8164761103,26,101.1063367,FLORIDA HOSPITAL FLAGLER,V,2011-05-10,2017-09-06,61,29.47928164,-81.18930921,61
62,06757-003-000,N/A,SELECT SPECIALTY HOSPITAL - GAINESVILLE,2708 SW ARCHER RD,GAINESVILLE,32608,ALACHUA,352-337-3240,HOSPITALS - ACUTE CARE,EMMER DEVELOPMENT CORP,PRIVATE,PRIVATE,SELECT MEDICAL CORPORATION,INVESTOR-OWNED,0,44,N/A,EFHS,23960071, , , , , , , , , , ,HTTP://WWW.SELECTSPECIALTYHOSPITALS.COM/,2007,GEOPLAN,FDOH, ,29.63211682,-82.36381543,17RLN6797478799,27,7.27966461,SELECT SPECIALTY HOSPITAL - GAINESVILLE,V,2011-05-10,2017-09-06,62,29.63211682,-82.36381543,62
63,15484-000-000,10224863,MALCOM RANDALL VA MEDICAL CENTER,1601 SW ARCHER RD,GAINESVILLE,32608,ALACHUA,352-376-1611,HOSPITALS - FEDERAL,UNITED STATES OF AMERICA,FEDERAL,PUBLIC,FEDERAL GOVERNMENT,PUBLIC,0,401,FL000001,EFHL,N/A, , , , , , , , , , ,HTTP://WWW.NORTHFLORIDA.VA.GOV/,0,GEOPLAN,FDEM, ,29.63697821,-82.34464455,17RLN6983779316,28,41.13021924,MALCOM RANDALL VA MEDICAL CENTER,V,2011-05-10,2017-09-06,63,29.63697821,-82.34464455,63
64,15482-001-000,10224866,UF HEALTH SHANDS,1600 SW ARCHER RD,GAINESVILLE,32610,ALACHUA,352-265-0111,HOSPITALS - ACUTE CARE,STATE OF FLORIDA,STATE,PUBLIC,SHANDS HEALTHCARE,NOT-FOR-PROFIT,0,875,FL000004,EFHL,100113,OPTICAL FIBER,GREATER THAN 1 GBPS,GREATER THAN 1 GBPS,OPTICAL FIBER,GREATER THAN 1 GBPS,10 MBPS TO 25 MBPS, , , ,2,HTTP://WWW.SHANDS.ORG/HOSPITALS/UF/,2010,GEOPLAN,FDEM,UF HEALTH,29.64007833,-82.34393779,17RLN6990979659,29,81.43901911,UF HEALTH SHANDS,V,2016-05-17,2017-09-06,64,29.64007833,-82.34393779,64
65,10-10-26-0000-0200-0010,10224938,PUTNAM COMMUNITY MEDICAL CENTER,611 ZEAGLER DR,PALATKA,32177,PUTNAM,386-328-5711,HOSPITALS - ACUTE CARE,PUTNAM COMMUNITY MEDICAL CENTE,PRIVATE,PRIVATE,"LIFEPOINT HOSPITALS, INC.",INVESTOR-OWNED,0,99,FL000076,EFHM,100232,DON'T KNOW,DON'T KNOW,DON'T KNOW, , , , , , ,2,HTTP://WWW.PCMCFL.COM/,1975,GEOPLAN,FDEM, ,29.642414,-81.69243464,17RMN3297779363,30,31.64728172,PUTNAM COMMUNITY MEDICAL CENTER,V,2016-05-17,2017-09-06,65,29.642414,-81.69243464,65
66,06340-011-000,10225061,NORTH FLORIDA REGIONAL MEDICAL CENTER,6500 W NEWBERRY RD,GAINESVILLE,32605,ALACHUA,352-333-4000,HOSPITALS - ACUTE CARE,HCA HEALTH SERVICES OF FLA INC,PRIVATE,PRIVATE,HCA NORTH FLORIDA DIVISION,INVESTOR-OWNED,0,432,FL000181,EFHL,100204, , , ,OTHER COPPER WIRELINE, ,1.5 MBPS TO 3 MBPS,OTHER COPPER WIRELINE,25 MBPS TO 50 MBPS,25 MBPS TO 50 MBPS,4,HTTP://WWW.NFRMC.COM/,1973,GEOPLAN,FDEM, ,29.66090849,-82.41165328,17RLN6338282045,31,36.51723919,NORTH FLORIDA REGIONAL MEDICAL CENTER,V,2016-05-17,2017-09-06,66,29.66090849,-82.41165328,66
67,06041-003-000,N/A,UF HEALTH SHANDS PSYCHIATRIC HOSPITAL,4101 NW 89TH BLVD,GAINESVILLE,32606,ALACHUA,352-265-5497,HOSPITALS - PSYCHIATRIC,STATE OF FLORIDA,STATE,PUBLIC,SHANDS HEALTHCARE,NOT-FOR-PROFIT,0,81,N/A,EFHM,120011, , , , , , , , , , ,HTTP://WWW.SHANDS.ORG/HOSPITALS/VISTA/,1986,GEOPLAN,FHA,UF HEALTH SHANDS PSYCHIATRIC HOSPITAL,29.69221934,-82.43587222,17RLN6108185544,32,40.58446889,UF HEALTH SHANDS PSYCHIATRIC HOSPITAL,V,2016-05-17,2017-09-06,67,29.69221934,-82.43587222,67
68,06041-003-000,10225073,UF HEALTH SHANDS REHAB HOSPITAL,4101 NW 89TH BLVD,GAINESVILLE,32606,ALACHUA,352-265-5491,HOSPITALS - REHABILITATION,STATE OF FLORIDA,STATE,PUBLIC,SHANDS HEALTHCARE,NOT-FOR-PROFIT,0,40,FL000193,EFHS,110025, , , , , , , , , , ,HTTP://WWW.SHANDS.ORG/HOSPITALS/REHAB/,1986,GEOPLAN,FDEM,UF HEALTH SHANDS REHAB HOSPITAL,29.69135195,-82.43588486,17RLN6107885448,33,40.67649062,UF HEALTH SHANDS REHAB HOSPITAL,V,2016-05-17,2017-09-06,68,29.69135195,-82.43588486,68
69,1351200050,10225001,FLAGLER HOSPITAL,400 HEALTH PARK BLVD,ST AUGUSTINE,32086,ST JOHNS,904-819-5155,HOSPITALS - ACUTE CARE,FLAGLER HOSPITAL INC,PRIVATE,PRIVATE,"FLAGLER HEALTH CARE SYSTEM, INC.",NOT-FOR-PROFIT,0,335,FL000121,EFHL,100219, , , ,OPTICAL FIBER,10 MBPS TO 25 MBPS,10 MBPS TO 25 MBPS,OPTICAL FIBER,10 MBPS TO 25 MBPS,10 MBPS TO 25 MBPS,3,HTTP://WWW.FLAGLERHOSPITAL.ORG/,1989,GEOPLAN,FDEM, ,29.86292968,-81.31718379,17RMP6936603639,34,61.11312238,FLAGLER HOSPITAL,V,2016-05-17,2017-09-06,69,29.86292968,-81.31718379,69
70,02941-A-00100,10224979,SHANDS STARKE REGIONAL MEDICAL CENTER,922 E CALL ST,STARKE,32091,BRADFORD,904-368-2300,HOSPITALS - ACUTE CARE,"STARKE HMA, LLC",PRIVATE,PRIVATE,HEALTH MANAGEMENT ASSOCIATES,INVESTOR-OWNED,0,49,FL000214,EFHS,100103, , , ,DON'T KNOW,DON'T KNOW,DON'T KNOW, , , ,4,HTTP://WWW.SHANDSSTARKE.COM/DEFAULT.ASPX,0,GEOPLAN,FDEM, ,29.94031211,-82.10172237,17RLP9367512682,35,12.1828518,SHANDS STARKE REGIONAL MEDICAL CENTER,V,2016-05-17,2017-09-06,70,29.94031211,-82.10172237,70
71,38-06-26-017517-000-00,10225019,KINDRED HOSPITAL - NORTH FLORIDA,801 OAK ST,GREEN COVE SPRINGS,32043,CLAY,904-284-9230,HOSPITALS - ACUTE CARE,VENTAS REALTY,PRIVATE,PRIVATE,KINDRED EAST REGION OFFICE,INVESTOR-OWNED,0,80,FL000139,EFHM,100016, , , , , , , , , , ,HTTP://WWW.KHNORTHFLORIDA.COM/,1957,GEOPLAN,FDEM, ,29.9880563,-81.68222691,17RMP3419217658,36,5.92511868,KINDRED HOSPITAL - NORTH FLORIDA,V,2011-05-10,2017-09-06,71,29.9880563,-81.68222691,71
72,29-05-20-00-000-0450-0,10224890,LAKE BUTLER HOSPITAL/HAND SURGERY CENTER,850 E MAIN ST,LAKE BUTLER,32054,UNION,386-496-2323,HOSPITALS - ACUTE CARE,MEDLINK MANAGEMENT SERVICES,PRIVATE,PRIVATE,MEDLINK MANAGEMENT SERVICES,INVESTOR-OWNED,0,25,FL000028,EFHS,100241,DSL SYMMETRIC,6 MBPS TO 10 MBPS,6 MBPS TO 10 MBPS, , , , , , ,2,HTTP://WWW.LAKEBUTLERHOSPITAL.COM/,1965,GEOPLAN,FDEM, ,30.02293647,-82.32698114,17RLP7203922068,38,4.99122155,LAKE BUTLER HOSPITAL/HAND SURGERY CENTER,V,2011-05-10,2017-09-06,72,30.02293647,-82.32698114,72
73,23040703103500,N/A,DOCTORS MEMORIAL HOSPITAL,333 N BYRON BUTLER PKWY,PERRY,32347,TAYLOR,850-584-0800,HOSPITALS - ACUTE CARE,TAYLOR COUNTY,COUNTY,PUBLIC,N/A,NOT-FOR-PROFIT,0,48,N/A,EFHS,100106, , , , , , , , , , ,HTTP://WWW.DOCTORSMEMORIAL.COM/,2004,GEOPLAN,FHA, ,30.12022494,-83.59309134,17RKP5016234946,40,66.11455493,DOCTORS MEMORIAL HOSPITAL,V,2011-05-10,2017-09-06,73,30.12022494,-83.59309134,73
74,181S302101000000,10224945,WEST FLORIDA HOSPITAL,8383 N DAVIS HWY,PENSACOLA,32514,ESCAMBIA,850-494-4000,HOSPITALS - ACUTE CARE,WEST FLORIDA REGIONAL MEDICAL,PRIVATE,PRIVATE,HCA NORTH FLORIDA DIVISION,INVESTOR-OWNED,0,457,FL000083,EFHL,100231, , , ,OTHER COPPER WIRELINE,25 MBPS TO 50 MBPS,1.5 MBPS TO 3 MBPS,OTHER COPPER WIRELINE,25 MBPS TO 50 MBPS,25 MBPS TO 50 MBPS,4,HTTP://WWW.WESTFLORIDAHOSPITAL.COM/,1976,GEOPLAN,FDEM, ,30.51570719,-87.21791117,16RDU7909275952,41,75.01614755,WEST FLORIDA HOSPITAL,V,2016-05-17,2017-09-06,74,30.51570719,-87.21791117,74
75,494125000080,10224897,FLORIDA MEDICAL CENTER - A CAMPUS OF NORTH SHORE,5000 W OAKLAND PARK BLVD,FORT LAUDERDALE,33313,BROWARD,954-735-6000,HOSPITALS - ACUTE CARE,FMC LAND TR,PRIVATE,PRIVATE,TENET HEALTHSYSTEM,INVESTOR-OWNED,0,459,FL000035,EFHL,100210, , , , , , , , , , ,HTTP://WWW.FMC-CAMPUS.COM/EN-US/PAGES/DEFAULT.ASPX,1972,GEOPLAN,FDEM,FLORIDA MEDICAL CENTER - A CAMPUS OF NORTH SHORE,26.16300509,-80.21860039,17RNJ7809493971,42,36.85037135,FLORIDA MEDICAL CENTER - A CAMPUS OF NORTH SHORE,V,2016-05-17,2017-09-06,75,26.16300509,-80.21860039,75
76,16 31 13 77879 000 0100,10224970,ST ANTHONY'S HOSPITAL,1200 SEVENTH AVE N,ST PETERSBURG,33705,PINELLAS,727-825-1100,HOSPITALS - ACUTE CARE,ST ANTHONY'S HOSPITAL INC,PRIVATE,PRIVATE,BAYCARE - ST. ANTHONY'S HEALTH CARE,NOT-FOR-PROFIT,0,393,FL000205,EFHL,100067, , , ,OPTICAL FIBER,50 MBPS TO 100 MBPS,10 MBPS TO 25 MBPS,OPTICAL FIBER,50 MBPS TO 100 MBPS,50 MBPS TO 100 MBPS,3,HTTP://WWW.STANTHONYS.COM/,1965,GEOPLAN,FDEM, ,27.77903265,-82.65108,17RLL3731973818,43,29.66030565,ST ANTHONY'S HOSPITAL,V,2016-05-17,2017-09-06,76,27.77903265,-82.65108,76
77,1680821032R,10052377,BAPTIST MEDICAL CENTER SOUTH,14550 SAINT AUGUSTINE RD,JACKSONVILLE,32258,DUVAL,904-271-6000,HOSPITALS - ACUTE CARE,SOUTHERN BAPTIST HOSPITAL OF F,PRIVATE,PRIVATE,BAPTIST HEALTH,NOT-FOR-PROFIT,0,269,N/A,EFHL,23960052, , , ,OPTICAL FIBER,3 MBPS TO 6 MBPS,10 MBPS TO 25 MBPS,OPTICAL FIBER,3 MBPS TO 6 MBPS,3 MBPS TO 6 MBPS,3,HTTP://COMMUNITY.E-BAPTISTHEALTH.COM/BMC/SOUTH/INDEX.HTML,2004,GEOPLAN,FDEM, ,30.13836208,-81.53460436,17RMP4851034238,44,32.6292459,BAPTIST MEDICAL CENTER SOUTH,V,2016-05-17,2017-09-06,77,30.13836208,-81.53460436,77
78,07-04-26-013077-000-00,10224935,ORANGE PARK MEDICAL CENTER,2001 KINGSLEY AVE,ORANGE PARK,32073,CLAY,904-276-8500,HOSPITALS - ACUTE CARE,ORANGE PARK MEDICAL CENTER,PRIVATE,PRIVATE,HCA NORTH FLORIDA DIVISION,INVESTOR-OWNED,0,297,FL000073,EFHL,100226, , , ,OPTICAL FIBER,GREATER THAN 1 GBPS,200 KBPS TO 768 KBPS,DSL ASYMMETRIC,200 KBPS TO 768 KBPS,768 KBPS TO 1.5 KBPS,3,HTTP://ORANGEPARKMEDICAL.COM/HOME/INDEX.DOT,1974,GEOPLAN,FDEM, ,30.16637162,-81.73781947,17RMP2895737451,46,36.87530244,ORANGE PARK MEDICAL CENTER,V,2016-05-17,2017-09-06,78,30.16637162,-81.73781947,78
79,35-3S-16-02556-003,10224887,LAKE CITY MEDICAL CENTER,340 NW COMMERCE DR,LAKE CITY,32055,COLUMBIA,386-719-9000,HOSPITALS - ACUTE CARE,NOTAMI HOSPITALS OF FL INC,PRIVATE,PRIVATE,HCA NORTH FLORIDA DIVISION,INVESTOR-OWNED,0,67,FL000025,EFHM,100156, , , ,OTHER COPPER WIRELINE,25 MBPS TO 50 MBPS,1.5 MBPS TO 3 MBPS,OTHER COPPER WIRELINE,25 MBPS TO 50 MBPS,25 MBPS TO 50 MBPS,4,HTTP://LAKECITYMEDICAL.COM/HOME/INDEX.DOT,1999,GEOPLAN,FDEM, ,30.18349273,-82.68750244,17RLP3753340321,47,41.2797743,LAKE CITY MEDICAL CENTER,V,2011-05-10,2017-09-06,79,30.18349273,-82.68750244,79
80,00-00-00-14132-000,10224891,LAKE CITY VA MEDICAL CENTER,619 S MARION AVE,LAKE CITY,32025,COLUMBIA,386-755-3016,HOSPITALS - FEDERAL,UNITED STATES OF AMERICA,FEDERAL,PUBLIC,FEDERAL GOVERNMENT,PUBLIC,0,152,FL000029,EFHL,N/A, , , , , , , , , , ,HTTP://WWW.NORTHFLORIDA.VA.GOV/,1925,GEOPLAN,FDEM, ,30.18178708,-82.63539089,17RLP4254840059,48,34.515547,LAKE CITY VA MEDICAL CENTER,V,2011-05-10,2017-09-06,80,30.18178708,-82.63539089,80
81,00-00-00-11789-000,10224888,SHANDS LAKE SHORE REGIONAL MEDICAL CENTER,368 NE FRANKLIN ST,LAKE CITY,32055,COLUMBIA,386-292-8000,HOSPITALS - ACUTE CARE,STATE OF FLORIDA,STATE,PUBLIC,HEALTH MANAGEMENT ASSOCIATES,INVESTOR-OWNED,0,99,FL000026,EFHM,100102, , , ,OPTICAL FIBER,100 MBPS TO 1 GBPS,10 MBPS TO 25 MBPS,OPTICAL FIBER,100 MBPS TO 1 GBPS,100 MBPS TO 1 GBPS,4,HTTP://WWW.SHANDSLAKESHORE.COM/DEFAULT.ASPX,1959,GEOPLAN,FDEM, ,30.19316474,-82.63296935,17RLP4279941317,49,29.78664891,SHANDS LAKE SHORE REGIONAL MEDICAL CENTER,V,2011-05-10,2017-09-06,81,30.19316474,-82.63296935,81
82,1490380000R,N/A,EARL HADLOW CENTER FOR CARING,4266 SUNBEAM RD,JACKSONVILLE,32257,DUVAL,904-268-5200,HOSPITALS - HOSPICE,COMMUNITY HOSPICE OF NORTHEAST,PRIVATE,PRIVATE,COMMUNITY HOSPICE OF N.E. FLA.,NOT-FOR-PROFIT,0,38,N/A,EFHS,19965991, , , , , , , , , , ,HTTP://WWW.COMMUNITYHOSPICE.COM/ABOUT/OVERVIEW.HTM,1995,GEOPLAN,FDOH, ,30.20467235,-81.6054625,17RMP4172441620,50,12.91946972,EARL HADLOW CENTER FOR CARING,V,2011-05-10,2017-09-06,82,30.20467235,-81.6054625,82
83,0984050000R,N/A,NAVAL HOSPITAL/JACKSONVILLE,2080 CHILD ST,JACKSONVILLE,32214,DUVAL,904-542-7300,HOSPITALS - FEDERAL,UNITED STATES OF AMERICA,FEDERAL,PUBLIC,FEDERAL GOVERNMENT,PUBLIC,0,176,N/A,EFHL,N/A, , , , , , , , , , ,HTTP://WWW.MED.NAVY.MIL/SITES/NHJAX/PAGES/DEFAULT.ASPX,1954,GEOPLAN,FHA, ,30.20858869,-81.68405902,17RMP3416242097,51,28.24293725,NAVAL HOSPITAL/JACKSONVILLE,V,2011-04-11,2017-09-06,83,30.20858869,-81.68405902,83
84,18-3S-22-0000-0000-0020,N/A,NORTHEAST FLORIDA STATE HOSPITAL,7487 S STATE ROAD 121,MACCLENNY,32063,BAKER,904-259-6211,HOSPITALS - PSYCHIATRIC,LAKE SHORE HOSPITAL AUTHORITY,PRIVATE,PRIVATE,N/A,PUBLIC,0,1138,N/A,EFHL,104007, , , , , , , , , , ,HTTP://WWW.DCF.STATE.FL.US/FACILITIES/NEFSH/,1963,GEOPLAN,FHA, ,30.23479134,-82.13589145,17RLP9070145348,52,302.5667817,NORTHEAST FLORIDA STATE HOSPITAL,V,2011-05-10,2017-09-06,84,30.23479134,-82.13589145,84
85,1528630010R,N/A,WEKIVA SPRINGS HOSPITAL,3947 SALISBURY RD,JACKSONVILLE,32216,DUVAL,904-296-3533,HOSPITALS - PSYCHIATRIC,WEKIVA SPRINGS CENTER LLC,PRIVATE,PRIVATE,UNIVERSAL HEALTH SERVICES INC,INVESTOR-OWNED,0,120,N/A,EFHM,23960061, , , , , , , , , , ,HTTP://WWW.WEKIVACENTER.COM/,1987,GEOPLAN,FHA, ,30.25729423,-81.59441313,17RMP4281847446,53,9.74375269,WEKIVA SPRINGS HOSPITAL,V,2016-05-17,2017-09-06,85,30.25729423,-81.59441313,85
86,1525760150R,10224878,ST VINCENT'S MEDICAL CENTER SOUTHSIDE - FORMERLY ST LUKE'S HOSPITAL,4201 BELFORT RD,JACKSONVILLE,32216,DUVAL,904-296-3700,HOSPITALS - ACUTE CARE,ST LUKES ST VINCENTS HEALTHCAR,PRIVATE,PRIVATE,ST. VINCENT'S HEALTHCARE,NOT-FOR-PROFIT,0,311,FL000016,EFHL,23960088, , , , , , , , , ,4,HTTP://WWW.JAXHEALTH.COM/,1984,GEOPLAN,FDEM,ST. VINCENT'S MEDICAL CENTER SOUTHSIDE,30.25337659,-81.58227409,17RMP4398447005,54,80.16501771,ST VINCENT'S MEDICAL CENTER SOUTHSIDE - FORMERLY ST LUKE'S HOSPITAL,V,2016-05-17,2017-09-06,86,30.25337659,-81.58227409,86
87,1530500020R,10225090,SPECIALTY HOSPITAL - MEMORIAL HEALTH,4901 RICHARD ST,JACKSONVILLE,32207,DUVAL,904-737-3120,HOSPITALS - ACUTE CARE,MEMORIAL HEALTHCARE GROUP INC,PRIVATE,PRIVATE,HCA NORTH FLORIDA DIVISION,INVESTOR-OWNED,0,107,FL000240,EFHM,100196, , , , , , , , , , ,HTTP://WWW.SPECIALTYHOSPITALJAX.COM/,1971,GEOPLAN,FDEM, ,30.27181645,-81.61549418,17RMP4079949066,55,15.49550188,SPECIALTY HOSPITAL - MEMORIAL HEALTH,V,2011-05-10,2017-09-06,87,30.27181645,-81.61549418,87
88,1797600010R,10224884,BAPTIST MEDICAL CENTER BEACHES,1350 13TH AVE S,JACKSONVILLE BEACH,32250,DUVAL,904-627-2900,HOSPITALS - ACUTE CARE,BAPTIST MEDICAL CENTER OF THE,PRIVATE,PRIVATE,BAPTIST HEALTH,NOT-FOR-PROFIT,0,146,FL000022,EFHM,100117,OPTICAL FIBER,3 MBPS TO 6 MBPS,3 MBPS TO 6 MBPS, , , , , , ,2,HTTP://COMMUNITY.E-BAPTISTHEALTH.COM/BMC/BEACHES/INDEX.HTML,1988,GEOPLAN,FDEM, ,30.27376828,-81.39829183,17RMP6169149189,56,27.03744363,BAPTIST MEDICAL CENTER BEACHES,V,2012-11-19,2017-09-06,88,30.27376828,-81.39829183,88
89,1362880000R,10224882,MEMORIAL HOSPITAL OF JACKSONVILLE,3625 UNIVERSITY BLVD S,JACKSONVILLE,32216,DUVAL,904-399-6111,HOSPITALS - ACUTE CARE,MEMORIAL HEALTHCARE GROUP INC,PRIVATE,PRIVATE,HCA NORTH FLORIDA DIVISION,INVESTOR-OWNED,0,425,FL000020,EFHL,100179, , , ,OTHER COPPER WIRELINE,25 MBPS TO 50 MBPS,1.5 MBPS TO 3 MBPS,OTHER COPPER WIRELINE,25 MBPS TO 50 MBPS,25 MBPS TO 50 MBPS,4,HTTP://WWW.MEMORIALHOSPITALJAX.COM/,1969,GEOPLAN,FDEM, ,30.2885662,-81.60163336,17RMP4214250915,57,30.99965643,MEMORIAL HOSPITAL OF JACKSONVILLE,V,2011-05-10,2017-09-06,89,30.2885662,-81.60163336,89
90,32-2S-22-0049-0014-0020,10224900,ED FRASER MEMORIAL HOSPITAL,159 N THIRD ST,MACCLENNY,32063,BAKER,904-259-3151,HOSPITALS - ACUTE CARE,BAKER COUNTY,COUNTY,PUBLIC,"BAKER COUNTY MEDICAL SERVICES,",PUBLIC/GOVERNMENT,0,25,FL000038,EFHS,100134, , , , , , , , , , ,HTTP://WWW.BCMEDSVCS.COM/,0,GEOPLAN,FDEM,ED FRASER MEMORIAL HOSPITAL,30.2861058,-82.11901034,17RLP9238251019,58,9.26302995,ED FRASER MEMORIAL HOSPITAL,V,2016-05-17,2017-09-06,90,30.2861058,-82.11901034,90
91,1360390000R,10224881,RIVER POINT BEHAVIORAL HEALTH,6300 BEACH BLVD,JACKSONVILLE,32216,DUVAL,904-724-9202,HOSPITALS - PSYCHIATRIC,TBJ BEHAVIORAL CENTER LLC,PRIVATE,PRIVATE,UNIVERSAL HEALTH SERVICES INC,INVESTOR-OWNED,0,93,FL000019,EFHM,104016, , , , , , , , , , ,HTTP://WWW.TENBROECKJAX.COM/,1973,GEOPLAN,FDEM, ,30.29048,-81.59712102,17RMP4257751125,59,3.81910955,RIVER POINT BEHAVIORAL HEALTH,V,2016-05-17,2017-09-06,91,30.29048,-81.59712102,91
92,1363200000R,10224877,BROOKS REHABILITATION HOSPITAL,3599 UNIVERSITY BLVD S,JACKSONVILLE,32216,DUVAL,904-858-7600,HOSPITALS - REHABILITATION,GENESIS SUPPORT SYSTEMS INC,PRIVATE,PRIVATE,BROOKS HEALTH SYSTEM,NOT-FOR-PROFIT,0,157,FL000015,EFHL,100184, , , , , , , , , , ,HTTP://WWW.BROOKSHEALTH.ORG/,1994,GEOPLAN,FDEM, ,30.29045567,-81.60149941,17RMP4215651124,60,10.30944819,BROOKS REHABILITATION HOSPITAL,V,2011-05-10,2017-09-06,92,30.29045567,-81.60149941,92
93,2202S13E05325002000,10224898,SHANDS LIVE OAK REGIONAL MEDICAL CENTER,1100 SW 11TH ST,LIVE OAK,32064,SUWANNEE,386-362-0800,HOSPITALS - ACUTE CARE,LIVE OAK HMA LLC,PRIVATE,PRIVATE,HEALTH MANAGEMENT ASSOCIATES,INVESTOR-OWNED,0,25,FL000036,EFHS,100146, , , ,DON'T KNOW,DON'T KNOW,DON'T KNOW,DON'T KNOW,DON'T KNOW,DON'T KNOW,4,HTTP://WWW.SHANDSLIVEOAK.COM/DEFAULT.ASPX,0,GEOPLAN,FDEM, ,30.29123735,-83.00292539,17RLP0737052756,61,33.54787354,SHANDS LIVE OAK REGIONAL MEDICAL CENTER,V,2016-05-17,2017-09-06,93,30.29123735,-83.00292539,93
94,0652020000R,10224880,ST VINCENT'S MEDICAL CENTER RIVERSIDE,1 SHIRCLIFF WAY,JACKSONVILLE,32204,DUVAL,904-308-7300,HOSPITALS - ACUTE CARE,ST VINCENTS HOSPITAL,PRIVATE,PRIVATE,ST. VINCENT'S HEALTHCARE,NOT-FOR-PROFIT,0,528,FL000018,EFHL,100040, , , ,OTHER COPPER WIRELINE,768 KBPS TO 1.5 KBPS, , , , ,4,HTTP://WWW.JAXHEALTH.COM/,1927,GEOPLAN,FDEM,ST VINCENT'S MEDICAL CENTER RIVERSIDE,30.30760944,-81.68982828,17RMP3367353073,62,31.71982187,ST VINCENT'S MEDICAL CENTER RIVERSIDE,V,2016-05-17,2017-09-06,94,30.30760944,-81.68982828,94
95,0810680700R,10224876,WOLFSON CHILDREN'S HOSPITAL - JACKSONVILLE,800 PRUDENTIAL DR,JACKSONVILLE,32207,DUVAL,904-202-8000,HOSPITALS - ACUTE CARE,SOUTHERN BAPTIST HOSPITAL OF F,PRIVATE,PRIVATE,BAPTIST HEALTH,NOT-FOR-PROFIT,0,205,FL000014,EFHL,100088, , , ,OPTICAL FIBER,3 MBPS TO 6 MBPS, ,OPTICAL FIBER,3 MBPS TO 6 MBPS,3 MBPS TO 6 MBPS,4,HTTP://WWW.WOLFSONCHILDRENS.ORG/PAGES/DEFAULT.ASPX,1987,GEOPLAN,FDEM,TWO HOSPITALS ON ONE PARCEL,30.31544434,-81.66451672,17RMP3611253927,63,33.23715037,WOLFSON CHILDREN'S HOSPITAL - JACKSONVILLE,V,2016-05-17,2017-09-06,95,30.31544434,-81.66451672,95
96,0547740150R,10225035,UF HEALTH JACKSONVILLE,655 W EIGHTH ST,JACKSONVILLE,32209,DUVAL,904-244-0411,HOSPITALS - ACUTE CARE,DUVAL COUNTY,COUNTY,PUBLIC,SHANDS HEALTHCARE,NOT-FOR-PROFIT,0,695,FL000155,EFHL,100001, , , ,OPTICAL FIBER,100 MBPS TO 1 GBPS, ,OPTICAL FIBER,100 MBPS TO 1 GBPS,100 MBPS TO 1 GBPS,3,HTTP://JAX.SHANDS.ORG/,1970,GEOPLAN,FDEM,RENAMED UF HEALTH JACKSONVILLE,30.34854577,-81.66395013,17RMP3618857595,64,65.53374177,UF HEALTH JACKSONVILLE,V,2016-05-17,2017-09-06,96,30.34854577,-81.66395013,96
97,00-00-00-3882-001-000,10224899,MADISON COUNTY MEMORIAL HOSPITAL,224 NW CRANE AVE,MADISON,32340,MADISON,850-973-2271,HOSPITALS - ACUTE CARE,MADISON COUNTY,COUNTY,PUBLIC,MADISON COUNTY MEMORIAL HOSPIT,NOT-FOR-PROFIT,0,25,FL000037,EFHS,100004, , , , , , , , , , ,HTTP://WWW.MCMH.US/,0,GEOPLAN,FDEM,HOSPITAL RELOCATED. MOVED POINT TO REFLECT MOVE.,30.47102996,-83.41912009,17RKP6775773468,66,5.8377585,MADISON COUNTY MEMORIAL HOSPITAL,V,2016-05-17,2017-09-06,97,30.47102996,-83.41912009,97
98,00-00-31-1600-0203-0000,10225056,BAPTIST MEDICAL CENTER - NASSAU,1250 S 18TH ST,FERNANDINA BEACH,32034,NASSAU,904-321-3500,HOSPITALS - ACUTE CARE,BAPTIST MEDICAL CENTER OF,PRIVATE,PRIVATE,BAPTIST HEALTH,NOT-FOR-PROFIT,0,62,FL000176,EFHM,100140, , , ,DSL SYMMETRIC,10 MBPS TO 25 MBPS,6 MBPS TO 10 MBPS,CABLE MODEM,100 MBPS TO 1 GBPS,100 MBPS TO 1 GBPS,3,HTTP://COMMUNITY.E-BAPTISTHEALTH.COM/BMC/NASSAU/INDEX.HTML,1978,GEOPLAN,FDEM, ,30.6533809,-81.44898253,17RMP5698391275,68,31.39567972,BAPTIST MEDICAL CENTER - NASSAU,V,2016-05-17,2017-09-06,98,30.6533809,-81.44898253,98
99,01-09S-08W-8330-0073-0100,10224985,GEORGE E WEEMS MEMORIAL HOSPITAL,135 AVE G,APALACHICOLA,32320,FRANKLIN,850-653-8853,HOSPITALS - ACUTE CARE,FRANKLIN COUNTY,COUNTY,PUBLIC,BLACKHAWK HEALTHCARE,PUBLIC/GOVERNMENT,0,25,FL000105,EFHS,100153, , , , , , , , , ,3,HTTP://WWW.WEEMSMEMORIAL.COM/,0,GEOPLAN,FDEM, ,29.72458591,-84.99256282,16RFT9416589955,69,6.54879614,GEORGE E WEEMS MEMORIAL HOSPITAL,V,2011-05-10,2017-09-06,99,29.72458591,-84.99256282,99
100,26397-000-000,N/A,325TH MEDICAL GROUP - US AIR FORCE HOSPITAL - OUTPATIENT,340 MAGNOLIA CIR,TYNDALL AFB,32403,BAY,850-283-2778,HOSPITALS - FEDERAL,UNITED STATES OF AMERICA,FEDERAL,PUBLIC,FEDERAL GOVERNMENT,PUBLIC,0,40,N/A,EFHS,N/A, , , , , , , , , , ,HTTP://WWW.TYNDALL.AF.MIL/LIBRARY/FACTSHEETS/FACTSHEET.ASP?ID=4840,0,GEOPLAN,FHA,CHANGED GCID TO UNIQUE NUMBER,30.0718853,-85.60260581,16RFU3468527574,347,13.27510593,325TH MEDICAL GROUP - US AIR FORCE HOSPITAL - OUTPATIENT,V,2016-05-17,2017-09-06,100,30.0718853,-85.60260581,100
101,21084-000-000,10224942,BAY MEDICAL CENTER,615 N BONITA AVE,PANAMA CITY,32401,BAY,850-769-1511,HOSPITALS - ACUTE CARE,BAY COUNTY SACRED HEART,PRIVATE,PRIVATE,BAY MEDICAL CENTER,PUBLIC/GOVERNMENT,0,323,FL000080,EFHL,100026, , , ,ELECTRIC POWER LINE,10 MBPS TO 25 MBPS,10 MBPS TO 25 MBPS,CABLE MODEM DOCSIS 3.0,6 MBPS TO 10 MBPS,6 MBPS TO 10 MBPS,3,HTTP://WWW.BAYMEDICAL.ORG/,1949,GEOPLAN,FDEM, ,30.15934085,-85.64990949,16RFU3001137211,70,28.86347789,BAY MEDICAL CENTER,V,2012-11-19,2017-09-06,101,30.15934085,-85.64990949,101
102,14197-020-000,N/A,HEALTHSOUTH EMERALD COAST REHAB HOSPITAL,1847 FLORIDA AVE,PANAMA CITY,32405,BAY,850-914-8600,HOSPITALS - REHABILITATION,LAKESHORE SYSTEM SERVICES OF F,PRIVATE,PRIVATE,HEALTHSOUTH CORPORATION,INVESTOR-OWNED,0,75,N/A,EFHM,23960013, , , , , , , , , , ,HTTP://WWW.HEALTHSOUTHPANAMACITY.COM,1997,GEOPLAN,FHA, ,30.18211554,-85.66878208,16RFU2816439714,72,8.63410023,HEALTHSOUTH EMERALD COAST REHAB HOSPITAL,V,2011-05-10,2017-09-06,102,30.18211554,-85.66878208,102
103,14423-000-000,N/A,EMERALD COAST BEHAVIORAL HOSPITAL,1940 HARRISON AVE,PANAMA CITY,32405,BAY,850-763-0017,HOSPITALS - PSYCHIATRIC,EMERALD COAST BEHAVIORAL,PRIVATE,PRIVATE,UNIVERSAL HEALTH SERVICES INC,PUBLIC/GOVERNMENT,0,86,N/A,EFHM,110034, , , , , , , , , , ,HTTP://WWW.EMERALDCOASTBEHAVIORAL.COM,1987,GEOPLAN,FHA, ,30.18392395,-85.65814776,16RFU2918539927,73,27.90371385,EMERALD COAST BEHAVIORAL HOSPITAL,V,2016-05-17,2017-09-06,103,30.18392395,-85.65814776,103
104,14168-010-000,10224943,GULF COAST REGIONAL MEDICAL CENTER,449 W 23RD ST,PANAMA CITY,32405,BAY,850-769-8341,HOSPITALS - ACUTE CARE,HOSPITAL CORPORATION OF AMERIC,PRIVATE,PRIVATE,HCA NORTH FLORIDA DIVISION,INVESTOR-OWNED,0,216,FL000081,EFHL,100242,OPTICAL FIBER,100 MBPS TO 1 GBPS,100 MBPS TO 1 GBPS,OTHER COPPER WIRELINE,25 MBPS TO 50 MBPS,1.5 MBPS TO 3 MBPS,OTHER COPPER WIRELINE,25 MBPS TO 50 MBPS,25 MBPS TO 50 MBPS,2,HTTP://GCMC-PC.COM/HOME/INDEX.DOT,1976,GEOPLAN,FDEM,GULF COAST REGIONAL MEDICAL CENTER,30.18813853,-85.66512564,16RFU2850840386,74,25.338749,GULF COAST REGIONAL MEDICAL CENTER,V,2016-05-17,2017-09-06,104,30.18813853,-85.66512564,104
105,04-3S-29-0000-04700-0000,10225066,GULF BREEZE HOSPITAL,1110 GULF BREEZE PKWY,GULF BREEZE,32561,SANTA ROSA,850-934-2000,HOSPITALS - ACUTE CARE,BAPTIST HOSPITAL INC,PRIVATE,PRIVATE,BAPTIST HEALTH CARE,NOT-FOR-PROFIT,0,77,FL000186,EFHM,110003, , , ,OPTICAL FIBER,100 MBPS TO 1 GBPS,100 MBPS TO 1 GBPS, , , ,4,HTTP://WWW.EBAPTISTHEALTHCARE.ORG,1985,GEOPLAN,FDEM,GULF BREEZE HOSPITAL,30.36031601,-87.15728324,16RDU8488558723,75,24.58260408,GULF BREEZE HOSPITAL,V,2016-05-17,2017-09-06,105,30.36031601,-87.15728324,105
106,25-2S-21-42000-015-0000,N/A,SACRED HEART HOSPITAL ON THE EMERALD COAST,7800 US HWY 98 W,DESTIN,32550,WALTON,850-278-3000,HOSPITALS - ACUTE CARE,SACRED HEART HOSPITAL OF,PRIVATE,PRIVATE,SACRED HEART HEALTH SYSTEM INC,NOT-FOR-PROFIT,0,58,N/A,EFHM,23960041,DON'T KNOW,DON'T KNOW,DON'T KNOW, , , , , , ,2,HTTP://WWW.SACREDHEARTEMERALD.ORG/,2003,GEOPLAN,FHA, ,30.37883593,-86.30691552,16REU6659260968,76,31.94658035,SACRED HEART HOSPITAL ON THE EMERALD COAST,V,2011-05-10,2017-09-06,106,30.37883593,-86.30691552,106
107,3367 25 00065320000200,10053868,LOWER KEYS MEDICAL CENTER- DEPOO BUILDING,1200 KENNEDY DR,KEY WEST,33040,MONROE,305-294-5535,HOSPITALS - ACUTE CARE,FLORIDA KEYS MEDICAL CENTER IN,PRIVATE,PRIVATE,HEALTH MANAGEMENT ASSOCIATES,INVESTOR-OWNED,0,49,N/A,EFHS,100150, , , , , , , , , , ,HTTP://WWW.LKMC.COM,1985,GEOPLAN,FDEM, ,24.56419332,-81.76732105,17RMH2229716909,117,1.19372323,LOWER KEYS MEDICAL CENTER- DEPOO BUILDING,V,2012-11-19,2017-09-06,107,24.56419332,-81.76732105,107
108,2667 25 00072080000800,10224991,LOWER KEYS MEDICAL CENTER,5900 COLLEGE RD,KEY WEST,33040,MONROE,305-294-5531,HOSPITALS - ACUTE CARE,LOWER FL KEYS HOSPITAL DIST,PRIVATE,PRIVATE,HEALTH MANAGEMENT ASSOCIATES,INVESTOR-OWNED,0,118,FL000111,EFHM,100195,CABLE MODEM DOCSIS 3.0,25 MBPS TO 50 MBPS,25 MBPS TO 50 MBPS, , , , , , ,2,HTTP://WWW.LKMC.COM,1972,GEOPLAN,FDEM, ,24.58082022,-81.7427172,17RMH2479918737,118,15.10293953,LOWER KEYS MEDICAL CENTER,V,2012-11-19,2017-09-06,108,24.58082022,-81.7427172,108
109,1066 32 00103370000000,10224901,FISHERMEN'S COMMUNITY HOSPITAL,3301 OVERSEAS HWY,MARATHON,33050,MONROE,305-743-5533,HOSPITALS - ACUTE CARE,FISHERMENS HOSPITAL INC,PRIVATE,PRIVATE,HEALTH MANAGEMENT ASSOCIATES,INVESTOR-OWNED,0,25,FL000039,EFHS,100024, , , ,OTHER COPPER WIRELINE,DON'T KNOW,768 KBPS TO 1.5 KBPS,DSL SYMMETRIC,DON'T KNOW,DON'T KNOW,4,HTTP://WWW.FISHERMENSHOSPITAL.COM/,1968,GEOPLAN,FDEM,FISHERMEN'S COMMUNITY HOSPITAL,24.71033669,-81.09445251,17RMH9044732878,119,5.07212107,FISHERMEN'S COMMUNITY HOSPITAL,V,2016-05-17,2017-09-06,109,24.71033669,-81.09445251,109
110,3462 38 00090290000000,10224875,MARINERS HOSPITAL - BAPTIST HEALTH SOUTH FLORIDA,91500 OVERSEAS HWY,TAVERNIER,33070,MONROE,305-434-3000,HOSPITALS - ACUTE CARE,KEYS HOSPITAL FOUNDATION INC,PRIVATE,PRIVATE,BAPTIST HEALTH SOUTH FLORIDA,NOT-FOR-PROFIT,0,25,FL000013,EFHS,100160, , , ,OPTICAL FIBER,100 MBPS TO 1 GBPS,10 MBPS TO 25 MBPS,OPTICAL FIBER,100 MBPS TO 1 GBPS,100 MBPS TO 1 GBPS,3,HTTP://WWW.BAPTISTHEALTH.NET/EN/PAGES/HOME.ASPX,1998,GEOPLAN,FDEM, ,25.00617313,-80.52225075,17RNH4820765716,120,8.29588806,MARINERS HOSPITAL - BAPTIST HEALTH SOUTH FLORIDA,V,2011-05-10,2017-09-06,110,25.00617313,-80.52225075,110
111,1079100000094,N/A,HOMESTEAD HOSPITAL - BAPTIST HEALTH SOUTH FLORIDA,975 BAPTIST WAY,HOMESTEAD,33033,MIAMI-DADE,786-243-8000,HOSPITALS - ACUTE CARE,HOMESTEAD HOSPITAL INC,PRIVATE,PRIVATE,BAPTIST HEALTH SOUTH FLORIDA,NOT-FOR-PROFIT,0,142,N/A,EFHM,100125, , , ,OPTICAL FIBER,100 MBPS TO 1 GBPS,10 MBPS TO 25 MBPS,OPTICAL FIBER,100 MBPS TO 1 GBPS,100 MBPS TO 1 GBPS,3,HTTP://WWW.BAPTISTHEALTH.NET/EN/PAGES/HOME.ASPX,2007,GEOPLAN,FHA, ,25.47979822,-80.43020004,17RNJ5727418199,121,58.77541792,HOMESTEAD HOSPITAL - BAPTIST HEALTH SOUTH FLORIDA,V,2012-11-19,2017-09-06,111,25.47979822,-80.43020004,111
112,3660090010060,10225030,HEALTHSOUTH REHABILITATION HOSPITAL OF MIAMI,20601 OLD CUTLER RD,MIAMI,33189,MIAMI-DADE,305-251-3800,HOSPITALS - REHABILITATION,HEALTHSOUTH REHAB HOSP OF MIA,PRIVATE,PRIVATE,HEALTHSOUTH CORPORATION,INVESTOR-OWNED,0,60,FL000150,EFHM,103038, , , , , , , , , , ,HTTP://WWW.HEALTHSOUTHMIAMI.COM/,1985,GEOPLAN,FDEM, ,25.57532599,-80.34107949,17RNJ6617928820,122,10.14389984,HEALTHSOUTH REHABILITATION HOSPITAL OF MIAMI,V,2012-11-19,2017-09-06,112,25.57532599,-80.34107949,112
113,3050210490010,10224910,JACKSON SOUTH COMMUNITY HOSPITAL,9333 SW 152ND ST,MIAMI,33157,MIAMI-DADE,305-251-2500,HOSPITALS - ACUTE CARE,MIAMI-DADE COUNTY,COUNTY,PUBLIC,JACKSON HEALTH SYSTEM,PUBLIC/GOVERNMENT,0,226,FL000048,EFHL,100208, , , , , , , , , , ,HTTP://WWW.JHSMIAMI.ORG/BODY.CFM?ID=49,1971,GEOPLAN,FDEM, ,25.62978873,-80.34464137,17RNJ6579234849,123,18.50414641,JACKSON SOUTH COMMUNITY HOSPITAL,V,2016-05-17,2017-09-06,113,25.62978873,-80.34464137,113
114,3050040000060,10224913,BAPTIST HOSPITAL OF MIAMI - BAPTIST HEALTH SOUTH FLORIDA,8900 N KENDALL DR,MIAMI,33176,MIAMI-DADE,786-596-1960,HOSPITALS - CHILDREN/ACUTE CARE,MIAMI BAPTIST HOSP INC,PRIVATE,PRIVATE,BAPTIST HEALTH SOUTH FLORIDA,NOT-FOR-PROFIT,0,728,FL000051,EFHL,100008, , , ,OPTICAL FIBER,100 MBPS TO 1 GBPS,10 MBPS TO 25 MBPS,OPTICAL FIBER,100 MBPS TO 1 GBPS,100 MBPS TO 1 GBPS,3,HTTP://WWW.BAPTISTHEALTH.NET,1959,GEOPLAN,FDEM,JUST BAPTIST HOPSITAL OF MIAMI,25.68411411,-80.339007,17RNJ6632740868,124,98.47231342,BAPTIST HOSPITAL OF MIAMI - BAPTIST HEALTH SOUTH FLORIDA,V,2016-05-17,2017-09-06,114,25.68411411,-80.339007,114
115,514110010091,10224940,MEMORIAL HOSPITAL PEMBROKE,7800 SHERIDAN ST,HOLLYWOOD,33024,BROWARD,954-962-9650,HOSPITALS - ACUTE CARE,HOSPITAL REALTY LLC,PRIVATE,PRIVATE,MEMORIAL HEALTHCARE SYSTEM,PUBLIC/GOVERNMENT,0,301,FL000078,EFHL,100230, , , ,OPTICAL FIBER,25 MBPS TO 50 MBPS,10 MBPS TO 25 MBPS,OPTICAL FIBER,25 MBPS TO 50 MBPS,25 MBPS TO 50 MBPS,3,HTTP://WWW.MEMORIALPEMBROKE.COM/,1973,GEOPLAN,FDEM, ,26.02969745,-80.2458552,17RNJ7545579191,125,13.49601022,MEMORIAL HOSPITAL PEMBROKE,V,2011-05-10,2017-09-06,115,26.02969745,-80.2458552,115
116,504017020720,10225057,CLEVELAND CLINIC HOSPITAL,3100 WESTON RD,WESTON,33331,BROWARD,954-689-5000,HOSPITALS - ACUTE CARE,CLEVELAND CLINIC FLORIDA,PRIVATE,PRIVATE,N/A,INVESTOR-OWNED,0,155,FL000177,EFHL,100056,OPTICAL FIBER,25 MBPS TO 50 MBPS,25 MBPS TO 50 MBPS, , , , , , ,2,HTTP://MY.CLEVELANDCLINIC.ORG/FLORIDA/DEFAULT.ASPX,2001,GEOPLAN,FDEM, ,26.08164289,-80.3651097,17RNJ6349584880,126,80.65380884,CLEVELAND CLINIC HOSPITAL,V,2012-11-19,2017-09-06,116,26.08164289,-80.3651097,116
117,55100120000,10224931,THE WILLOUGH AT NAPLES,9001 TAMIAMI TRAIL E,NAPLES,34113,COLLIER,239-775-4500,HOSPITALS - PSYCHIATRIC,WILLOUGH HEALTHCARE INC,PRIVATE,PRIVATE,"OGLETHORPE, INC.",INVESTOR-OWNED,0,87,FL000069,EFHM,110043, , , , , , , , , , ,HTTP://WWW.THEWILLOUGHATNAPLES.COM,1983,GEOPLAN,FDEM, ,26.09610975,-81.73629225,17RMJ2637286536,127,8.85364047,THE WILLOUGH AT NAPLES,V,2016-05-17,2017-09-06,117,26.09610975,-81.73629225,117
118,00433440004,N/A,PHYSICIANS REGIONAL MEDICAL CENTER-COLLIER BLVD,8300 COLLIER BLVD,NAPLES,34114,COLLIER,239-354-6000,HOSPITALS - ACUTE CARE,COLLIER HMA INC,PRIVATE,PRIVATE,HEALTH MANAGEMENT ASSOCIATES,INVESTOR-OWNED,0,100,N/A,EFHM,23960057, , , ,CABLE MODEM DOCSIS 3.0,GREATER THAN 1 GBPS,6 MBPS TO 10 MBPS,OPTICAL FIBER,3 MBPS TO 6 MBPS,3 MBPS TO 6 MBPS,3,HTTP://WWW.PHYSICIANSREGIONAL.COM/DEFAULT.ASPX,2007,GEOPLAN,FHA, ,26.10549739,-81.68493325,17RMJ3151487547,128,59.9291254,PHYSICIANS REGIONAL MEDICAL CENTER-COLLIER BLVD,V,2012-11-19,2017-09-06,118,26.10549739,-81.68493325,118
119,504215410010,10225058,BROWARD HEALTH MEDICAL CENTER,1600 S ANDREWS AVE,FORT LAUDERDALE,33316,BROWARD,954-355-4400,HOSPITALS - ACUTE CARE,NORTH BROWARD HOSPITAL DISTRIC,PRIVATE,PRIVATE,BROWARD HEALTH,PUBLIC/GOVERNMENT,0,716,FL000178,EFHL,100039, , , ,OPTICAL FIBER,25 MBPS TO 50 MBPS,10 MBPS TO 25 MBPS,OPTICAL FIBER,25 MBPS TO 50 MBPS,25 MBPS TO 50 MBPS,3,HTTP://WWW.BROWARDHEALTH.ORG,1938,GEOPLAN,FDEM,BROWARD HEALTH MEDICAL CENTER,26.10151578,-80.14151537,17RNJ8584387209,129,28.32629038,BROWARD HEALTH MEDICAL CENTER,V,2016-05-17,2017-09-06,119,26.10151578,-80.14151537,119
120,504009100010,10225028,SUNRISE REGIONAL MEDICAL CENTER,555 SW 148TH AVE,SUNRISE,33325,BROWARD,954-370-0200,HOSPITALS - PSYCHIATRIC,FAMILY CENTER AT SUNRISE LLC,PRIVATE,PRIVATE,N/A,INVESTOR-OWNED,0,100,FL000148,EFHM,N/A, , , , , , , , , , ,HTTP://REALPAGES.COM/SITES/SUNRISEREGIONAL/INDEX.HTML,1989,GEOPLAN,FDEM, ,26.1124315,-80.34695396,17RNJ6529488299,130,8.99980793,SUNRISE REGIONAL MEDICAL CENTER,V,2011-05-10,2017-09-06,120,26.1124315,-80.34695396,120
121,504104450010,10225053,WESTSIDE REGIONAL MEDICAL CENTER,8201 W BROWARD BLVD,PLANTATION,33324,BROWARD,954-473-6600,HOSPITALS - ACUTE CARE,COLUMBIA HOSPITAL CORP OF S BR,PRIVATE,PRIVATE,HCA EAST FLORIDA DIVISION,INVESTOR-OWNED,0,224,FL000173,EFHL,100228, , , ,OTHER,50 MBPS TO 100 MBPS,10 MBPS TO 25 MBPS,OPTICAL FIBER,6 MBPS TO 10 MBPS,3 MBPS TO 6 MBPS,4,HTTP://WESTSIDEREGIONAL.COM/HOME/INDEX.DOT,1974,GEOPLAN,FDEM, ,26.1236941,-80.25946355,17RNJ7403589593,131,12.8727429,WESTSIDE REGIONAL MEDICAL CENTER,V,2011-05-10,2017-09-06,121,26.1236941,-80.25946355,121
122,504101090010,10224949,PLANTATION GENERAL HOSPITAL,401 NW 42ND AVE,PLANTATION,33317,BROWARD,954-587-5010,HOSPITALS - ACUTE CARE,HOSPITAL DEV & SERVICE CORP,PRIVATE,PRIVATE,HCA EAST FLORIDA DIVISION,INVESTOR-OWNED,0,264,FL000087,EFHL,100167, , , ,ELECTRIC POWER LINE,GREATER THAN 1 GBPS,1.5 MBPS TO 3 MBPS,OTHER COPPER WIRELINE,GREATER THAN 1 GBPS,GREATER THAN 1 GBPS,4,HTTP://WWW.PLANTATIONGENERAL.COM/,1966,GEOPLAN,FDEM, ,26.12627164,-80.20496675,17RNJ7948189911,132,14.19144454,PLANTATION GENERAL HOSPITAL,V,2012-11-19,2017-09-06,122,26.12627164,-80.20496675,122
123,504211012170,10225089,KINDRED HOSPITAL SOUTH FLORIDA - FORT LAUDERDALE,1516 E LAS OLAS BLVD,FORT LAUDERDALE,33301,BROWARD,954-764-8900,HOSPITALS - ACUTE CARE,VENTAS REALTY LTD PRTNR,PRIVATE,PRIVATE,KINDRED EAST REGION OFFICE,INVESTOR-OWNED,0,70,FL000239,EFHM,100120, , , , , , , , , , ,HTTP://WWW.KHFORTLAUDERDALE.COM/,1969,GEOPLAN,FDEM, ,26.11908798,-80.12767623,17RNJ8721489164,133,1.50850199,KINDRED HOSPITAL SOUTH FLORIDA - FORT LAUDERDALE,V,2011-05-10,2017-09-06,123,26.11908798,-80.12767623,123
124,504211013270,10225063,FORT LAUDERDALE HOSPITAL,1601 E LAS OLAS BLVD,FORT LAUDERDALE,33301,BROWARD,954-463-4321,HOSPITALS - PSYCHIATRIC,HOSPITAL 1601 LAS OLAS LLC,PRIVATE,PRIVATE,UNIVERSAL HEALTH SERVICES INC,INVESTOR-OWNED,0,100,FL000183,EFHM,104026, , , , , , , , , , ,HTTP://WWW.FORTLAUDERDALEHOSPITAL.ORG/,1971,GEOPLAN,FDEM, ,26.11957673,-80.12680673,17RNJ8730189219,134,1.01003215,FORT LAUDERDALE HOSPITAL,V,2012-11-19,2017-09-06,124,26.11957673,-80.12680673,124
125,14038880000,10224925,NCH BAKER HOSPITAL - FORMERLY NCH DOWNTOWN NAPLES HOSPITAL,350 SEVENTH ST N,NAPLES,34102,COLLIER,239-436-5000,HOSPITALS - ACUTE CARE,NAPLES COMMUNITY HOSPITAL INC,PRIVATE,PRIVATE,NCH HEALTHCARE SYSTEM,NOT-FOR-PROFIT,0,391,FL000063,EFHL,100018,OPTICAL FIBER,100 MBPS TO 1 GBPS,100 MBPS TO 1 GBPS, , , , , , ,2,HTTP://WWW.NCHMD.ORG,1979,GEOPLAN,FDEM,NCH BAKER HOSPITAL,26.15032602,-81.79910321,17RMJ2012892577,135,22.08213688,NCH BAKER HOSPITAL - FORMERLY NCH DOWNTOWN NAPLES HOSPITAL,V,2016-05-17,2017-09-06,125,26.15032602,-81.79910321,125
126,494230130030,N/A,ST ANTHONY'S REHABILITATION HOSPITAL,3487 NW 30TH ST,LAUDERDALE LAKES,33311,BROWARD,954-739-6233,HOSPITALS - REHABILITATION,ST JOHN'S REHABILITATION,PRIVATE,PRIVATE,CATHOLIC HEALTH SERVICES,NOT-FOR-PROFIT,0,26,N/A,EFHS,103027, , , , , , , , , , ,HTTP://WWW.CATHOLICHEALTHSERVICES.ORG/,1980,GEOPLAN,FHA, ,26.16379228,-80.19350159,17RNJ8060294073,136,5.17260859,ST ANTHONY'S REHABILITATION HOSPITAL,V,2012-11-19,2017-09-06,126,26.16379228,-80.19350159,126
127,494119050110,10224982,HEALTHSOUTH SUNRISE REHABILITATION HOSPITAL,4399 NOB HILL RD,FORT LAUDERDALE,33351,BROWARD,954-749-0300,HOSPITALS - REHABILITATION,MPT OF FT LAUDERDALE LLC,PRIVATE,PRIVATE,HEALTHSOUTH CORPORATION,INVESTOR-OWNED,0,126,FL000217,EFHM,103028, , , , , , , , , , ,HTTP://WWW.HEALTHSOUTHSUNRISE.COM/,1985,GEOPLAN,FDEM, ,26.17816448,-80.28480569,17RNJ7146895611,137,9.73619746,HEALTHSOUTH SUNRISE REHABILITATION HOSPITAL,V,2011-05-10,2017-09-06,127,26.17816448,-80.28480569,127
128,494213210010,10225062,HOLY CROSS HOSPITAL,4725 N FEDERAL HWY,FORT LAUDERDALE,33308,BROWARD,954-771-8000,HOSPITALS - ACUTE CARE,HOLY CROSS HOSPITAL INC,PRIVATE,PRIVATE,HOLY CROSS HOSPITAL,NOT-FOR-PROFIT,0,557,FL000182,EFHL,100073, , , ,OPTICAL FIBER,50 MBPS TO 100 MBPS,1.5 MBPS TO 3 MBPS,OTHER COPPER WIRELINE,25 MBPS TO 50 MBPS,10 MBPS TO 25 MBPS,3,HTTP://WWW.HOLY-CROSS.COM/,1968,GEOPLAN,FDEM, ,26.18650563,-80.11946986,17RNJ8798496637,138,27.59214067,HOLY CROSS HOSPITAL,V,2016-05-17,2017-09-06,128,26.18650563,-80.11946986,128
129,494213000110,10225059,ATLANTIC SHORES HOSPITAL,4545 N FEDERAL HWY,FORT LAUDERDALE,33308,BROWARD,954-771-2711,HOSPITALS - PSYCHIATRIC,ATLANTIC SHORES HOSPITAL LLC,PRIVATE,PRIVATE,UNIVERSAL HEALTH SERVICES INC,INVESTOR-OWNED,0,42,FL000179,EFHS,110068, , , , , , , , , , ,HTTP://WWW.ATLANTICSHORESHOSPITAL.COM/,1964,GEOPLAN,FDEM, ,26.18461236,-80.11873484,17RNJ8805996428,139,2.43175629,ATLANTIC SHORES HOSPITAL,V,2016-05-17,2017-09-06,129,26.18461236,-80.11873484,129
130,494212000210,10225060,BROWARD HEALTH IMPERIAL POINT,6401 N FEDERAL HWY,FORT LAUDERDALE,33308,BROWARD,954-776-8500,HOSPITALS - ACUTE CARE,NORTH BROWARD HOSPITAL,PRIVATE,PRIVATE,BROWARD HEALTH,PUBLIC/GOVERNMENT,0,204,FL000180,EFHL,100200, , , ,OPTICAL FIBER,25 MBPS TO 50 MBPS,10 MBPS TO 25 MBPS,OPTICAL FIBER,25 MBPS TO 50 MBPS,25 MBPS TO 50 MBPS,4,HTTP://WWW.BROWARDHEALTH.ORG/,1972,GEOPLAN,FDEM,BROWARD HEALTH IMPERIAL POINT,26.20677867,-80.11093827,17RNJ8882198888,140,28.00312642,BROWARD HEALTH IMPERIAL POINT,V,2016-05-17,2017-09-06,130,26.20677867,-80.11093827,130
131,80670080001,N/A,PHYSICIANS REGIONAL MEDICAL CENTER-PINE RIDGE,6101 PINE RIDGE RD,NAPLES,34119,COLLIER,239-348-4000,HOSPITALS - ACUTE CARE,NAPLES HMA INC,PRIVATE,PRIVATE,HEALTH MANAGEMENT ASSOCIATES,INVESTOR-OWNED,0,101,N/A,EFHM,23960025, , , , , , ,CABLE MODEM,GREATER THAN 1 GBPS,GREATER THAN 1 GBPS,3,HTTP://WWW.PHYSICIANSREGIONAL.COM/,1998,GEOPLAN,FHA, ,26.21381435,-81.73274752,17RMJ2680099570,141,27.50791098,PHYSICIANS REGIONAL MEDICAL CENTER-PINE RIDGE,V,2011-05-10,2017-09-06,131,26.21381435,-81.73274752,131
132,494104390010,10225005,UNIVERSITY HOSPITAL AND MEDICAL CENTER,7201 N UNIVERSITY DR,TAMARAC,33321,BROWARD,954-721-2200,HOSPITALS - ACUTE CARE,UNIVERSITY HOSPITAL LTD,PRIVATE,PRIVATE,HCA EAST FLORIDA DIVISION,INVESTOR-OWNED,0,257,FL000125,EFHL,100224, , , , , , , , , , ,HTTP://UHMCHEALTH.COM/HOME/INDEX.DOT,1974,GEOPLAN,FDEM, ,26.2120182,-80.25434191,17RNJ7449199378,142,23.63149179,UNIVERSITY HOSPITAL AND MEDICAL CENTER,V,2011-05-10,2017-09-06,132,26.2120182,-80.25434191,132
133,494104740020,N/A,UNIVERSITY PAVILION - PSYCHIATRIC HOSPITAL,7425 N UNIVERSITY DR,TAMARAC,33321,BROWARD,954-722-9933,HOSPITALS - PSYCHIATRIC,UNIVERSITY HOSPITAL LTD,PRIVATE,PRIVATE,HCA EAST FLORIDA DIVISION,INVESTOR-OWNED,0,60,N/A,EFHM,N/A, , , , , , , , , , ,HTTP://UHMCHEALTH.COM/HOME/INDEX.DOT,1988,GEOPLAN,FHA, ,26.21320395,-80.25692358,17RNJ7423299508,143,5.13013644,UNIVERSITY PAVILION - PSYCHIATRIC HOSPITAL,V,2011-05-10,2017-09-06,133,26.21320395,-80.25692358,133
134,484121140050,10225048,BROWARD HEALTH CORAL SPRINGS,3000 CORAL HILLS DR,POMPANO BEACH,33065,BROWARD,954-344-3040,HOSPITALS - ACUTE CARE,NORTH BROWARD HOSPITAL,PRIVATE,PRIVATE,BROWARD HEALTH,PUBLIC/GOVERNMENT,0,200,FL000168,EFHL,110019, , , ,OPTICAL FIBER,25 MBPS TO 50 MBPS,10 MBPS TO 25 MBPS,OPTICAL FIBER,25 MBPS TO 50 MBPS,25 MBPS TO 50 MBPS,3,HTTP://WWW.BROWARDHEALTH.ORG/,1990,GEOPLAN,FDEM,BROWARD HEALTH CORAL SPRINGS,26.26851401,-80.25570265,17RNK7431905634,144,28.64709009,BROWARD HEALTH CORAL SPRINGS,V,2016-05-17,2017-09-06,134,26.26851401,-80.25570265,134
135,27167550201,N/A,NCH NORTH NAPLES HOSPITAL,11190 HEALTH PARK BLVD,NAPLES,34110,COLLIER,239-552-7000,HOSPITALS - ACUTE CARE,NAPLES COMMUNITY HOSPITAL INC,PRIVATE,PRIVATE,NCH HEALTHCARE SYSTEM,NOT-FOR-PROFIT,0,322,N/A,EFHL,120006,OPTICAL FIBER,100 MBPS TO 1 GBPS,100 MBPS TO 1 GBPS, , , , , , ,2,HTTP://WWW.NCHMD.ORG/,1989,GEOPLAN,FHA, ,26.27382717,-81.78884178,17RMK2123706249,146,41.64821026,NCH NORTH NAPLES HOSPITAL,V,2016-05-17,2017-09-06,136,26.27382717,-81.78884178,135
136,484214290010,10224954,BROWARD HEALTH NORTH,201 E SAMPLE RD,POMPANO BEACH,33064,BROWARD,954-941-8300,HOSPITALS - ACUTE CARE,NORTH BROWARD HOSPITAL,PRIVATE,PRIVATE,BROWARD HEALTH,PUBLIC/GOVERNMENT,0,409,FL000092,EFHL,100086, , , ,OPTICAL FIBER,25 MBPS TO 50 MBPS,10 MBPS TO 25 MBPS,OPTICAL FIBER,25 MBPS TO 50 MBPS,25 MBPS TO 50 MBPS,3,HTTP://WWW.BROWARDHEALTH.ORG/,1967,GEOPLAN,FDEM,BROWARD HEALTH NORTH,26.2767789,-80.12114679,17RNK8774906634,147,35.48951296,BROWARD HEALTH NORTH,V,2016-05-17,2017-09-06,137,26.2767789,-80.12114679,136
137,474231150010,10053867,THE RENFREW CENTER OF FLORIDA,7700 RENFREW LANE,COCONUT CREEK,33073,BROWARD,954-698-9222,HOSPITALS - PSYCHIATRIC,RENFREW CENTER OF FLA INC,PRIVATE,PRIVATE,N/A,INVESTOR-OWNED,0,40,N/A,EFHS,N/A, , , , , , , , , , ,HTTP://WWW.RENFREWCENTER.COM/LOCATIONS/COCONUT-CREEK.ASP,1992,GEOPLAN,FDEM, ,26.32715046,-80.18901322,17RNK8093712169,148,8.57282507,THE RENFREW CENTER OF FLORIDA,V,2012-11-19,2017-09-06,138,26.32715046,-80.18901322,137
138,00424719200020000,10225007,WEST BOCA MEDICAL CENTER,21644 STATE ROAD 7,BOCA RATON,33428,PALM BEACH,561-488-8000,HOSPITALS - ACUTE CARE,WEST BOCA MEDICAL CENTER INC,PRIVATE,PRIVATE,TENET HEALTHSYSTEM,INVESTOR-OWNED,0,195,FL000127,EFHL,110008, , , , , , , , , , ,HTTP://WWW.WESTBOCAMEDCTR.COM/,1986,GEOPLAN,FDEM, ,26.35610656,-80.19927525,17RNK7989315369,149,28.74178493,WEST BOCA MEDICAL CENTER,V,2011-05-10,2017-09-06,139,26.35610656,-80.19927525,138
139,06434719140130085,10225000,BOCA RATON REGIONAL HOSPITAL,800 MEADOWS RD,BOCA RATON,33486,PALM BEACH,561-995-7100,HOSPITALS - ACUTE CARE,BOCA RATON COMMUNITY HOSPITAL,PRIVATE,PRIVATE,N/A,NOT-FOR-PROFIT,0,400,FL000120,EFHL,100168, , , , , , , , , , ,HTTP://WWW.BRCH.COM/,1967,GEOPLAN,FDEM,BOCA RATON REGIONAL HOSPITAL,26.35848956,-80.10234854,17RNK8956315697,150,32.50172642,BOCA RATON REGIONAL HOSPITAL,V,2016-05-17,2017-09-06,140,26.35848956,-80.10234854,139
140,12424626000001040,10225086,PINECREST REHAB HOSPITAL - DELRAY MEDICAL CENTER,5360 LINTON BLVD,DELRAY BEACH,33484,PALM BEACH,561-495-0400,HOSPITALS - REHABILITATION,TENET HEALTHCARE CORP,PRIVATE,PRIVATE,TENET HEALTHSYSTEM,INVESTOR-OWNED,0,90,FL000236,EFHM,N/A, , , , , , , , , , ,HTTP://WWW.DELRAYMEDICALCTR.COM/EN-US/PAGES/DEFAULT.ASPX,1982,GEOPLAN,FDEM,BELONGS TO THE DELRAY MEDICAL CENTER COMPLEX,26.43628654,-80.12840722,17RNK8690424296,151,29.88768634,PINECREST REHAB HOSPITAL - DELRAY MEDICAL CENTER,V,2011-05-10,2017-09-06,141,26.43628654,-80.12840722,140
141,12424626000001040,10225034,DELRAY MEDICAL CENTER,5352 LINTON BLVD,DELRAY BEACH,33484,PALM BEACH,561-498-4440,HOSPITALS - ACUTE CARE,TENET HEALTHCARE CORP,PRIVATE,PRIVATE,TENET HEALTHSYSTEM,INVESTOR-OWNED,0,350,FL000154,EFHL,100258, , , , , , , , , , ,HTTP://WWW.DELRAYMEDICALCTR.COM/CWSCONTENT/DELRAYMEDICALCTR,1982,GEOPLAN,FDEM,ENCOMPASSES THE PINCREST REHAB HOSPITAL,26.43692524,-80.12789546,17RNK8695524367,152,29.84975537,DELRAY MEDICAL CENTER,V,2011-05-10,2017-09-06,142,26.43692524,-80.12789546,141
142,562S301000000000,N/A,NAVAL HOSPITAL/PENSACOLA,6000 W HIGHWAY 98,PENSACOLA,32512,ESCAMBIA,850-505-6601,HOSPITALS - FEDERAL,UNITED STATES OF AMERICA,FEDERAL,PUBLIC,FEDERAL GOVERNMENT,PUBLIC,0,119,N/A,EFHM,N/A, , , , , , , , , , ,HTTP://WWW.MED.NAVY.MIL/SITES/PCOLA/PAGES/DEFAULT.ASPX,1955,GEOPLAN,FHA, ,30.39851369,-87.29904974,16RDU7127362983,77,24.79698565,NAVAL HOSPITAL/PENSACOLA,V,2011-04-11,2017-09-06,143,30.39851369,-87.29904974,142
143,22-2S-28-1750-00200-0120,10225067,THE FRIARY OF LAKEVIEW CENTER,4400 HICKORY SHORES BLVD,GULF BREEZE,32563,SANTA ROSA,850-932-9375,HOSPITALS - PSYCHIATRIC,LAKEVIEW CENTER INC,PRIVATE,PRIVATE,N/A,NOT-FOR-PROFIT,0,30,FL000187,EFHS,N/A, , , , , , , , , , ,HTTP://THEFRIARY.BHCPNS.ORG/THEFRIARY/,1970,GEOPLAN,FDEM, ,30.39790729,-87.03926431,16RDU9622862879,78,5.32836492,THE FRIARY OF LAKEVIEW CENTER,V,2011-05-10,2017-09-06,144,30.39790729,-87.03926431,143
144,172S301000001020,10053880,LAKEVIEW CENTER - PSYCHIATRIC HOSPITAL,HERNANDEZ ST,PENSACOLA,32501,ESCAMBIA,850-432-1222,HOSPITALS - PSYCHIATRIC,LAKEVIEW CENTER INC,PRIVATE,PRIVATE,BAPTIST HEALTH CARE,NOT-FOR-PROFIT,0,16,N/A,EFHS,N/A, , , , , , , , , , ,HTTP://WWW.ELAKEVIEWCENTER.ORG/LAKEVIEWCENTER/,1975,GEOPLAN,FDEM, ,30.43245082,-87.23328089,16RDU7759966729,79,19.26795654,LAKEVIEW CENTER - PSYCHIATRIC HOSPITAL,V,2011-05-10,2017-09-06,145,30.43245082,-87.23328089,144
145,000S009050001058,10224944,BAPTIST HOSPITAL - PENSACOLA,1000 W MORENO ST,PENSACOLA,32501,ESCAMBIA,850-434-4011,HOSPITALS - ACUTE CARE,BAPTIST HOSPITAL INC,PRIVATE,PRIVATE,BAPTIST HEALTH CARE,NOT-FOR-PROFIT,0,492,FL000082,EFHL,100093, , , ,OPTICAL FIBER, , , , , , ,HTTP://WWW.BHCPNS.ORG/,1949,GEOPLAN,FDEM, ,30.42956608,-87.2311113,16RDU7780666409,80,36.34561388,BAPTIST HOSPITAL - PENSACOLA,V,2011-05-10,2017-09-06,146,30.42956608,-87.2311113,145
146,34-1S-24-0000-0056-0000,N/A,GULF COAST TREATMENT CENTER,1015 MAR-WALT DR,FORT WALTON BEACH,32548,OKALOOSA,850-863-4160,HOSPITALS - PSYCHIATRIC,GULF COAST TREATMENT CENTER,PRIVATE,PRIVATE,UNIVERSAL HEALTH SERVICES INC,INVESTOR-OWNED,0,24,N/A,EFHS,111520, , , , , , , , , , ,HTTP://WWW.GULFCOASTTREATMENT.COM/,1985,GEOPLAN,FHA, ,30.45594298,-86.63599102,16REU3494669366,81,5.16531417,GULF COAST TREATMENT CENTER,V,2011-05-10,2017-09-06,147,30.45594298,-86.63599102,146
147,32-1S-23-0000-0004-0000,N/A,96TH MEDICAL GROUP - US AIR FORCE HOSPITAL - EGLIN HOSPITAL,307 BOATNER RD,EGLIN AFB,32542,OKALOOSA,850-883-8600,HOSPITALS - FEDERAL,UNITED STATES OF AMERICA,FEDERAL,PUBLIC,FEDERAL GOVERNMENT,PUBLIC,0,59,N/A,EFHM,N/A, , , , , , , , , , ,HTTP://WWW.EGLIN.AF.MIL/UNITS/EGLINHOSPITAL.ASP,0,GEOPLAN,FHA,US AIRFORCE HOSPITAL - EGLIN HOSPITAL,30.46116086,-86.555096,16REU4271069972,83,61.46337921,96TH MEDICAL GROUP - US AIR FORCE HOSPITAL - EGLIN HOSPITAL,V,2016-05-17,2017-09-06,148,30.46116086,-86.555096,147
148,451S301000000007,N/A,CONSULATE HEALTH CARE OF PENSACOLA,235 W AIRPORT BLVD,PENSACOLA,32505,ESCAMBIA,850-857-5200,HOSPITALS - REHABILITATION,ARBOR HEALTH CARE CO,PRIVATE,PRIVATE,N/A,INVESTOR-OWNED,0,120,N/A,EFHM,N/A, , , , , , , , , , ,HTTP://WWW.CONSULATEHEALTHCARE.COM/FACILITYBYSTATE.ASPX?LOCID=110,1996,GEOPLAN,ESCAMBIA COUNTY, ,30.47140638,-87.25260536,16RDU7575371050,84,6.885106,CONSULATE HEALTH CARE OF PENSACOLA,V,2011-05-10,2017-09-06,149,30.47140638,-87.25260536,148
149,331S304102000000,10224946,SACRED HEART HOSPITAL OF PENNSACOLA,5151 N 9TH AVE,PENSACOLA,32504,ESCAMBIA,850-416-7000,HOSPITALS - ACUTE CARE,SACRED HEART HEALTH SYSTEM INC,PRIVATE,PRIVATE,SACRED HEART HEALTH SYSTEM INC,NOT-FOR-PROFIT,0,566,FL000084,EFHL,100025, , , ,OPTICAL FIBER,10 MBPS TO 25 MBPS,6 MBPS TO 10 MBPS,CABLE MODEM,1.5 MBPS TO 3 MBPS,1.5 MBPS TO 3 MBPS,4,HTTP://WWW.SACRED-HEART.ORG/,1957,GEOPLAN,FDEM,SACRED HEART HOSPITAL OF PENSACOLA,30.47528789,-87.21232928,16RDU7962071472,85,92.0345882,SACRED HEART HOSPITAL OF PENNSACOLA,V,2016-05-17,2017-09-06,150,30.47528789,-87.21232928,149
150,29-1N-08-0000-0061-0000,10224999,CALHOUN-LIBERTY HOSPITAL,20370 NE BURNS AVE,BLOUNTSTOWN,32424,CALHOUN,850-674-5411,HOSPITALS - ACUTE CARE,CALHOUN/LIBERTY HOSPITAL ASSN,PRIVATE,PRIVATE,"CALHOUN LIBERTY HOSPITAL ASSOCIATION, INC",NOT-FOR-PROFIT,0,25,FL000119,EFHS,100112,OTHER COPPER WIRELINE,3 MBPS TO 6 MBPS,3 MBPS TO 6 MBPS, , , , , , ,2,HTTP://WWW.CALHOUNCO.ORG/HEALTH-CARE.CFM,1966,GEOPLAN,FDEM, ,30.4585776,-85.05010029,16RFU8721071216,86,4.58382792,CALHOUN-LIBERTY HOSPITAL,V,2011-05-10,2017-09-06,151,30.4585776,-85.05010029,150
151,1130208020000,10224983,TALLAHASSEE MEMORIAL HEALTHCARE,1300 MICCOSUKEE RD,TALLAHASSEE,32308,LEON,850-431-1155,HOSPITALS - ACUTE CARE,CITY OF TALLAHASSEE,MUNICIPAL,PUBLIC,"TALLAHASSEE MEMORIAL HEALTHCARE, INC.",NOT-FOR-PROFIT,0,772,FL000218,EFHL,100135, , , ,OPTICAL FIBER,100 MBPS TO 1 GBPS,768 KBPS TO 1.5 KBPS,DSL SYMMETRIC,10 MBPS TO 25 MBPS,6 MBPS TO 10 MBPS,3,HTTP://WWW.TMH.ORG/,1949,GEOPLAN,FDEM, ,30.45639314,-84.26201995,16RGU6290472545,87,71.58622671,TALLAHASSEE MEMORIAL HEALTHCARE,V,2016-05-17,2017-09-06,152,30.45639314,-84.26201995,151
152,1128170000010,10224956,HEALTHSOUTH REHABILITATION HOSPITAL OF TALLAHASSEE,1675 RIGGINS RD,TALLAHASSEE,32308,LEON,850-656-4800,HOSPITALS - REHABILITATION,HEALTHSOUTH REHABILITATION HOS,PRIVATE,PRIVATE,HEALTHSOUTH CORPORATION,INVESTOR-OWNED,0,76,FL000094,EFHM,110021, , , , , , , , , , ,HTTP://WWW.HEALTHSOUTHTALLAHASSEE.COM/,1986,GEOPLAN,FDEM,HEALTHSOUTH REHABILITATION HOSPITAL OF TALLAHASSEE,30.45964715,-84.23700023,16RGU6529972964,88,10.13279217,HEALTHSOUTH REHABILITATION HOSPITAL OF TALLAHASSEE,V,2016-05-17,2017-09-06,153,30.45964715,-84.23700023,152
153,1129202120000,N/A,SELECT SPECIALTY HOSPITAL - TALLAHASSEE,1544 SURGEONS DR,TALLAHASSEE,32308,LEON,850-219-6800,HOSPITALS - ACUTE CARE,HTA-TALLAHASSEE SS HOSPITAL LL,PRIVATE,PRIVATE,SELECT MEDICAL CORPORATION,INVESTOR-OWNED,0,29,N/A,EFHS,23960059, , , , , , , , , , ,HTTP://WWW.SELECTSPECIALTYHOSPITALS.COM/,2007,GEOPLAN,FHA, ,30.46153384,-84.25307008,16RGU6375073136,89,21.97997486,SELECT SPECIALTY HOSPITAL - TALLAHASSEE,V,2011-05-10,2017-09-06,154,30.46153384,-84.25307008,153
154,112105  C0171,10224955,CAPITAL REGIONAL MEDICAL CENTER,2626 CAPITAL MEDICAL BLVD,TALLAHASSEE,32308,LEON,850-325-5015,HOSPITALS - ACUTE CARE,TALLAHASSEE MEDICAL CTR,PRIVATE,PRIVATE,HCA NORTH FLORIDA DIVISION,INVESTOR-OWNED,0,266,FL000093,EFHL,100254, , , ,OTHER COPPER WIRELINE,25 MBPS TO 50 MBPS,1.5 MBPS TO 3 MBPS,OTHER COPPER WIRELINE,25 MBPS TO 50 MBPS,25 MBPS TO 50 MBPS,4,HTTP://WWW.CAPITALREGIONALMEDICALCENTER.COM,2003,GEOPLAN,FDEM, ,30.47581562,-84.23177896,16RGU6575674769,91,28.68770549,CAPITAL REGIONAL MEDICAL CENTER,V,2016-05-17,2017-09-06,155,30.47581562,-84.23177896,154
155,181S302101000000,N/A,WEST FLORIDA REHABILITATION INSTITUTE,8391 N DAVIS HWY,PENSACOLA,32514,ESCAMBIA,850-494-6100,HOSPITALS - REHABILITATION,WEST FLORIDA REGIONAL MEDICAL,PRIVATE,PRIVATE,HCA NORTH FLORIDA DIVISION,INVESTOR-OWNED,0,58,N/A,EFHM,N/A, , , , , , , , , , ,HTTP://WWW.WESTFLORIDAHOSPITAL.COM/,1976,GEOPLAN,FHA,PART OF WEST FLORIDA HOSPITAL,30.51632305,-87.21702758,16RDU7917776020,92,41.4857568,WEST FLORIDA REHABILITATION INSTITUTE,V,2011-05-10,2017-09-06,156,30.51632305,-87.21702758,155
156,1116202330000,N/A,EASTSIDE PSYCHIATRIC HOSPITAL,2634-B CAPITAL CIR NE,TALLAHASSEE,32308,LEON,850-523-3333,HOSPITALS - PSYCHIATRIC,APALACHEE CENTER INC,PRIVATE,PRIVATE,RONALD P. KIRKLAND,NOT-FOR-PROFIT,0,46,N/A,EFHS,110044, , , , , , , , , , ,HTTP://WWW.APALACHEECENTER.ORG,1973,GEOPLAN,FHA,NOT SURE OF ENTIRE EXTENT,30.48737044,-84.23916232,16RGU6501676033,93,10.66154546,EASTSIDE PSYCHIATRIC HOSPITAL,V,2011-05-10,2017-09-06,157,30.48737044,-84.23916232,156
157,01-1S-23-0000-0003-0000,10224927,TWIN CITIES HOSPITAL,2190 STATE HWY 85 N,NICEVILLE,32578,OKALOOSA,850-678-4131,HOSPITALS - ACUTE CARE,HCA,PRIVATE,PRIVATE,HCA NORTH FLORIDA DIVISION,INVESTOR-OWNED,0,65,FL000065,EFHM,100054, , , ,OTHER COPPER WIRELINE,25 MBPS TO 50 MBPS,1.5 MBPS TO 3 MBPS,OTHER COPPER WIRELINE,25 MBPS TO 50 MBPS,25 MBPS TO 50 MBPS,4,HTTP://TCHOSPITAL.COM/HOME/INDEX.DOT,1980,GEOPLAN,FDEM, ,30.53356473,-86.49570973,16REU4837678019,94,15.11305909,TWIN CITIES HOSPITAL,V,2011-05-10,2017-09-06,158,30.53356473,-86.49570973,157
158,3-17-2N-3W-0000-00414-0000,N/A,CAPITAL REGIONAL MEDICAL CENTER GADSDEN MEMORIAL CAMPUS,23186 BLUE STAR HWY,QUINCY,32351,GADSDEN,850-325-5000,HOSPITALS - ACUTE CARE,GADSDEN COUNTY,COUNTY,PUBLIC,N/A,INVESTOR-OWNED,0,4,N/A,EFHS,100159, , , , , , , , , , ,HTTP://WWW.GADSDENGOV.NET/GHI/INDEX.HTML,1993,GEOPLAN,GEOPLAN, ,30.56878728,-84.54878772,16RGU3508984373,95,14.03972846,CAPITAL REGIONAL MEDICAL CENTER GADSDEN MEMORIAL CAMPUS,V,2016-05-17,2017-09-06,159,30.56878728,-84.54878772,158
159,32-2N-28-0000-03801-0000,10224923,SANTA ROSA MEDICAL CENTER,6002 BERRYHILL RD,MILTON,32570,SANTA ROSA,850-626-7762,HOSPITALS - ACUTE CARE,SANTA ROSA COUNTY,PRIVATE,PRIVATE,HEALTH MANAGEMENT ASSOCIATES,INVESTOR-OWNED,0,129,FL000061,EFHM,100124, , , ,OPTICAL FIBER,10 MBPS TO 25 MBPS,200 KBPS TO 768 KBPS,DSL ASYMMETRIC,768 KBPS TO 1.5 KBPS,768 KBPS TO 1.5 KBPS,4,HTTP://WWW.SRMCFL.COM/DEFAULT.ASPX,1973,GEOPLAN,FDEM, ,30.63407611,-87.06713396,16RDU9356789051,96,28.05064293,SANTA ROSA MEDICAL CENTER,V,2011-05-10,2017-09-06,160,30.63407611,-87.06713396,159
160,34-2N-28-0000-17901-0000,N/A,WEST FLORIDA COMMUNITY CARE CENTER,5500 STEWART ST,MILTON,32570,SANTA ROSA,850-983-5500,HOSPITALS - PSYCHIATRIC,STATE OF FLORIDA,STATE,PUBLIC,WEST FLORIDA COMMUNITY CARE CE,PUBLIC,0,100,N/A,EFHM,104027, , , , , , , , , , ,HTTP://WWW.BHCPNS.ORG/BEHAVIORALHEALTH/,1955,GEOPLAN,FHA, ,30.63439764,-87.04227877,16RDU9594889086,97,5.09069133,WEST FLORIDA COMMUNITY CARE CENTER,V,2012-11-26,2017-09-06,161,30.63439764,-87.04227877,160
161,23-2N-19-18000-004-0051,10225049,HEALTHMARK REGIONAL MEDICAL CENTER,4413 US HWY 331 S,DEFUNIAK SPRINGS,32435,WALTON,850-951-4500,HOSPITALS - ACUTE CARE,THOMPSON JAMES & MARY M,PRIVATE,PRIVATE,HEALTHMARK CORPORATION,INVESTOR-OWNED,0,50,FL000169,EFHM,100081, , , , , , , , , , ,HTTP://WWW.HEALTHMARKREGIONAL.COM/,0,GEOPLAN,FDEM, ,30.66006758,-86.11752451,16REU8454592262,98,35.34955388,HEALTHMARK REGIONAL MEDICAL CENTER,V,2011-05-10,2017-09-06,162,30.66006758,-86.11752451,161
162,1-33-4N-6W-0000-00110-0000,10225033,FLORIDA STATE HOSPITAL,100 N MAIN ST,CHATTAHOOCHEE,32324,GADSDEN,850-663-7536,HOSPITALS - PSYCHIATRIC,STATE OF FLORIDA,STATE,PUBLIC,FLORIDA STATE HOSPITAL,PUBLIC,0,949,FL000153,EFHL,104000, , , , , , , , , , ,HTTP://WWW.DCF.STATE.FL.US/FACILITIES/FSH/,0,GEOPLAN,FDEM,EXTENT NOT COMPLETELY CLEAR,30.70633299,-84.84185696,16RGU0668299045,99,1741.785418,FLORIDA STATE HOSPITAL,NV,2016-05-17,2017-09-06,163,30.70633299,-84.84185696,162
163,29-3N-23-0000-000A-0000,10225044,NORTH OKALOOSA MEDICAL CENTER,151 E REDSTONE AVE,CRESTVIEW,32539,OKALOOSA,850-689-8100,HOSPITALS - ACUTE CARE,PINELLAS HOSPITAL CORPORATION,PRIVATE,PRIVATE,COMMUNITY HEALTH SYSTEMS,INVESTOR-OWNED,0,110,FL000164,EFHM,100122,OTHER COPPER WIRELINE,1.5 MBPS TO 3 MBPS,1.5 MBPS TO 3 MBPS, , , , , , ,2,HTTP://WWW.NORTHOKALOOSA.COM/,1981,GEOPLAN,FDEM, ,30.73574102,-86.56221611,16REV4190900398,100,27.8666162,NORTH OKALOOSA MEDICAL CENTER,V,2011-05-10,2017-09-06,164,30.73574102,-86.56221611,163
164,00000000-00-2216-0000,10225036,NORTHWEST FLORIDA COMMUNITY HOSPITAL,1360 BRICKYARD RD,CHIPLEY,32428,WASHINGTON,850-638-1610,HOSPITALS - ACUTE CARE,NORTHWEST FL HEALTHCARE INC,PRIVATE,PRIVATE,"NORTHWEST FLORIDA HEALTHCARE,I",INVESTOR-OWNED,0,59,FL000156,EFHM,100147,OPTICAL FIBER,10 MBPS TO 25 MBPS,25 MBPS TO 50 MBPS, , , , , , ,2,HTTP://NFCH.ORG/NORTHWESTFLORIDACOMMUNITYHOSPITAL/HOME/,1978,GEOPLAN,FDEM, ,30.76554207,-85.54276248,16RFV3946304526,101,21.91545395,NORTHWEST FLORIDA COMMUNITY HOSPITAL,V,2016-05-17,2017-09-06,165,30.76554207,-85.54276248,164
165,0607.00-000-000-016.000,10225002,DOCTORS MEMORIAL HOSPITAL,2600 HOSPITAL DR,BONIFAY,32425,HOLMES,850-547-8000,HOSPITALS - ACUTE CARE,HOLMES COUNTY HOSPITAL CORP,PRIVATE,PRIVATE,HOLMES COUNTY HOSPITAL CORP.,PUBLIC/GOVERNMENT,0,20,FL000122,EFHS,100078, , , ,OPTICAL FIBER,6 MBPS TO 10 MBPS,1.5 MBPS TO 3 MBPS,OPTICAL FIBER,768 KBPS TO 1.5 KBPS,768 KBPS TO 1.5 KBPS,3,HTTP://WWW.DOCTORSMEMORIALHOSPITAL.COM/INDEX.HTML,2009,GEOPLAN,FDEM, ,30.76095519,-85.68300198,16RFV2604603851,102,10.99796323,DOCTORS MEMORIAL HOSPITAL,V,2012-11-19,2017-09-06,166,30.76095519,-85.68300198,165
166,33-5N-10-0304-0070-0010,10224903,JACKSON HOSPITAL,4250 HOSPITAL DR,MARIANNA,32446,JACKSON,850-526-2200,HOSPITALS - ACUTE CARE,JACKSON COUNTY HOSPITAL CORP,PRIVATE,PRIVATE,QUORUM HEALTH RESOURCES,PUBLIC/GOVERNMENT,0,100,FL000041,EFHM,100142,OPTICAL FIBER,6 MBPS TO 10 MBPS,6 MBPS TO 10 MBPS, , , , , , ,2,HTTP://WWW.JACKSONHOSP.COM/,1998,GEOPLAN,FDEM, ,30.78685193,-85.24130952,16RFV6828007302,103,16.78450195,JACKSON HOSPITAL,V,2011-05-10,2017-09-06,167,30.78685193,-85.24130952,166
167,3414-501-3203-250-9,10225078,PORT ST LUCIE HOSPITAL,2550 SE WALTON RD,PORT ST LUCIE,34952,ST LUCIE,772-335-0400,HOSPITALS - PSYCHIATRIC,FLORIDA PROPERTIES OF PSL LLC,PRIVATE,PRIVATE,"OGLETHORPE OF PSL, LLC",INVESTOR-OWNED,0,75,FL000198,EFHM,110022, , , , , , , , , , ,HTTP://WWW.PORTSTLUCIEHOSPITALINC.COM/,1987,GEOPLAN,FDEM,PORT ST LUCIE HOSPITAL,27.29766468,-80.27144465,17RNL7209419615,226,19.97289423,PORT ST LUCIE HOSPITAL,V,2016-05-17,2017-09-06,290,27.29766468,-80.27144465,290
168,0065100003,10224973,DOCTORS HOSPITAL OF SARASOTA,5731 BEE RIDGE RD,SARASOTA,34233,SARASOTA,941-342-1100,HOSPITALS - ACUTE CARE,SARASOTA DOCTORS HOSPITAL INC,PRIVATE,PRIVATE,HCA WEST FLORIDA DIVISION,INVESTOR-OWNED,0,155,FL000208,EFHL,100166, , , , , , , , , , ,HTTP://WWW.DOCTORSOFSARASOTA.COM/,1994,GEOPLAN,FDEM, ,27.30192743,-82.4534452,17RLL5617420714,227,33.43268353,DOCTORS HOSPITAL OF SARASOTA,V,2011-05-10,2017-09-06,291,27.30192743,-82.4534452,291
169,0240121001,10053882,COMPLEX CARE HOSPITAL AT RIDGELAKE,6150 EDGELAKE DR,SARASOTA,34240,SARASOTA,941-342-3000,HOSPITALS - ACUTE CARE,HEALTH CARE REIT INC,PRIVATE,PRIVATE,HEALTHSOUTH CORPORATION,INVESTOR-OWNED,0,40,N/A,EFHS,23960049, , , , , , , , , , ,HTTP://WWW.HEALTHSOUTHRIDGELAKE.COM/,2005,GEOPLAN,FDEM,COMPLEX CARE HOSPITAL AT RIDGELAKE,27.3019707,-82.44626475,17RLL5688520711,228,6.43517391,COMPLEX CARE HOSPITAL AT RIDGELAKE,V,2016-05-17,2017-09-06,292,27.3019707,-82.44626475,292
170,0240121003,N/A,HEALTHSOUTH REHABILITATION HOSPITAL OF SARASOTA (INPATIENT REHABILITATION HOSPITAL),6400 EDGELAKE DR,SARASOTA,34240,SARASOTA,941-921-8600,HOSPITALS - REHABILITATION,HEALTHSOUTH OF SARASOTA LIMITE,PRIVATE,PRIVATE,HEALTHSOUTH CORPORATION,INVESTOR-OWNED,0,96,N/A,EFHM,110013, , , , , , , , , , ,HTTP://WWW.HEALTHSOUTHSARASOTA.COM/,2006,GEOPLAN,GEOPLAN, ,27.30090458,-82.44250742,17RLL5725520588,229,5.99236853,HEALTHSOUTH REHABILITATION HOSPITAL OF SARASOTA (INPATIENT REHABILITATION HOSPITAL),V,2016-05-17,2017-09-06,293,27.30090458,-82.44250742,293
171,C253629A0000700010,N/A,FLORIDA HOSPITAL LAKE PLACID,1210 US HWY 27 N,LAKE PLACID,33852,HIGHLANDS,863-465-3777,HOSPITALS - ACUTE CARE,ADVENTIST HEALTH,PRIVATE,PRIVATE,ADVENTIST HEALTH SYSTEM,NOT-FOR-PROFIT,0,50,N/A,EFHM,120013, , , , , , , , , , ,HTTP://WWW.FHHEARTLAND.ORG/CONTACTUS.ASPX,1981,GEOPLAN,FHA, ,27.32007171,-81.36940399,17RML6345421941,230,44.31454129,FLORIDA HOSPITAL LAKE PLACID,V,2011-05-10,2017-09-06,294,27.32007171,-81.36940399,294
172,2037090033,10225013,SARASOTA MEMORIAL HEALTH CARE SYSTEM,1700 S TAMIAMI TRAIL,SARASOTA,34239,SARASOTA,941-917-9000,HOSPITALS - ACUTE CARE,SARASOTA COUNTY,COUNTY,PUBLIC,SMH,PUBLIC/GOVERNMENT,0,733,FL000133,EFHL,100087, , , ,OPTICAL FIBER,100 MBPS TO 1 GBPS,10 MBPS TO 25 MBPS,OPTICAL FIBER,10 MBPS TO 25 MBPS,6 MBPS TO 10 MBPS,3,HTTP://WWW.SMH.COM/,1950,GEOPLAN,FDEM, ,27.31794752,-82.53000214,17RLL4861922579,231,25.53905083,SARASOTA MEMORIAL HEALTH CARE SYSTEM,V,2016-05-17,2017-09-06,295,27.31794752,-82.53000214,295
173,182903ZZZ000005442500A,10225014,ST JOSEPH'S HOSPITAL,3001 W DR MARTIN LUTHER KING JR BLVD,TAMPA,33607,HILLSBOROUGH,813-870-4000,HOSPITALS - ACUTE CARE,ST JOSEPH'S HOSPITAL INC,PRIVATE,PRIVATE,BAYCARE - ST. JOSEPH'S-BAPTIST HEALTH CAR,NOT-FOR-PROFIT,0,437,FL000134,EFHL,100075, , , ,OPTICAL FIBER,50 MBPS TO 100 MBPS,10 MBPS TO 25 MBPS,OPTICAL FIBER,50 MBPS TO 100 MBPS,50 MBPS TO 100 MBPS,3,HTTP://WWW.SJBHEALTH.ORG/,1966,GEOPLAN,FDEM,TWO HOSPITALS ON ONE PARCEL,27.98258443,-82.49070868,17RLL5339796168,270,35.9142939,ST JOSEPH'S HOSPITAL,V,2016-05-17,2017-09-06,296,27.98258443,-82.49070868,296
174,182903ZZZ000005442500A,N/A,ST JOSEPH'S CHILDREN'S HOSPITAL,3001 W DR ML KING JR BLVD,TAMPA,33607,HILLSBOROUGH,813-554-8500,HOSPITALS - CHILDREN/ACUTE CARE,ST JOSEPH'S HOSPITAL INC,PRIVATE,PRIVATE,BAYCARE - ST. JOSEPH'S-BAPTIST HEALTH CAR,NOT-FOR-PROFIT,0,186,N/A,EFHL,100075, , , ,OPTICAL FIBER,50 MBPS TO 100 MBPS,10 MBPS TO 25 MBPS,OPTICAL FIBER,50 MBPS TO 100 MBPS,50 MBPS TO 100 MBPS,3,HTTP://WWW.SJBHEALTH.ORG/,1966,GEOPLAN,FHA,OVERARCHING ENTITY IS ST. JOSEPH'S HOPSITAL,27.9820925,-82.49016563,17RLL5345096113,271,33.16542853,ST JOSEPH'S CHILDREN'S HOSPITAL,V,2016-05-17,2017-09-06,297,27.9820925,-82.49016563,297
175,182902ZZZ000005430400A,10225021,KINDRED HOSPITAL - CENTRAL TAMPA,4801 N HOWARD AVE,TAMPA,33603,HILLSBOROUGH,813-874-7575,HOSPITALS - ACUTE CARE,VENTAS REALTY LP,PRIVATE,PRIVATE,KINDRED EAST REGION OFFICE,INVESTOR-OWNED,0,102,FL000141,EFHM,100143, , , , , , , , , , ,HTTP://WWW.KINDREDCENTRALTAMPA.COM/,1971,GEOPLAN,FDEM, ,27.98930284,-82.48157245,17RLL5430596902,272,9.83265744,KINDRED HOSPITAL - CENTRAL TAMPA,V,2011-05-10,2017-09-06,298,27.98930284,-82.48157245,298
176,28 373400  754,N/A,PALM BAY HOSPITAL,1425 MALABAR RD NE,PALM BAY,32907,BREVARD,321-434-8000,HOSPITALS - ACUTE CARE,BREVARD HEALTH SERVICES INC,PRIVATE,PRIVATE,"HEALTH FIRST, INC.",NOT-FOR-PROFIT,0,152,N/A,EFHL,120007, , , ,OPTICAL FIBER,GREATER THAN 1 GBPS,10 MBPS TO 25 MBPS,OPTICAL FIBER,GREATER THAN 1 GBPS,GREATER THAN 1 GBPS,3,HTTP://WWW.HEALTH-FIRST.ORG/HOSPITALS_SERVICES/PBCH/,1992,GEOPLAN,FHA, ,27.99990481,-80.61166433,17RNL3818297253,273,49.50622241,PALM BAY HOSPITAL,V,2011-05-10,2017-09-06,299,27.99990481,-80.61166433,299
177,172835ZZZ000000414000U,10224961,TAMPA COMMUNITY HOSPITAL - FORMERLY TOWN AND COUNTRY HOSPITAL,6001 WEBB RD,TAMPA,33615,HILLSBOROUGH,813-888-7060,HOSPITALS - ACUTE CARE,WEST FLORIDA TCH LLC,PRIVATE,PRIVATE,IASIS HEALTHCARE,INVESTOR-OWNED,0,201,FL000099,EFHL,100255, , , , , , , , , , ,HTTP://WWW.TOWNANDCOUNTRYHOSPITAL.COM/,1980,GEOPLAN,FDEM,TAMPA COMMUNITY HOSPITAL,28.00244301,-82.57389578,17RLL4524398471,274,60.28752618,TAMPA COMMUNITY HOSPITAL - FORMERLY TOWN AND COUNTRY HOSPITAL,V,2016-05-17,2017-09-06,300,28.00244301,-82.57389578,300
178,262833000000033050,N/A,WINTER HAVEN WOMEN'S HOSPITAL,101 AVENUE O SE,WINTER HAVEN,33880,POLK,863-294-7010,HOSPITALS - ACUTE CARE,WINTER HAVEN HOSPITAL INC,PRIVATE,PRIVATE,MID-FLORIDA MEDICAL SERVICES,NOT-FOR-PROFIT,0,61,N/A,EFHM,120010, , , , , , , , , , ,HTTP://WWW.WINTERHAVENHOSPITAL.ORG/,1983,GEOPLAN,FHA,WINTER HAVEN WOMEN'S HOSPITAL,28.00869845,-81.72617872,17RML2860598378,275,8.50466661,WINTER HAVEN WOMEN'S HOSPITAL,V,2016-05-17,2017-09-06,301,28.00869845,-81.72617872,301
179,15 28 27 00000 440 0300,10225052,MEASE DUNEDIN HOSPITAL,601 MAIN ST,DUNEDIN,34698,PINELLAS,727-733-1111,HOSPITALS - ACUTE CARE,MEASE HOSPITAL INC,PRIVATE,PRIVATE,BAYCARE - MORTON PLANT MEASE HEALTH CARE,NOT-FOR-PROFIT,0,120,FL000172,EFHM,100043, , , ,OPTICAL FIBER,50 MBPS TO 100 MBPS,10 MBPS TO 25 MBPS,OPTICAL FIBER,50 MBPS TO 100 MBPS,50 MBPS TO 100 MBPS,3,HTTP://WWW.MEASEHOSPITALS.COM/BODY.CFM?ID=825,1959,GEOPLAN,FDEM, ,28.01318524,-82.78324655,17RLL2467299945,276,35.63627246,MEASE DUNEDIN HOSPITAL,V,2016-05-17,2017-09-06,302,28.01318524,-82.78324655,302
180,18282816E000003000040U,10225093,FLORIDA HOSITAL CARROLLWOOD,7171 N DALE MABRY HWY,TAMPA,33614,HILLSBOROUGH,813-932-2222,HOSPITALS - ACUTE CARE,UNIVERSITY COMMUNITY HOSPITAL,PRIVATE,PRIVATE,ADVENTIST HEALTH SYSTEM,NOT-FOR-PROFIT,0,120,FL000244,EFHM,100069, , , , , , , , , , ,HTTP://WWW.UCHCARROLLWOOD.ORG,2010,GEOPLAN,FDEM,FLORIDA HOSPITAL CARROLLWOOD,28.01362435,-82.50386439,17RLL5214599623,277,17.52736806,FLORIDA HOSITAL CARROLLWOOD,V,2016-05-17,2017-09-06,303,28.01362435,-82.50386439,303
181,2228305DI000001000070P,10224950,SOUTH FLORIDA BAPTIST HOSPITAL,301 N ALEXANDER ST,PLANT CITY,33563,HILLSBOROUGH,813-757-1200,HOSPITALS - ACUTE CARE,SOUTH FLA BAPTIST HOSPITAL,PRIVATE,PRIVATE,BAYCARE - ST. JOSEPH'S-BAPTIST HEALTH CAR,NOT-FOR-PROFIT,0,147,FL000088,EFHM,100132, , , ,OPTICAL FIBER,50 MBPS TO 100 MBPS,10 MBPS TO 25 MBPS,OPTICAL FIBER,50 MBPS TO 100 MBPS,50 MBPS TO 100 MBPS,3,HTTP://WWW.SJBHEALTH.ORG/,1986,GEOPLAN,FDEM, ,28.01556234,-82.13847126,17RLL8807599449,278,13.18469223,SOUTH FLORIDA BAPTIST HOSPITAL,V,2011-05-10,2017-09-06,304,28.01556234,-82.13847126,304
182,262821583000000010,10225032,WINTER HAVEN HOSPITAL,200 AVE F NE,WINTER HAVEN,33881,POLK,863-293-1121,HOSPITALS - ACUTE CARE,WINTER HAVEN HOSPITAL,PRIVATE,PRIVATE,MID-FLORIDA MEDICAL SERVICES,NOT-FOR-PROFIT,0,529,FL000152,EFHL,100052, , , ,DON'T KNOW,DON'T KNOW,DON'T KNOW,DON'T KNOW,DON'T KNOW,DON'T KNOW,4,HTTP://WWW.WINTERHAVENHOSPITAL.ORG/,1972,GEOPLAN,FDEM, ,28.02766505,-81.72591833,17RMM2864300479,279,28.74384414,WINTER HAVEN HOSPITAL,V,2016-05-17,2017-09-06,305,28.02766505,-81.72591833,305
183,16 28 21 00000 210 0400,10225050,MEASE COUNTRYSIDE HOSPITAL,3231 MCMULLEN BOOTH RD,SAFETY HARBOR,34695,PINELLAS,727-725-6111,HOSPITALS - ACUTE CARE,MEASE HOSPITAL INC,PRIVATE,PRIVATE,BAYCARE - MORTON PLANT MEASE HEALTH CARE,NOT-FOR-PROFIT,0,311,FL000170,EFHL,110001, , , ,OPTICAL FIBER,50 MBPS TO 100 MBPS,10 MBPS TO 25 MBPS,OPTICAL FIBER,50 MBPS TO 100 MBPS,50 MBPS TO 100 MBPS,3,HTTP://WWW.MEASEHOSPITALS.COM/BODY.CFM?ID=824,1985,GEOPLAN,FDEM, ,28.0385638,-82.70785926,17RLM3212502651,280,60.65206931,MEASE COUNTRYSIDE HOSPITAL,V,2016-05-17,2017-09-06,306,28.0385638,-82.70785926,306
184,28 371500  253,10224914,HEALTHSOUTH SEA PINES REHABILITATION HOSPITAL,101 E FLORIDA AVE,MELBOURNE,32901,BREVARD,321-984-4600,HOSPITALS - REHABILITATION,HOLMES REGIONAL MEDICAL CENTER,PRIVATE,PRIVATE,HEALTHSOUTH CORPORATION,INVESTOR-OWNED,0,90,FL000052,EFHM,110027, , , , , , , , , , ,HTTP://WWW.HEALTHSOUTHSEAPINES.COM/,1986,GEOPLAN,FDEM,HEALTHSOUTH SEA PINES REHABILITATION HOSPITAL,28.05577991,-80.62018024,17RNM3732603440,281,11.50955871,HEALTHSOUTH SEA PINES REHABILITATION HOSPITAL,V,2016-05-17,2017-09-06,307,28.05577991,-80.62018024,307
185,192808ZZZ000001300400U,N/A,NORTHSIDE MENTAL HEALTH,12512 BRUCE B DOWNS BLVD,TAMPA,33612,HILLSBOROUGH,813-977-8700,HOSPITALS - PSYCHIATRIC,NORTHSIDE MENTAL HEALTH CENTER,PRIVATE,PRIVATE,NORTHSIDE MENTAL HEALTH HOSPIT,NOT-FOR-PROFIT,20,16,N/A,EFHS,N/A, , , , , , , , , , ,HTTP://WWW.NORTHSIDEMHC.ORG/,1993,GEOPLAN,FDOH, ,28.06149464,-82.42790378,17RLM5967704837,282,4.05702751,NORTHSIDE MENTAL HEALTH,V,2012-11-19,2017-09-06,308,28.06149464,-82.42790378,308
186,1928081HK000000000010A,10224960,SHRINERS HOSPITALS FOR CHILDREN-TAMPA,12502 PINE DR,TAMPA,33612,HILLSBOROUGH,813-972-2250,HOSPITALS - CHILDREN/ACUTE CARE,STATE OF FLORIDA,STATE,PUBLIC,SHRINERS HOSPITALS FOR CHILDREN-HEADQUART,NOT-FOR-PROFIT,0,60,FL000098,EFHM,110012, , , , , , , , , , ,HTTP://WWW.SHRINERSHOSPITALSFORCHILDREN.ORG/,1977,GEOPLAN,FDEM, ,28.06165337,-82.422691,17RLM6018904849,283,14.20560455,SHRINERS HOSPITALS FOR CHILDREN-TAMPA,V,2011-05-10,2017-09-06,309,28.06165337,-82.422691,309
187,292213278001000,10224933,FLORIDA HOSPITAL ORLANDO,601 E ROLLINS ST,ORLANDO,32803,ORANGE,407-303-6611,HOSPITALS - ACUTE CARE,ADVENTIST HEALTH SYSTEM/SUNBEL,PRIVATE,PRIVATE,ADVENTIST HEALTH SYSTEM,NOT-FOR-PROFIT,0,1289,FL000071,EFHL,100007, , , , , , , , , ,3,HTTP://WWW.FLORIDAHOSPITAL.COM/,2008,GEOPLAN,FDEM, ,28.57556326,-81.3695686,17RMM6385861019,284,71.60279759,FLORIDA HOSPITAL ORLANDO,V,2016-05-17,2017-09-06,310,28.57556326,-81.3695686,310
188,312211124320010,10225018,UNIVERSITY BEHAVIORAL CENTER,2500 DISCOVERY DR,ORLANDO,32826,ORANGE,407-281-7000,HOSPITALS - PSYCHIATRIC,UNIVERSITY BEHAVIORAL LLC,PRIVATE,PRIVATE,UNIVERSAL HEALTH SERVICES INC,INVESTOR-OWNED,0,112,FL000138,EFHM,110047, , , , , , , , , , ,HTTP://WWW.UNIVERSITYBEHAVIORAL.COM/,1988,GEOPLAN,FDEM, ,28.58183079,-81.19230043,17RMM8119561673,285,12.58014508,UNIVERSITY BEHAVIORAL CENTER,V,2011-05-10,2017-09-06,311,28.58183079,-81.19230043,311
189,292203522801041,N/A,LAKESIDE BEHAVIORAL HEALTHCARE - RESIDENTIAL PLAZA,4524 THISTLEDOWN DR,ORLANDO,32804,ORANGE,407-291-6335,HOSPITALS - PSYCHIATRIC,ASPIRE HEALTH PARTNERS INC,PRIVATE,PRIVATE,N/A,NOT-FOR-PROFIT,0,51,N/A,EFHM,N/A, , , , , , , , , , ,HTTP://WWW.LAKESIDECARES.ORG,1963,GEOPLAN,GEOPLAN,EXTENT NOT VERIFIED. MERGED INTO ASPIRE HEALTH,28.59916212,-81.40021016,17RMM6087063643,286,7.63040329,LAKESIDE BEHAVIORAL HEALTHCARE - RESIDENTIAL PLAZA,V,2011-05-10,2017-09-06,312,28.59916212,-81.40021016,312
190,302209012098011,10225011,FLORIDA HOSPITAL WINTER PARK MEMORIAL,200 N LAKEMONT AVE,WINTER PARK,32792,ORANGE,407-646-7000,HOSPITALS - ACUTE CARE,ADVENTIST HEALTH SYSTEM/SUNBEL,PRIVATE,PRIVATE,ADVENTIST HEALTH SYSTEM,NOT-FOR-PROFIT,0,320,FL000131,EFHL,100162, , , ,OPTICAL FIBER,100 MBPS TO 1 GBPS,10 MBPS TO 25 MBPS,OPTICAL FIBER,100 MBPS TO 1 GBPS,100 MBPS TO 1 GBPS,3,HTTP://WWW.WINTERPARKHOSPITAL.COM/,1965,GEOPLAN,FDEM,FLORIDA HOSPITAL WINTER PARK,28.59814179,-81.3267899,17RMM6804863508,287,22.29808738,FLORIDA HOSPITAL WINTER PARK MEMORIAL,V,2016-05-17,2017-09-06,313,28.59814179,-81.3267899,313
191,41-5N-29-0000-02100-0000,10224862,JAY HOSPITAL,14114 S ALABAMA ST,JAY,32565,SANTA ROSA,850-675-8000,HOSPITALS - ACUTE CARE,SANTA ROSA COUNTY,PRIVATE,PRIVATE,BAPTIST HEALTH CARE,NOT-FOR-PROFIT,0,49,FL000241,EFHS,100048,OPTICAL FIBER,100 MBPS TO 1 GBPS,100 MBPS TO 1 GBPS, , , , , , ,2,HTTP://WWW.BHCPNS.ORG/JAYHOSPITAL/,1961,GEOPLAN,FDEM, ,30.94985532,-87.15131599,16RDV8554724054,104,3.18368134,JAY HOSPITAL,V,2016-05-17,2017-09-06,168,30.94985532,-87.15131599,167
192,35-7N-13-0000-0700-0000,10224864,CAMPBELLTON GRACEVILLE HOSPITAL,5429 COLLEGE DR,GRACEVILLE,32440,JACKSON,850-263-4431,HOSPITALS - ACUTE CARE,CAMPBELLTON GRACEVILLE HOSP CO,PRIVATE,PRIVATE,N/A,PUBLIC/GOVERNMENT,0,25,FL000002,EFHS,100138,DSL SYMMETRIC,DON'T KNOW,DON'T KNOW,UNLICENSED TERRESTRIAL FIXED WIRELESS,DON'T KNOW,768 KBPS TO 1.5 KBPS,DSL SYMMETRIC,DON'T KNOW, ,2,HTTP://WWW.C-GHOSPITAL.COM/GETPAGE.PHP?NAME=SERVICES,1964,GEOPLAN,FDEM, ,30.9631545,-85.50683315,16RFV4260926475,106,5.57798642,CAMPBELLTON GRACEVILLE HOSPITAL,V,2011-05-10,2017-09-06,169,30.9631545,-85.50683315,168
193,16 31 30 18180 000 0300,10224969,PALMS OF PASADENA HOSPITAL,1501 PASADENA AVE S,ST PETERSBURG,33707,PINELLAS,727-381-1000,HOSPITALS - ACUTE CARE,WEST FLORIDA-P P H LLC,PRIVATE,PRIVATE,IASIS HEALTHCARE,INVESTOR-OWNED,0,307,FL000204,EFHL,100126, , , , , , , , , , ,HTTP://WWW.PALMSPASADENA.COM/,1974,GEOPLAN,FDEM, ,27.75297448,-82.73927822,17RLL2858671050,248,14.91353619,PALMS OF PASADENA HOSPITAL,V,2011-05-10,2017-09-06,170,27.75297448,-82.73927822,169
194,17 31 30 66690 000 0110,10225080,JOHNS HOPKINS ALL CHILDREN'S HOSPITAL,501 6TH AVE S,ST PETERSBURG,33701,PINELLAS,727-898-7451,HOSPITALS - CHILDREN/ACUTE CARE,ALL CHILDRENS HOSPITAL INC,PRIVATE,PRIVATE,ALL CHILDREN'S HEALTH SYSTEM,NOT-FOR-PROFIT,0,259,FL000200,EFHL,100250,OPTICAL FIBER,6 MBPS TO 10 MBPS,6 MBPS TO 10 MBPS, , , , , , ,2,HTTP://WWW.ALLKIDS.ORG/,2008,GEOPLAN,FDEM,JOHNS HOPKINS ALL CHILDREN'S HOSPITAL,27.76482886,-82.64076308,17RLL3831572230,249,33.81153698,JOHNS HOPKINS ALL CHILDREN'S HOSPITAL,V,2016-05-17,2017-09-06,171,27.76482886,-82.64076308,170
195,16 31 08 78382 001 0010,10224971,ST PETERSBURG GENERAL HOSPITAL,6500 38TH AVE N,ST PETERSBURG,33710,PINELLAS,727-384-1414,HOSPITALS - ACUTE CARE,GALEN OF FL INC,PRIVATE,PRIVATE,HCA WEST FLORIDA DIVISION,INVESTOR-OWNED,0,215,FL000206,EFHL,100180, , , ,DON'T KNOW,DON'T KNOW,DON'T KNOW,DON'T KNOW,DON'T KNOW,DON'T KNOW,4,HTTP://WWW.STPETEGENERAL.COM/,1969,GEOPLAN,FDEM, ,27.80541859,-82.7265594,17RLL2992276843,252,17.11201959,ST PETERSBURG GENERAL HOSPITAL,V,2016-05-17,2017-09-06,172,27.80541859,-82.7265594,171
196,15 31 02 00000 300 0000,10224995,BAY PINES VA HEALTHCARE SYSTEM,10000 BAY PINES BLVD,BAY PINES,33744,PINELLAS,727-398-6661,HOSPITALS - FEDERAL,UNITED STATES OF AMERICA,FEDERAL,PUBLIC,FEDERAL GOVERNMENT,PUBLIC,0,397,FL000115,EFHL,N/A, , , , , , , , , , ,HTTP://WWW.BAYPINES.VA.GOV/,2002,GEOPLAN,FDEM, ,27.81092005,-82.7786317,17RLL2480077526,253,36.29591073,BAY PINES VA HEALTHCARE SYSTEM,V,2016-05-17,2017-09-06,173,27.81092005,-82.7786317,172
197,16 30 33 69948 400 4501,10224968,NORTHSIDE HOSPITAL & HEART INSTITUTE,6000 49TH ST N,ST PETERSBURG,33709,PINELLAS,727-521-4411,HOSPITALS - ACUTE CARE,GALENCARE INC,PRIVATE,PRIVATE,HCA WEST FLORIDA DIVISION,INVESTOR-OWNED,0,288,FL000203,EFHL,100238, , , ,DON'T KNOW,DON'T KNOW,DON'T KNOW,DON'T KNOW,DON'T KNOW,DON'T KNOW,4,HTTP://WWW.NORTHSIDEHOSPITAL.COM/,1976,GEOPLAN,FDEM, ,27.82561102,-82.70199425,17RLL3237379047,254,30.21734926,NORTHSIDE HOSPITAL & HEART INSTITUTE,V,2011-05-10,2017-09-06,174,27.82561102,-82.70199425,173
198,30382500000002000006.1,10224974,SEBASTIAN RIVER MEDICAL CENTER,13695 US HWY 1,SEBASTIAN,32958,INDIAN RIVER,772-589-3186,HOSPITALS - ACUTE CARE,SEBASTIAN HOSPITAL INC,PRIVATE,PRIVATE,HEALTH MANAGEMENT ASSOCIATES,INVESTOR-OWNED,0,154,FL000209,EFHL,100217, , , , , , , , , , ,HTTP://WWW.SEBASTIANRIVERMEDICAL.COM,1984,GEOPLAN,FDEM, ,27.84357204,-80.48899841,17RNL5031679979,255,30.01381514,SEBASTIAN RIVER MEDICAL CENTER,V,2016-05-17,2017-09-06,175,27.84357204,-80.48899841,174
199,183020ZZZ000005565000A,N/A,6TH MEDICAL GROUP - US AIR FORCE HOSPITAL,8415 BAYSHORE BLVD,MACDILL AFB,33621,HILLSBOROUGH,813-827-9900,HOSPITALS - FEDERAL,UNITED STATES OF AMERICA,FEDERAL,PUBLIC,FEDERAL GOVERNMENT,PUBLIC,0,65,N/A,EFHM,N/A, , , , , , , , , , ,HTTP://WWW.MACDILL.AF.MIL/UNITS/INDEX.ASP,1980,GEOPLAN,FHA, ,27.84326302,-82.47131264,17RLL5511980709,256,36.30271399,6TH MEDICAL GROUP - US AIR FORCE HOSPITAL,V,2011-04-11,2017-09-06,176,27.84326302,-82.47131264,175
200,16 30 16 69732 200 2401,10225041,WINDMOOR HEALTHCARE OF CLEARWATER,11300 US HWY 19 N,CLEARWATER,33764,PINELLAS,727-541-2646,HOSPITALS - PSYCHIATRIC,WINDMOOR HEALTHCARE PIN PK INC,PRIVATE,PRIVATE,UNIVERSAL HEALTH SERVICES INC,INVESTOR-OWNED,0,144,FL000161,EFHM,104017, , , , , , , , , , ,HTTP://WWW.WINDMOOR.COM/,1975,GEOPLAN,FDEM, ,27.87483154,-82.71081211,17RLL3158084513,257,9.3422044,WINDMOOR HEALTHCARE OF CLEARWATER,V,2016-05-17,2017-09-06,177,27.87483154,-82.71081211,176
201,273001000000022010,N/A,LAKE WALES MEDICAL CENTERS,410 S 11TH ST,LAKE WALES,33853,POLK,863-676-1433,HOSPITALS - ACUTE CARE,LAKE WALES HOSPITAL CORPORATIO,PRIVATE,PRIVATE,COMMUNITY HEALTH SYSTEMS,INVESTOR-OWNED,0,160,N/A,EFHL,100099, , , , , , , , , , ,HTTP://WWW.LAKEWALESMEDICALCENTER.COM,1994,GEOPLAN,FHA, ,27.89600889,-81.5653205,17RML4436285811,258,10.36623596,LAKE WALES MEDICAL CENTERS,V,2011-05-10,2017-09-06,178,27.89600889,-81.5653205,177
202,183005ZZZ000005527500A,10225094,KINDRED HOSPITAL BAY AREA - TAMPA,4555 S MANHATTAN AVE,TAMPA,33611,HILLSBOROUGH,813-839-6341,HOSPITALS - ACUTE CARE,KND REAL ESTATE 32 LLC,PRIVATE,PRIVATE,KINDRED EAST REGION OFFICE,INVESTOR-OWNED,0,73,FL000245,EFHM,100115, , , , , , , , , , ,HTTP://WWW.KHTAMPA.COM/,1963,GEOPLAN,FDEM, ,27.89782496,-82.51876705,17RLL5052086811,259,2.97324348,KINDRED HOSPITAL BAY AREA - TAMPA,V,2011-05-10,2017-09-06,179,27.89782496,-82.51876705,178
203,15 30 05 86376 000 0010,10224894,LARGO MEDICAL CENTER - INDIAN ROCKS CAMPUS,2025 INDIAN ROCKS RD,LARGO,33774,PINELLAS,727-581-9474,HOSPITALS - ACUTE CARE,LARGO MEDICAL CENTER INC,PRIVATE,PRIVATE,HCA WEST FLORIDA DIVISION,INVESTOR-OWNED,0,169,FL000032,EFHL,100015, , , , , , , , , , ,HTTP://LARGOMEDICAL.COM/ABOUT/INDIAN-ROCKS-CAMPUS.DOT,1972,GEOPLAN,FDEM, ,27.89839455,-82.82515976,17RLL2036087286,260,15.66785275,LARGO MEDICAL CENTER - INDIAN ROCKS CAMPUS,V,2016-05-17,2017-09-06,180,27.89839455,-82.82515976,179
204,252931000000011030,10224989,BARTOW REGIONAL MEDICAL CENTER,2200 OSPREY BLVD,BARTOW,33830,POLK,863-533-8111,HOSPITALS - ACUTE CARE,BARTOW HMA INC,PRIVATE,PRIVATE,HEALTH MANAGEMENT ASSOCIATES,INVESTOR-OWNED,0,72,FL000109,EFHM,100121, , , , , , , , , , ,HTTP://WWW.BARTOWREGIONAL.COM/DEFAULT.ASPX,1999,GEOPLAN,FDEM,BARTOW REGIONAL MEDICAL CENTER,27.9184719,-81.84406579,17RML1694588458,261,34.95778069,BARTOW REGIONAL MEDICAL CENTER,V,2016-05-17,2017-09-06,181,27.9184719,-81.84406579,180
205,15 29 33 50250 000 0010,10224896,LARGO MEDICAL CENTER,201 14TH ST SW,LARGO,33770,PINELLAS,727-588-5200,HOSPITALS - ACUTE CARE,LARGO MEDICAL CENTER INC,PRIVATE,PRIVATE,HCA WEST FLORIDA DIVISION,INVESTOR-OWNED,0,256,FL000034,EFHL,100248, , , , , , , , , , ,HTTP://LARGOMEDICAL.COM/HOME/INDEX.DOT,1976,GEOPLAN,FDEM, ,27.91432394,-82.80384103,17RLL2248589020,262,20.42348383,LARGO MEDICAL CENTER,V,2012-11-19,2017-09-06,182,27.91432394,-82.80384103,181
206,15 29 28 37989 001 0010,10224992,HEALTHSOUTH REHABILITATION HOSPITAL OF LARGO,901 N CLEARWATER LARGO RD,LARGO,33770,PINELLAS,727-586-2999,HOSPITALS - REHABILITATION,S C A-DALTON INC,PRIVATE,PRIVATE,HEALTHSOUTH CORPORATION,INVESTOR-OWNED,0,70,FL000112,EFHM,110045, , , , , , , , , , ,HTTP://WWW.HEALTHSOUTHLARGO.COM/,1988,GEOPLAN,FDEM, ,27.92547929,-82.79687382,17RLL2318990246,263,4.66516729,HEALTHSOUTH REHABILITATION HOSPITAL OF LARGO,V,2011-05-10,2017-09-06,183,27.92547929,-82.79687382,182
207,202927ZZZ000002652300U,10225026,BRANDON REGIONAL HOSPITAL,119 OAKFIELD DR,BRANDON,33511,HILLSBOROUGH,813-681-5551,HOSPITALS - ACUTE CARE,GALENCARE INC,PRIVATE,PRIVATE,HCA WEST FLORIDA DIVISION,INVESTOR-OWNED,0,422,FL000146,EFHL,100243, , , ,DON'T KNOW,DON'T KNOW,DON'T KNOW,DON'T KNOW,DON'T KNOW,DON'T KNOW,4,HTTP://WWW.BRANDONHOSPITAL.COM/,2003,GEOPLAN,FDEM, ,27.93311918,-82.28728595,17RLL7334790460,264,18.23102453,BRANDON REGIONAL HOSPITAL,V,2016-05-17,2017-09-06,184,27.93311918,-82.28728595,183
208,1829223MUJ00000000010A,10224959,MEMORIAL HOSPITAL OF TAMPA,2901 SWANN AVE,TAMPA,33609,HILLSBOROUGH,813-873-6400,HOSPITALS - ACUTE CARE,WEST FLORIDA MHT LLC,PRIVATE,PRIVATE,IASIS HEALTHCARE,INVESTOR-OWNED,0,183,FL000097,EFHL,100206, , , , , , , , , , ,HTTP://WWW.MEMORIALHOSPITALTAMPA.COM/,1963,GEOPLAN,FDEM, ,27.93780589,-82.49004644,17RLL5340291206,265,15.87181383,MEMORIAL HOSPITAL OF TAMPA,V,2016-05-17,2017-09-06,185,27.93780589,-82.49004644,184
209,182924509000000000001A,10224957,TAMPA GENERAL HOSPITAL,1 TAMPA GENERAL CIRCLE,TAMPA,33606,HILLSBOROUGH,813-844-7041,HOSPITALS - ACUTE CARE,HILLSBOROUGH COUNTY HOSPITAL A,PRIVATE,PRIVATE,FLORIDA HEALTH SCIENCES CENTER,NOT-FOR-PROFIT,0,1011,FL000095,EFHL,100128, , , ,OTHER COPPER WIRELINE,100 MBPS TO 1 GBPS,1.5 MBPS TO 3 MBPS,OTHER COPPER WIRELINE,100 MBPS TO 1 GBPS,100 MBPS TO 1 GBPS,3,HTTP://WWW.TGH.ORG/,1927,GEOPLAN,FDEM, ,27.93785187,-82.45919765,17RLL5643791175,266,24.45686914,TAMPA GENERAL HOSPITAL,V,2016-05-17,2017-09-06,186,27.93785187,-82.45919765,185
210,15 29 21 00000 120 1500,10225037,MORTON PLANT HOSPITAL,300 PINELLAS ST,CLEARWATER,33756,PINELLAS,727-462-7000,HOSPITALS - ACUTE CARE,MORTON PLANT HOSP ASSN INC,PRIVATE,PRIVATE,BAYCARE - MORTON PLANT MEASE HEALTH CARE,NOT-FOR-PROFIT,0,687,FL000157,EFHL,100127, , , ,OPTICAL FIBER,50 MBPS TO 100 MBPS,10 MBPS TO 25 MBPS,OPTICAL FIBER,50 MBPS TO 100 MBPS,50 MBPS TO 100 MBPS,3,HTTP://WWW.MORTONPLANT.COM/BODY.CFM?ID=421,1941,GEOPLAN,FDEM, ,27.95266201,-82.80364255,17RLL2256793268,267,47.3791863,MORTON PLANT HOSPITAL,V,2012-11-19,2017-09-06,187,27.95266201,-82.80364255,186
211,15 29 21 00000 120 1800,N/A,MADONNA PTAK MORTON PLANT REHABILITATION CENTER,400 CORBETT ST,BELLEAIR,33756,PINELLAS,727-462-7600,HOSPITALS - REHABILITATION,MORTON PLANT HOSP ASSN INC,PRIVATE,PRIVATE,N/A,NOT-FOR-PROFIT,0,129,N/A,EFHM,N/A, , , , , , , , , , ,HTTP://WWW.MORTONPLANT.COM/BODY.CFM?ID=631,1992,GEOPLAN,GEOPLAN, ,27.95037198,-82.80085729,17RLL2283893010,268,7.02488037,MADONNA PTAK MORTON PLANT REHABILITATION CENTER,V,2012-11-19,2017-09-06,188,27.95037198,-82.80085729,187
212,1829103IY000000000090A,N/A,ST JOSEPH'S WOMEN'S HOSPITAL,3030 W DR ML KING JR BLVD,TAMPA,33607,HILLSBOROUGH,813-879-4730,HOSPITALS - ACUTE CARE,ST JOSEPH'S HOSPITAL INC,PRIVATE,PRIVATE,BAYCARE - ST. JOSEPH'S-BAPTIST HEALTH CAR,NOT-FOR-PROFIT,0,157,N/A,EFHL,100075, , , ,OPTICAL FIBER,50 MBPS TO 100 MBPS,10 MBPS TO 25 MBPS,OPTICAL FIBER,50 MBPS TO 100 MBPS,50 MBPS TO 100 MBPS,3,HTTP://WWW.SJBHEALTH.ORG/,1974,GEOPLAN,FHA,OVERARCHING ENTITY IS ST. JOSEPH'S HOPSITAL,27.97995521,-82.49231953,17RLL5323595879,269,7.48016429,ST JOSEPH'S WOMEN'S HOSPITAL,V,2016-05-17,2017-09-06,189,27.97995521,-82.49231953,188
213,3059050290040,N/A,WEST KENDALL BAPTIST HOSPITAL,9555 SW 162ND AVE,MIAMI,33196,MIAMI-DADE,786-467-2000,HOSPITALS - ACUTE CARE,WEST KENDALL BAPTIST HOSPITAL,PRIVATE,PRIVATE,BAPTIST HEALTH SOUTH FLORIDA,NOT-FOR-PROFIT,0,133,N/A,EFHM,N/A, , , , , , , , , , ,HTTP://WWW.BAPTISTHEALTH.NET/EN/FACILITIES/PAGES/DEFAULT.ASPX,2011,GEOPLAN,FHA, ,25.67775101,-80.45622836,17RNJ5456840110,308,37.1704196,WEST KENDALL BAPTIST HOSPITAL,V,2011-05-10,2017-09-06,190,25.67775101,-80.45622836,189
214,242807000000043020,10224892,LAKELAND REGIONAL MEDICAL CENTER,1324 LAKELAND HILLS BLVD,LAKELAND,33805,POLK,863-687-1100,HOSPITALS - ACUTE CARE,CITY OF LAKELAND,MUNICIPAL,PUBLIC,LAKELAND REGIONAL MEDICAL CENT,NOT-FOR-PROFIT,0,849,FL000030,EFHL,100157,CABLE MODEM,DON'T KNOW,DON'T KNOW, , , , , , ,2,HTTP://WWW.LRMC.COM,1993,GEOPLAN,FDEM, ,28.06135873,-81.95435852,17RMM0621604367,309,49.42753131,LAKELAND REGIONAL MEDICAL CENTER,V,2016-05-17,2017-09-06,191,28.06135873,-81.95435852,190
215,192808ZZZ000001300000U,10224965,JAMES A HALEY VETERANS HOSPITAL,13000 BRUCE B DOWNS BLVD,TAMPA,33612,HILLSBOROUGH,813-972-2000,HOSPITALS - FEDERAL,UNITED STATES OF AMERICA,FEDERAL,PUBLIC,FEDERAL GOVERNMENT,PUBLIC,0,353,FL000103,EFHL,N/A, , , , , , , , , , ,HTTP://WWW.TAMPA.VA.GOV/,1972,GEOPLAN,FDEM, ,28.06441519,-82.42770197,17RLM5970005160,310,48.73940724,JAMES A HALEY VETERANS HOSPITAL,V,2011-05-10,2017-09-06,192,28.06441519,-82.42770197,191
216,NONE,10224958,H LEE MOFFITT CANCER CENTER,12902 MAGNOLIA DR,TAMPA,33612,HILLSBOROUGH,813-745-4673,HOSPITALS - ACUTE CARE,STATE OF FLORIDA,STATE,PUBLIC,H. LEE MOFFITT CANCER CENTER,NOT-FOR-PROFIT,0,206,FL000096,EFHL,110009, , , ,OPTICAL FIBER,100 MBPS TO 1 GBPS,1.5 MBPS TO 3 MBPS,OTHER COPPER WIRELINE,50 MBPS TO 100 MBPS,50 MBPS TO 100 MBPS,4,HTTP://WWW.MOFFITT.ORG/,0,GEOPLAN,FDEM,EXTENT NOT CLEAR & NO PARCEL,28.06405541,-82.42134059,17RLM6032505113,311,24.94375401,H LEE MOFFITT CANCER CENTER,V,2012-11-19,2017-09-06,193,28.06405541,-82.42134059,192
217,192805ZZZ000001267500U,10224963,FLORIDA HOSPITAL TAMPA - FORMERLY UNIVERSITY COMMUNITY HOSPITAL,3100 E FLETCHER AVE,TAMPA,33613,HILLSBOROUGH,813-971-6000,HOSPITALS - ACUTE CARE,UNIVERSITY COMMUNITY HOSP INC,PRIVATE,PRIVATE,ADVENTIST HEALTH SYSTEM,NOT-FOR-PROFIT,0,493,FL000101,EFHL,100173, , , , , , , , , , ,HTTP://WWW.UCH.ORG/,1988,GEOPLAN,FDEM,FLORIDA HOSPITAL TAMPA,28.06997225,-82.42328231,17RLM6014205771,312,58.14031933,FLORIDA HOSPITAL TAMPA - FORMERLY UNIVERSITY COMMUNITY HOSPITAL,V,2016-05-17,2017-09-06,194,28.06997225,-82.42328231,193
218,27 373451       392,10224906,HOLMES REGIONAL MEDICAL CENTER,1350 S HICKORY ST,MELBOURNE,32901,BREVARD,321-434-7000,HOSPITALS - ACUTE CARE,HOLMES REGIONAL MEDICAL CENTER,PRIVATE,PRIVATE,"HEALTH FIRST, INC.",NOT-FOR-PROFIT,0,514,FL000044,EFHL,100019, , , ,OPTICAL FIBER,GREATER THAN 1 GBPS,10 MBPS TO 25 MBPS,OPTICAL FIBER,GREATER THAN 1 GBPS,GREATER THAN 1 GBPS,3,HTTP://WWW.HEALTH-FIRST.ORG/HOSPITALS_SERVICES/HRMC/,1963,GEOPLAN,FDEM, ,28.08776179,-80.61434248,17RNM3788806984,313,53.06891299,HOLMES REGIONAL MEDICAL CENTER,V,2011-05-10,2017-09-06,195,28.08776179,-80.61434248,194
219,27 373400  508,10224908,CIRCLES OF CARE (SHERIDAN OAKS) PSYCHIATRIC HOSPITAL,400 E SHERIDAN RD,MELBOURNE,32901,BREVARD,321-722-5200,HOSPITALS - PSYCHIATRIC,CIRCLES OF CARE INC,PRIVATE,PRIVATE,N/A,NOT-FOR-PROFIT,0,52,FL000046,EFHM,104024, , , , , , , , , , ,HTTP://WWW.CIRCLESOFCARE.ORG,1981,GEOPLAN,FDEM, ,28.08943508,-80.6157542,17RNM3774907169,314,4.0614531,CIRCLES OF CARE (SHERIDAN OAKS) PSYCHIATRIC HOSPITAL,V,2011-05-10,2017-09-06,196,28.08943508,-80.6157542,195
220,27 362500   13,N/A,WUESTHOFF MEDICAL CENTER - MELBOURNE,250 N WICKHAM RD,MELBOURNE,32935,BREVARD,321-752-1200,HOSPITALS - ACUTE CARE,MELBOURNE HMA LLC,PRIVATE,PRIVATE,HEALTH MANAGEMENT ASSOCIATES,INVESTOR-OWNED,0,119,N/A,EFHM,23960034, , , ,OTHER COPPER WIRELINE,25 MBPS TO 50 MBPS,1.5 MBPS TO 3 MBPS,OTHER COPPER WIRELINE,10 MBPS TO 25 MBPS,10 MBPS TO 25 MBPS,3,HTTP://WWW.WUESTHOFF.ORG/,2002,GEOPLAN,FHA, ,28.10948456,-80.67496394,17RNM3192609373,315,21.19271414,WUESTHOFF MEDICAL CENTER - MELBOURNE,V,2016-05-17,2017-09-06,197,28.10948456,-80.67496394,196
221,15 27 13 00000 340 0100,10224964,FLORIDA HOSPITAL NORTH PINELLAS - FORMERLY HELEN ELLIS MEMORIAL HOSPITAL,1395 S PINELLAS AVE,TARPON SPRINGS,34689,PINELLAS,727-942-5000,HOSPITALS - ACUTE CARE,CITY OF TARPON SPRINGS,MUNICIPAL,PUBLIC,ADVENTIST HEALTH SYSTEM,NOT-FOR-PROFIT,0,168,FL000102,EFHL,100055, , , ,DSL SYMMETRIC,100 MBPS TO 1 GBPS,768 KBPS TO 1.5 KBPS,DSL SYMMETRIC,100 MBPS TO 1 GBPS,100 MBPS TO 1 GBPS,3,HTTP://WWW.HELENELLIS.ORG/,1994,GEOPLAN,FDEM,FLORIDA HOSPITAL NORTH PINELLAS,28.13298353,-82.75740081,17RLM2740513182,316,15.08910049,FLORIDA HOSPITAL NORTH PINELLAS - FORMERLY HELEN ELLIS MEMORIAL HOSPITAL,V,2016-05-17,2017-09-06,198,28.13298353,-82.75740081,197
222,272631708500010210,10224867,HEART OF FLORIDA REGIONAL MEDICAL CENTER,40100 US HWY 27 N,DAVENPORT,33837,POLK,863-422-4971,HOSPITALS - ACUTE CARE,HEALTH MANAGEMENT ASSOCIATES,PRIVATE,PRIVATE,HEALTH MANAGEMENT ASSOCIATES,INVESTOR-OWNED,0,193,FL000005,EFHL,100137, , , , , , , , , , ,HTTP://WWW.HEARTOFFLORIDA.COM/,1997,GEOPLAN,FDEM, ,28.18149683,-81.64127229,17RMM3705417474,317,55.01812547,HEART OF FLORIDA REGIONAL MEDICAL CENTER,V,2016-05-17,2017-09-06,199,28.18149683,-81.64127229,198
223,26 372300    1,N/A,45TH MEDICAL GROUP - US AIR FORCE HOSPITAL,1381 S PATRICK DR,PATRICK AFB,32925,BREVARD,321-494-8241,HOSPITALS - FEDERAL,PATRICK AIR FORCE BASE,FEDERAL,PUBLIC,FEDERAL GOVERNMENT,PUBLIC,0,0,N/A,EFHS,N/A, , , , , , , , , , ,HTTP://WWW.PATRICK.AF.MIL/LIBRARY/FACTSHEETS/FACTSHEET.ASP?ID=4491,0,GEOPLAN,FHA, ,28.21438173,-80.60463913,17RNM3879621014,318,25.1619342,45TH MEDICAL GROUP - US AIR FORCE HOSPITAL,V,2011-04-11,2017-09-06,200,28.21438173,-80.60463913,199
224,26 361000  751,10224915,DEVEREUX FLORIDA,8000 DEVEREUX DR,VIERA,32940,BREVARD,321-242-9100,HOSPITALS - PSYCHIATRIC,"DEVEREUX FOUNDATION, THE",PRIVATE,PRIVATE,N/A,NOT-FOR-PROFIT,0,100,FL000053,EFHM,110036, , , , , , , , , , ,HTTP://WWW.DEVEREUX.ORG/,1988,GEOPLAN,FDEM, ,28.23387368,-80.70780848,17RNM2866723145,319,50.08031785,DEVEREUX FLORIDA,V,2011-05-10,2017-09-06,201,28.23387368,-80.70780848,200
225,1626080260001000080,10225088,MEDICAL CENTER OF TRINITY BEHAVIORAL CENTER - FORMERLY COMMUNITY HOSPITAL OF NEW PORT RICHEY,5637 MARINE PKWY,NEW PORT RICHEY,34652,PASCO,727-848-1733,HOSPITALS - ACUTE CARE,NEW PORT RICHEY HOSPITAL INC,PRIVATE,PRIVATE,HCA WEST FLORIDA DIVISION,INVESTOR-OWNED,0,389,FL000238,EFHL,100191, , , ,DON'T KNOW,DON'T KNOW,DON'T KNOW,DON'T KNOW,DON'T KNOW, ,4,HTTP://WWW.COMMUNITYHOSPITALNPR.COM/,1971,GEOPLAN,FDEM,MEDICAL CENTER OF TRINITY BEHAVIORAL CENTER,28.23568243,-82.72117435,17RLM3112524511,320,17.6034939,MEDICAL CENTER OF TRINITY BEHAVIORAL CENTER - FORMERLY COMMUNITY HOSPITAL OF NEW PORT RICHEY,V,2016-05-17,2017-09-06,202,28.23568243,-82.72117435,201
226,10263000U000220000,10225079,ST CLOUD REGIONAL MEDICAL CENTER,2906 17TH ST,ST CLOUD,34769,OSCEOLA,407-892-2135,HOSPITALS - ACUTE CARE,OSCEOLASC LLC,PRIVATE,PRIVATE,HEALTH MANAGEMENT ASSOCIATES,INVESTOR-OWNED,0,84,FL000199,EFHM,100074, , , ,OTHER COPPER WIRELINE,50 MBPS TO 100 MBPS,6 MBPS TO 10 MBPS,CABLE MODEM,3 MBPS TO 6 MBPS,10 MBPS TO 25 MBPS,3,HTTP://WWW.STCLOUDREGIONAL.COM,1962,GEOPLAN,FDEM, ,28.24341959,-81.30279512,17RMM7029624205,321,20.78524529,ST CLOUD REGIONAL MEDICAL CENTER,V,2011-05-10,2017-09-06,203,28.24341959,-81.30279512,202
227,1626040040000000360,10224928,MORTON PLANT NORTH BAY HOSPITAL,6600 MADISON ST,NEW PORT RICHEY,34652,PASCO,727-842-8468,HOSPITALS - ACUTE CARE,MORTON PLANT HOSPITAL,PRIVATE,PRIVATE,BAYCARE - MORTON PLANT MEASE HEALTH CARE,NOT-FOR-PROFIT,0,154,FL000066,EFHL,100063, , , ,OPTICAL FIBER,50 MBPS TO 100 MBPS,10 MBPS TO 25 MBPS,OPTICAL FIBER,50 MBPS TO 100 MBPS,50 MBPS TO 100 MBPS,3,HTTP://WWW.MORTONPLANT.COM/BODY.CFM?ID=13,1963,GEOPLAN,FDEM,MORTON PLANT NORTH BAY HOSPITAL,28.25400612,-82.71444773,17RLM3181426532,322,14.17285861,MORTON PLANT NORTH BAY HOSPITAL,V,2016-05-17,2017-09-06,204,28.25400612,-82.71444773,203
228,2125350010105000000,10225046,FLORIDA HOSPITAL ZEPHYRHILLS (EAST PASCO MEDICAL CENTER),7050 GALL BLVD,ZEPHYRHILLS,33541,PASCO,813-788-0411,HOSPITALS - ACUTE CARE,ADVENTIST HEALTH SYSTEM/,PRIVATE,PRIVATE,ADVENTIST HEALTH SYSTEM,NOT-FOR-PROFIT,0,140,FL000166,EFHM,100046, , , , , , , , , , ,HTTP://WWW.FHZEPH.ORG/,1985,GEOPLAN,FDEM, ,28.26125821,-82.18561716,17RLM8370526714,323,41.49166007,FLORIDA HOSPITAL ZEPHYRHILLS (EAST PASCO MEDICAL CENTER),V,2016-05-17,2017-09-06,205,28.26125821,-82.18561716,204
229,212529187400010010,10224886,OSCEOLA REGIONAL MEDICAL CENTER,700 W OAK ST,KISSIMMEE,34741,OSCEOLA,407-846-2266,HOSPITALS - ACUTE CARE,OSCEOLA REGIONAL HOSPITAL INC,PRIVATE,PRIVATE,HCA WEST FLORIDA DIVISION,INVESTOR-OWNED,0,318,FL000024,EFHL,100110, , , ,DON'T KNOW,DON'T KNOW,DON'T KNOW,DON'T KNOW,DON'T KNOW,DON'T KNOW,4,HTTP://OSCEOLAREGIONAL.COM/HOME/INDEX.DOT,1997,GEOPLAN,FDEM, ,28.29948447,-81.40944454,17RMM5985430447,324,31.34885519,OSCEOLA REGIONAL MEDICAL CENTER,V,2016-05-17,2017-09-06,206,28.29948447,-81.40944454,205
230,152529141900010010,N/A,FLORIDA HOSPITAL KISSIMMEE,2450 N ORANGE BLOSSOM TR,KISSIMMEE,34744,OSCEOLA,407-846-4343,HOSPITALS - ACUTE CARE,ADVENTIST HEALTH SYSTEM SUNBEL,PRIVATE,PRIVATE,ADVENTIST HEALTH SYSTEM,NOT-FOR-PROFIT,0,162,N/A,EFHL,100089, , , ,OPTICAL FIBER,100 MBPS TO 1 GBPS,10 MBPS TO 25 MBPS,OPTICAL FIBER,100 MBPS TO 1 GBPS,100 MBPS TO 1 GBPS,3,HTTP://WWW.FHKISSIMMEE.COM/,1980,GEOPLAN,FHA, ,28.31621881,-81.40563082,17RMM6023432299,325,29.88764214,FLORIDA HOSPITAL KISSIMMEE,V,2016-05-17,2017-09-06,207,28.31621881,-81.40563082,206
231,072528278100010020,N/A,FLORIDA HOSPITAL CELEBRATION HEALTH,400 CELEBRATION PL,CELEBRATION,34747,OSCEOLA,407-303-4000,HOSPITALS - ACUTE CARE,ADVENTIST HEALTH SYSTEM SUNBEL,PRIVATE,PRIVATE,ADVENTIST HEALTH SYSTEM,NOT-FOR-PROFIT,0,203,N/A,EFHL,23960017, , , ,OPTICAL FIBER,100 MBPS TO 1 GBPS,10 MBPS TO 25 MBPS,OPTICAL FIBER,100 MBPS TO 1 GBPS,100 MBPS TO 1 GBPS,3,HTTP://WWW.CELEBRATIONHEALTH.COM/,1997,GEOPLAN,FHA, ,28.32865907,-81.54091036,17RMM4697833729,326,79.44895184,FLORIDA HOSPITAL CELEBRATION HEALTH,V,2016-05-17,2017-09-06,208,28.32865907,-81.54091036,207
232,25 360478    2    1,10225077,WUESTHOFF MEDICAL CENTER-ROCKLEDGE,110 LONGWOOD AVE,ROCKLEDGE,32955,BREVARD,321-636-2211,HOSPITALS - ACUTE CARE,ROCKLEDGE HMA LLC,PRIVATE,PRIVATE,HEALTH MANAGEMENT ASSOCIATES,INVESTOR-OWNED,0,298,FL000197,EFHL,100092, , , ,OTHER COPPER WIRELINE,25 MBPS TO 50 MBPS,1.5 MBPS TO 3 MBPS,OTHER COPPER WIRELINE,GREATER THAN 1 GBPS,10 MBPS TO 25 MBPS,4,HTTP://WWW.WUESTHOFF.ORG/,1975,GEOPLAN,FDEM, ,28.33502943,-80.72271818,17RNM2717834347,327,15.12615442,WUESTHOFF MEDICAL CENTER-ROCKLEDGE,V,2011-05-10,2017-09-06,209,28.33502943,-80.72271818,208
233,2124340000139000000,10225047,BAYFRONT HEALTH DADE CITY - FORMERLY PASCO REGIONAL MEDICAL CENTER,13100 FORT KING RD,DADE CITY,33525,PASCO,352-521-1100,HOSPITALS - ACUTE CARE,PASCO HMA INC,PRIVATE,PRIVATE,HEALTH MANAGEMENT ASSOCIATES,INVESTOR-OWNED,0,120,FL000167,EFHM,100211, , , ,OPTICAL FIBER,6 MBPS TO 10 MBPS,1.5 MBPS TO 3 MBPS,OTHER COPPER WIRELINE,10 MBPS TO 25 MBPS,10 MBPS TO 25 MBPS,4,HTTP://WWW.PASCOREGIONALMC.COM/,1973,GEOPLAN,FDEM,BAYFRONT HEALTH DADE CITY,28.34807319,-82.20071676,17RLM8231936347,328,22.07581679,BAYFRONT HEALTH DADE CITY - FORMERLY PASCO REGIONAL MEDICAL CENTER,V,2016-05-17,2017-09-06,210,28.34807319,-82.20071676,209
234,24 373400    1,10225040,HEALTH FIRST CAPE CANAVERAL HOSPITAL,701 W COCOA BEACH CSWY,COCOA BEACH,32931,BREVARD,321-799-7111,HOSPITALS - ACUTE CARE,CAPE CANAVERAL HOSPITAL DIST,PRIVATE,PRIVATE,"HEALTH FIRST, INC.",NOT-FOR-PROFIT,0,150,FL000160,EFHL,100177, , , ,OPTICAL FIBER,GREATER THAN 1 GBPS,10 MBPS TO 25 MBPS,OPTICAL FIBER,GREATER THAN 1 GBPS,GREATER THAN 1 GBPS,3,HTTP://WWW.HEALTH-FIRST.ORG/HOSPITALS_SERVICES/CCH/,1969,GEOPLAN,FDEM,HEALTH FIRST CAPE CANAVERAL HOSPITAL,28.36003702,-80.62311475,17RNM3693337144,329,28.79864126,HEALTH FIRST CAPE CANAVERAL HOSPITAL,V,2016-05-17,2017-09-06,211,28.36003702,-80.62311475,210
235,1624340000001000010,10224879,REGIONAL MEDICAL CENTER BAYONET POINT,14000 FIVAY RD,HUDSON,34667,PASCO,727-819-2929,HOSPITALS - ACUTE CARE,HCA HEALTH SERVICES OF FLORIDA,PRIVATE,PRIVATE,HCA WEST FLORIDA DIVISION,INVESTOR-OWNED,0,290,FL000017,EFHL,100256, , , ,DON'T KNOW,DON'T KNOW,DON'T KNOW,DON'T KNOW,DON'T KNOW,DON'T KNOW,4,HTTP://WWW.RMCHEALTH.COM/,1997,GEOPLAN,FDEM, ,28.36126051,-82.6882761,17RLM3454838380,330,55.64990891,REGIONAL MEDICAL CENTER BAYONET POINT,V,2011-05-10,2017-09-06,212,28.36126051,-82.6882761,211
236,282402000000006,N/A,DR P PHILLIPS HOSPITAL,9400 TURKEY LAKE RD,ORLANDO,32819,ORANGE,407-351-8500,HOSPITALS - ACUTE CARE,ORLANDO HEALTH INC,PRIVATE,PRIVATE,ORLANDO HEALTH,NOT-FOR-PROFIT,0,237,N/A,EFHL,120002, , , ,OPTICAL FIBER,768 KBPS TO 1.5 KBPS,10 MBPS TO 25 MBPS,OPTICAL FIBER,768 KBPS TO 1.5 KBPS,768 KBPS TO 1.5 KBPS,3,HTTP://ORLANDOHEALTH.COM/DRPPHILLIPSHOSPITAL/INDEX.ASPX,2008,GEOPLAN,FHA, ,28.42894761,-81.47855835,17RMM5313444814,331,34.27942619,DR P PHILLIPS HOSPITAL,V,2011-05-10,2017-09-06,213,28.42894761,-81.47855835,212
237,R31 223 18 3521 0000 0030,10225004,BAYFRONT HEALTH SPRING HILL,10461 QUALITY DR,BROOKSVILLE,34609,HERNANDO,352-688-8200,HOSPITALS - ACUTE CARE,HERNANDO COUNTY,COUNTY,PUBLIC,HERNANDO HEALTHCARE,INVESTOR-OWNED,0,124,FL000124,EFHM,111525, , , ,OTHER COPPER WIRELINE,DON'T KNOW,DON'T KNOW,DON'T KNOW,DON'T KNOW,DON'T KNOW,4,HTTP://WWW.SPRINGHILLREGIONAL.NET/DEFAULT.ASPX,1991,GEOPLAN,FDEM,BAYFRONT HEALTH SPRING HILL,28.43755863,-82.54024888,17RLM4916546640,332,17.32326846,BAYFRONT HEALTH SPRING HILL,V,2016-05-17,2017-09-06,214,28.43755863,-82.54024888,213
238,292324804001000,N/A,SELECT SPECIALTY HOSPITAL - ORLANDO INC (SOUTH CAMPUS),5579 S ORANGE AVE,EDGEWOOD,32809,ORANGE,407-241-4800,HOSPITALS - ACUTE CARE,HTA-ORLANDO SS HOSPITAL LLC,PRIVATE,PRIVATE,SELECT MEDICAL CORPORATION,INVESTOR-OWNED,0,40,N/A,EFHS,23960068, , , , , , , , , , ,HTTP://WWW.SELECTSPECIALTYHOSPITALS.COM/,2007,GEOPLAN,FHA, ,28.47732708,-81.3698606,17RMM6379650136,333,7.45872716,SELECT SPECIALTY HOSPITAL - ORLANDO INC (SOUTH CAMPUS),V,2011-05-10,2017-09-06,215,28.47732708,-81.3698606,214
239,292235019700010,N/A,WINNIE PALMER HOSPITAL FOR WOMEN & BABIES,83 W MILLER ST,ORLANDO,32806,ORANGE,321-843-2201,HOSPITALS - ACUTE CARE,ORLANDO HEALTH INC,PRIVATE,PRIVATE,ORLANDO HEALTH,NOT-FOR-PROFIT,0,315,N/A,EFHL,N/A, , , , , , , , , , ,HTTP://ORLANDOHEALTH.COM/ORLANDOHEALTH/INDEX.ASPX,2006,GEOPLAN,FHA, ,28.52437542,-81.37924264,17RMM6289455351,335,4.40822682,WINNIE PALMER HOSPITAL FOR WOMEN & BABIES,V,2016-05-17,2017-09-06,217,28.52437542,-81.37924264,215
240,292235638901000,10224934,ORLANDO REGIONAL MEDICAL CENTER,52 W UNDERWOOD ST,ORLANDO,32806,ORANGE,321-841-5111,HOSPITALS - ACUTE CARE,ORLANDO HEALTH INC,PRIVATE,PRIVATE,ORLANDO HEALTH,NOT-FOR-PROFIT,0,794,FL000072,EFHL,100006, , , , , , , , , , ,HTTP://WWW.ORLANDOHEALTH.COM/ORLANDOHEALTH/INDEX.ASPX,1940,GEOPLAN,FDEM,ADDRESS CHANGED,28.52538518,-81.37693332,17RMM6312055462,336,51.78988176,ORLANDO REGIONAL MEDICAL CENTER,V,2016-05-17,2017-09-06,218,28.52538518,-81.37693332,216
241,R34 422 18 0000 0040 0000,10225027,SPRINGBROOK HOSPITAL - GREENBRIAR HOSPITAL,7007 GROVE RD,BROOKSVILLE,34609,HERNANDO,352-596-4306,HOSPITALS - PSYCHIATRIC,FLORIDA PROPERTY RESOURCES COR,PRIVATE,PRIVATE,"OGLETHORPE, INC.",INVESTOR-OWNED,0,66,FL000147,EFHM,110054, , , , , , , , , , ,HTTP://REALPAGES.COM/SITES/SPRINGBROOKHOSPITAL/PAGE2.HTML,1988,GEOPLAN,FDEM, ,28.53000622,-82.48453598,17RLM5474856815,337,14.02493262,SPRINGBROOK HOSPITAL - GREENBRIAR HOSPITAL,V,2011-05-10,2017-09-06,219,28.53000622,-82.48453598,217
242,292235203600331,10224936,ORLANDO REGIONAL MEDICAL CENTER - LUCERNE PAVILION,818 MAIN LANE,ORLANDO,32801,ORANGE,407-649-6111,HOSPITALS - ACUTE CARE,ORLANDO HEALTH INC,PRIVATE,PRIVATE,ORLANDO HEALTH,NOT-FOR-PROFIT,0,267,FL000074,EFHL,N/A, , , , , , , , , , ,HTTP://WWW.ORLANDOHEALTH.COM,1981,GEOPLAN,FDEM, ,28.53161481,-81.37869059,17RMM6295056153,338,6.92098109,ORLANDO REGIONAL MEDICAL CENTER - LUCERNE PAVILION,V,2011-05-10,2017-09-06,220,28.53161481,-81.37869059,218
243,R30 222 18 2807 0010 0000,10224980,OAK HILL HOSPITAL,11375 CORTEZ BLVD,BROOKSVILLE,34613,HERNANDO,352-596-6632,HOSPITALS - ACUTE CARE,HCA HEALTH SERVICES OF FL INC,PRIVATE,PRIVATE,HCA WEST FLORIDA DIVISION,INVESTOR-OWNED,0,262,FL000215,EFHL,100264, , , ,DON'T KNOW,DON'T KNOW,DON'T KNOW,DON'T KNOW,DON'T KNOW,DON'T KNOW,3,HTTP://OAKHILLHOSPITAL.COM/,1984,GEOPLAN,FDEM, ,28.53643886,-82.53448037,17RLM4987057589,339,100.3850089,OAK HILL HOSPITAL,V,2016-05-17,2017-09-06,221,28.53643886,-82.53448037,219
244,R32 422 18 0000 0020 0010,10053866,HEALTHSOUTH REHABILITATION HOSPITAL OF SPRING HILL,12440 CORTEZ BLVD,BROOKSVILLE,34613,HERNANDO,352-592-4250,HOSPITALS - REHABILITATION,HEALTHSOUTH OF SPRING HILL INC,PRIVATE,PRIVATE,HEALTHSOUTH CORPORATION,INVESTOR-OWNED,0,80,N/A,EFHM,23960042, , , , , , , , , , ,HTTP://WWW.HEALTHSOUTHSPRINGHILL.COM/,2003,GEOPLAN,FDEM, ,28.53202051,-82.51677149,17RLM5159757078,340,8.94727694,HEALTHSOUTH REHABILITATION HOSPITAL OF SPRING HILL,V,2011-05-10,2017-09-06,222,28.53202051,-82.51677149,220
245,R30 422 19 0000 0030 0000,N/A,BAYFRONT HEALTH BROOKSVILLE,17240 CORTEZ BLVD,BROOKSVILLE,34601,HERNANDO,352-796-5111,HOSPITALS - ACUTE CARE,HERNANDO COUNTY,COUNTY,PUBLIC,HERNANDO HEALTHCARE,INVESTOR-OWNED,0,120,N/A,EFHM,100071,OPTICAL FIBER,25 MBPS TO 50 MBPS,25 MBPS TO 50 MBPS, , , , , , ,2,HTTP://WWW.BROOKSVILLEREGIONAL.COM/DEFAULT.ASPX,2005,GEOPLAN,FHA,BAYFRONT HEALTH BROOKSVILLE,28.53860431,-82.44322936,17RLM5880257718,341,140.3999312,BAYFRONT HEALTH BROOKSVILLE,V,2016-05-17,2017-09-06,223,28.53860431,-82.44322936,221
246,302226277001000,N/A,FLORIDA HOSPITAL EAST ORLANDO,7727 LAKE UNDERHILL DR,ORLANDO,32822,ORANGE,407-303-8110,HOSPITALS - ACUTE CARE,ADVENTIST HEALTH SYSTEM/SUNBEL,PRIVATE,PRIVATE,ADVENTIST HEALTH SYSTEM,NOT-FOR-PROFIT,0,253,N/A,EFHL,100021, , , ,OPTICAL FIBER,100 MBPS TO 1 GBPS,10 MBPS TO 25 MBPS,OPTICAL FIBER,100 MBPS TO 1 GBPS,100 MBPS TO 1 GBPS,3,HTTP://WWW.FLORIDAHOSPITALEAST.COM/,2007,GEOPLAN,FHA, ,28.53993029,-81.28097949,17RMM7251257048,342,44.4321328,FLORIDA HOSPITAL EAST ORLANDO,V,2016-05-17,2017-09-06,224,28.53993029,-81.28097949,222
247,282229000000031,10225105,HEALTH CENTRAL HOSPITAL,10000 W COLONIAL DR,OCOEE,34761,ORANGE,407-296-1000,HOSPITALS - ACUTE CARE,ORLANDO HEALTH CENTRAL INC,PRIVATE,PRIVATE,HEALTH CENTRAL,PUBLIC/GOVERNMENT,0,171,FL000229,EFHL,100030, , , ,OTHER COPPER WIRELINE,10 MBPS TO 25 MBPS,DON'T KNOW,DON'T KNOW,DON'T KNOW,DON'T KNOW,4,HTTP://WWW.HEALTHCENTRAL.ORG/,1993,GEOPLAN,FDEM, ,28.54967951,-81.52768963,17RMM4838158209,344,90.15061847,HEALTH CENTRAL HOSPITAL,V,2011-05-10,2017-09-06,225,28.54967951,-81.52768963,223
248,292217487400010,10053886,LAKESIDE BEHAVIORAL HEALTHCARE - PRINCETON PLAZA / LAKESIDE PLACE,1800 MERCY DR,ORLANDO,32808,ORANGE,407-875-3700,HOSPITALS - PSYCHIATRIC,LAKESIDE ALTERNATIVES INC,PRIVATE,PRIVATE,N/A,NOT-FOR-PROFIT,0,56,N/A,EFHM,100129, , , , , , , , , , ,HTTP://WWW.LAKESIDECARES.ORG/,1965,GEOPLAN,FDEM,POSSIBLE NAME - ASPIRE HEALTH PARTNERS INC,28.56743164,-81.43424552,17RMM5752960139,345,64.34028237,LAKESIDE BEHAVIORAL HEALTHCARE - PRINCETON PLAZA / LAKESIDE PLACE,V,2011-05-10,2017-09-06,226,28.56743164,-81.43424552,224
249,292213513203090,N/A,SELECT SPECIALTY HOSPITAL - ORLANDO INC (NORTH CAMPUS),2250 BEDFORD RD,ORLANDO,32803,ORANGE,407-303-7869,HOSPITALS - ACUTE CARE,ADVENTIST HEALTH SYSTEM/SUNBEL,PRIVATE,PRIVATE,SELECT MEDICAL CORPORATION,INVESTOR-OWNED,0,35,N/A,EFHS,23960043, , , , , , , , , , ,HTTP://WWW.SELECTSPECIALTYHOSPITALS.COM/,1966,GEOPLAN,FHA, ,28.57236558,-81.3704429,17RMM6377160665,346,0.69555316,SELECT SPECIALTY HOSPITAL - ORLANDO INC (NORTH CAMPUS),V,2011-05-10,2017-09-06,227,28.57236558,-81.3704429,225
250,00424519030010010,N/A,BETHESDA HOSPITAL WEST,9655 W BOYNTON BEACH BLVD,BOYNTON BEACH,33472,PALM BEACH,561-336-7000,HOSPITALS - ACUTE CARE,BETHESDA HEALTH INC,PRIVATE,PRIVATE,"BETHESDA HEALTH, INC",NOT-FOR-PROFIT,0,80,N/A,EFHM,23960098, , , , , , , , , , ,HTTP://WWW.BETHESDAWEST.ORG/,2012,GEOPLAN,FHA,JUST ADDED,26.52979476,-80.19980973,17RNK7972034606,348,60.24011452,BETHESDA HOSPITAL WEST,V,2016-05-17,2017-09-06,228,26.52979476,-80.19980973,226
251,2026300000002000010,N/A,FLORIDA HOSPITAL WESLEY CHAPEL,2600 BRUCE B DOWNS BLVD,WESLEY CHAPEL,33544,PASCO,813-929-5000,HOSPITALS - ACUTE CARE,PASCO-PINELLAS HILLSBOROUGH,PRIVATE,PRIVATE,ADVENTIST HEALTH SYSTEM,NOT-FOR-PROFIT,0,83,N/A,EFHM,23960099, , , , , , , , , , ,HTTP://WWW.FLORIDAHOSPITAL.COM/WESLEY-CHAPEL,2012,GEOPLAN,FHA,JUST ADDED,28.19553261,-82.3514619,17RLM6735519602,349,58.65469305,FLORIDA HOSPITAL WESLEY CHAPEL,V,2016-05-17,2017-09-06,229,28.19553261,-82.3514619,227
252,21212952100000010,N/A,HEALTHSOUTH REHAB HOSPITAL OF ALTAMONTE SPRINGS,831 S STATE ROAD 434,ALTAMONTE SPRINGS,32714,SEMINOLE,407-587-8600,HOSPITALS - REHABILITATION,HEALTHSOUTH REHABILITATION HO,PRIVATE,PRIVATE,HEALTHSOUTH CORPORATION,INVESTOR-OWNED,0,50,N/A,EFHM,23960115, , , , , , , , , , ,HTTP://WWW.HEALTHSOUTHALTAMONTESPRINGS.COM,2014,GEOPLAN,FHA,JUST ADDED,28.64648142,-81.41353177,17RMM5958668890,350,8.5738144,HEALTHSOUTH REHAB HOSPITAL OF ALTAMONTE SPRINGS,V,2016-05-17,2017-09-06,230,28.64648142,-81.41353177,228
253,553841000068000310,N/A,HEALTHSOUTH REHABILITATION HOSPITAL AT MARTIN HEALTH,5850 SE COMMUNITY DR,STUART,34997,MARTIN,772-324-3500,HOSPITALS - REHABILITATION,HEALTHSOUTH REHABILITATION HOS,PRIVATE,PRIVATE,HEALTHSOUTH CORPORATION,INVESTOR-OWNED,0,44,N/A,EFHS,23960112, , , , , , , , , , ,HTTP://WWW.HEALTHSOUTHMARTIN.COM,2013,GEOPLAN,FHA,JUST ADDED,27.13287271,-80.22175915,17RNL7712401391,351,7.93994761,HEALTHSOUTH REHABILITATION HOSPITAL AT MARTIN HEALTH,V,2016-05-17,2017-09-06,231,27.13287271,-80.22175915,229
254,23721-003-00,N/A,HEALTHSOUTH REHABILITATION HOSPITAL OF OCALA,2275 SW 22ND LN,OCALA,34471,MARION,352-282-4000,HOSPITALS - REHABILITATION,HEALTHSOUTH REHAB HOSPITAL OF,PRIVATE,PRIVATE,HEALTHSOUTH CORPORATION,INVESTOR-OWNED,0,50,N/A,EFHM,23960109, , , , , , , , , , ,HTTP://WWW.HEALTHSOUTHOCALA.COM,2012,GEOPLAN,FHA,JUST ADDED,29.16597317,-82.16248954,17RLN8695126933,352,6.76209096,HEALTHSOUTH REHABILITATION HOSPITAL OF OCALA,V,2016-05-17,2017-09-06,232,29.16597317,-82.16248954,230
255,29331180609,N/A,LANDMARK HOSPITAL OF SOUTHWEST FLORIDA,"1285 CREEKSIDE BLVD, E",NAPLES,34109,COLLIER,239-529-1800,HOSPITALS - ACUTE CARE,CREEKSIDE EAST INC,PRIVATE,PRIVATE,N/A,INVESTOR-OWNED,0,50,N/A,EFHM,23960116, , , , , , , , , , ,HTTP://WWW.LANDMARKHOSPITALS.COM/NAPLES.ASPX,2015,GEOPLAN,FHA,JUST ADDED,26.27001266,-81.78907749,17RMK2121105827,353,4.418268,LANDMARK HOSPITAL OF SOUTHWEST FLORIDA,V,2016-05-17,2017-09-06,233,26.27001266,-81.78907749,231
256,2026290000001000063,N/A,NORTH TAMPA BEHAVIORAL HEALTH,29910 STATE ROAD 56,WESLEY CHAPEL,33543,PASCO,813-922-3300,HOSPITALS - PSYCHIATRIC,TEN BROECK TAMPA INC,PRIVATE,PRIVATE,ACADIA HEALTHCARE,INVESTOR-OWNED,0,75,N/A,EFHM,23960114, , , , , , , , , , ,HTTP://WWW.NORTHTAMPABEHAVIORALHEALTH.COM,2013,GEOPLAN,FHA,JUST ADDED,28.20050345,-82.32365416,17RLM7009020123,354,23.31989805,NORTH TAMPA BEHAVIORAL HEALTH,V,2016-05-17,2017-09-06,234,28.20050345,-82.32365416,232
257,3345242000000010A,N/A,PARK ROYAL HOSPITAL,9241 PARK ROYAL DR,FORT MYERS,33908,LEE,239-985-2700,HOSPITALS - PSYCHIATRIC,ACADIA HEALTHCARE,PRIVATE,PRIVATE,ACADIA HEALTHCARE,INVESTOR-OWNED,0,103,N/A,EFHM,23960103, , , , , , , , , , ,HTTP://WWW.PARKROYALHOSPITAL.COM,2012,GEOPLAN,FHA,JUST ADDED,26.51039318,-81.90934133,17RMK0939032530,355,4.76696466,PARK ROYAL HOSPITAL,V,2016-05-17,2017-09-06,235,26.51039318,-81.90934133,233
258,112728000000400000,N/A,POINCIANA MEDICAL CENTER,325 CYPRESS PARKWAY,KISSIMMEE,34759,OSCEOLA,407-530-2000,HOSPITALS - ACUTE CARE,POINCIANA MEDICAL CENTER INC,PRIVATE,PRIVATE,HCA NORTH FLORIDA DIVISION,INVESTOR-OWNED,0,76,N/A,EFHM,23960111, , , , , , , , , , ,HTTP://WWW.POINCIANAMEDICALCENTER.COM,2013,GEOPLAN,FHA,JUST ADDED,28.14468796,-81.47628415,17RMM5323313322,356,45.89661816,POINCIANA MEDICAL CENTER,V,2016-05-17,2017-09-06,236,28.14468796,-81.47628415,234
259,D21=057,N/A,PROMISE HOSPITAL OF FLORIDA AT THE VILLAGES,5050 ROAD 472,OXFORD,34484,SUMTER,352-689-6400,HOSPITALS - ACUTE CARE,HLP PROPERTIES AT THE VILLAGES,PRIVATE,PRIVATE,PROMISE HEALTHCARE,INVESTOR-OWNED,0,40,N/A,EFHS,23960086, , , , , , , , , , ,HTTP://WWW.PROMISE-VILLAGES.COM,2010,GEOPLAN,FHA,JUST ADDED,28.9098572,-82.0195627,17RMM0060698426,357,7.03202378,PROMISE HOSPITAL OF FLORIDA AT THE VILLAGES,V,2016-05-17,2017-09-06,237,28.9098572,-82.0195627,235
260,224425P4009110000,N/A,PROMISE HOSPITAL OF FORT MYERS,3050 CHAMPION RING RD,FORT MYERS,33905,LEE,239-313-2900,HOSPITALS - ACUTE CARE,PROMISE PROPERTIES OF LEE INC,PRIVATE,PRIVATE,PROMISE HEALTHCARE,INVESTOR-OWNED,0,60,N/A,EFHM,23960107, , , , , , , , , , ,HTTP://WWW.PROMISEFORTMYERS.COM,2014,GEOPLAN,FHA,JUST ADDED,26.63059204,-81.80285666,17RMK2008445772,358,5.43950809,PROMISE HOSPITAL OF FORT MYERS,V,2016-05-17,2017-09-06,238,26.63059204,-81.80285666,236
261,3220220400020,N/A,PROMISE HOSPITAL OF MIAMI,14001 NW 82ND AVE,MIAMI,33016,MIAMI-DADE,786-609-9200,HOSPITALS - ACUTE CARE,TGC LL8 LLC,PRIVATE,PRIVATE,PROMISE HEALTHCARE,INVESTOR-OWNED,0,60,N/A,EFHM,N/A, , , , , , , , , , ,HTTP://WWW.PROMISE-MIAMI.COM,2015,GEOPLAN,FHA,JUST ADDED,25.90046198,-80.33152065,17RNJ6695764831,359,6.14972311,PROMISE HOSPITAL OF MIAMI,V,2016-05-17,2017-09-06,239,25.90046198,-80.33152065,237
262,182903ZZZ000005435000A,N/A,ST JOSEPH'S HOSPITAL BEHAVIORAL HEALTH CENTER,4918 N HABANA AVE,TAMPA,33614,HILLSBOROUGH,813-870-4300,HOSPITALS - ACUTE CARE,FRANCISCAN PROPERTIES INC,PRIVATE,PRIVATE,BAYCARE - ST JOSEPH'S-BAPTIST HEALTH CARE,NOT-FOR-PROFIT,0,60,N/A,EFHM,23960113, , , , , , , , , , ,HTTP://WWW.BAYCARE.ORG/LOCATIONS/S/ST-JOSEPHS-HOSPITAL-BEHAVIORAL-HEALTH-CENTER,2011,GEOPLAN,FHA,JUST ADDED,27.99166097,-82.48981907,17RLL5349797173,360,8.90379985,ST JOSEPH'S HOSPITAL BEHAVIORAL HEALTH CENTER,V,2016-05-17,2017-09-06,240,27.99166097,-82.48981907,238
263,203118ZZZ000003151500U,N/A,ST JOSEPH'S HOSPITAL-SOUTH,6901 SIMMONS LOOP,RIVERVIEW,33578,HILLSBOROUGH,813-302-8000,HOSPITALS - ACUTE CARE,ST JOSEPH'S HEALTH CARE CENTER,PRIVATE,PRIVATE,BAYCARE - ST JOSEPH'S-BAPTIST HEALTH CARE,NOT-FOR-PROFIT,0,90,N/A,EFHM,23960105, , , , , , , , , , ,HTTP://WWW.BAYCARE.ORG/SJHS,2014,GEOPLAN,FHA,JUST ADDED,27.78772948,-82.34500037,17RLL6749174414,361,72.3676588,ST JOSEPH'S HOSPITAL-SOUTH,V,2016-05-17,2017-09-06,241,27.78772948,-82.34500037,239
264,31-04-25-008075-900-00,N/A,ST VINCENT'S MEDICAL CENTER CLAY,1670 ST VINCENT'S WAY,MIDDLEBURG,32068,CLAY,904-602-1000,HOSPITALS - ACUTE CARE,ST VINCENTS HEALTH SYSTEMS INC,PRIVATE,PRIVATE,ST VINCENT'S HEALTHCARE,NOT-FOR-PROFIT,0,64,N/A,EFHM,23960117, , , , , , , , , , ,HTTP://WWW.JAXHEALTH.COM/LOCATIONS/HOSPITALS-PROFILE/?ID=67,2013,GEOPLAN,FHA,JUST ADDED,30.108902,-81.83277894,17RMP1976731145,362,33.38824904,ST VINCENT'S MEDICAL CENTER CLAY,V,2016-05-17,2017-09-06,242,30.108902,-81.83277894,240
265,00-2S-22-0025-0000-0020,N/A,THE REHABILITATION INSTITUTE OF NORTHWEST FLORIDA,996 AIRPORT RD,DESTIN,32541,OKALOOSA,850-862-1111,HOSPITALS - REHABILITATION,FT WALTON BCH MED CTR INC,PRIVATE,PRIVATE,HCA NORTH FLORIDA DIVISION,INVESTOR-OWNED,0,20,N/A,EFHS,23960106, , , , , , , , , , ,HTTP://WWW.FWBMC.COM/SERVICE/INPATIENT-PHYSICAL-REHABILITATION,1986,GEOPLAN,FHA,JUST ADDED,30.39388626,-86.47229809,16REU5069462551,363,10.97995208,THE REHABILITATION INSTITUTE OF NORTHWEST FLORIDA,V,2016-05-17,2017-09-06,243,30.39388626,-86.47229809,241
266,4315-501-0004-000-5,N/A,TRADITION MEDICAL CENTER,10000 SW INNOVATION WAY,PORT ST LUCIE,34987,ST LUCIE,772-345-8100,HOSPITALS - ACUTE CARE,MARTIN MEMORIAL MEDICAL CENTER,PRIVATE,PRIVATE,MARTIN HEALTH SYSTEM,NOT-FOR-PROFIT,0,90,N/A,EFHM,N/A, , , , , , , , , , ,HTTP://WWW/MARTINHEALTH.ORG/MHS-TRADITION-MEDICAL-CENTER,2013,GEOPLAN,FHA,JUST ADDED,27.2612492,-80.42603123,17RNL5681515502,364,30.90835834,TRADITION MEDICAL CENTER,V,2016-05-17,2017-09-06,244,27.2612492,-80.42603123,242
267,1626240000001000070,N/A,MEDICAL CENTER OF TRINITY,9330 SR 54,TRINITY,34655,PASCO,727-834-4000,HOSPITALS - ACUTE CARE,HCA HEALTH SERVICES OF FLORIDA,PRIVATE,PRIVATE,HCA WEST FLORIDA DIVISION,INVESTOR-OWNED,0,236,N/A,EFHL,100191, , , , , , , , , , ,HTTP://WWW.MEDICALCENTERTRINITY.COM,2011,GEOPLAN,FDEM,JUST ADDED,28.20373918,-82.65996688,17RLM3708320887,365,55.30832681,MEDICAL CENTER OF TRINITY,V,2016-05-17,2017-09-06,245,28.20373918,-82.65996688,243
268,06230-005-001,N/A,UF HEALTH SHANDS EMERGENCY CENTER - SPRINGHILL,8475 NW 39TH AVE,GAINESVILLE,32606,ALACHUA,352-627-0400,HOSPITALS - ACUTE CARE,STATE OF FLORIDA,STATE,PUBLIC,SHANDS HEALTHCARE,NOT-FOR-PROFIT,0,10,N/A,N/A,N/A, , , , , , , , , , ,https://ufhealth.org/uf-health-shands-emergency-center-springhill,2009,GEOPLAN,GEOPLAN, ,29.68801552,-82.43261528,17RLN6143185114,366,4.99999109,UF HEALTH SHANDS EMERGENCY CENTER - SPRINGHILL,V,2017-09-06,2017-09-06,246,29.68801552,-82.43261528,244
269,484124060010,10224902,NORTHWEST MEDICAL CENTER,2801 N STATE ROAD 7,POMPANO BEACH,33063,BROWARD,954-974-0400,HOSPITALS - ACUTE CARE,NORTHWEST REGIONAL HOSP INC,PRIVATE,PRIVATE,HCA EAST FLORIDA DIVISION,INVESTOR-OWNED,0,228,FL000040,EFHL,100189, , , ,OTHER,50 MBPS TO 100 MBPS,10 MBPS TO 25 MBPS,OPTICAL FIBER,6 MBPS TO 10 MBPS,6 MBPS TO 10 MBPS,3,HTTP://WWW.NORTHWESTMED.COM/,1984,GEOPLAN,FDEM, ,26.26323569,-80.20283907,17RNK7960105081,145,27.44529417,NORTHWEST MEDICAL CENTER,V,2016-05-17,2017-09-06,135,26.26323569,-80.20283907,245
270,292302030000010,N/A,ARNOLD PALMER HOSPITAL FOR CHILDREN,92 W MILLER ST,ORLANDO,32806,ORANGE,407-649-9111,HOSPITALS - CHILDREN/ACUTE CARE,ORLANDO HEALTH INC,PRIVATE,PRIVATE,ORLANDO HEALTH,NOT-FOR-PROFIT,0,158,N/A,EFHL,120001, , , ,OPTICAL FIBER,768 KBPS TO 1.5 KBPS,10 MBPS TO 25 MBPS,OPTICAL FIBER,768 KBPS TO 1.5 KBPS,768 KBPS TO 1.5 KBPS,3,HTTP://ORLANDOHEALTH.COM/ORLANDOHEALTH/INDEX.ASPX,1989,GEOPLAN,FHA,ENCOMPASSED BY ORLANDO HEALTH,28.52305298,-81.37903448,17RMM6291455204,334,14.09940763,ARNOLD PALMER HOSPITAL FOR CHILDREN,V,2011-05-10,2017-09-06,216,28.52305298,-81.37903448,246
271,0431080011790,10224868,HIALEAH HOSPITAL,651 E 25TH ST,HIALEAH,33013,MIAMI-DADE,305-693-6100,HOSPITALS - ACUTE CARE,TENET HIALEAH HEALTHSYSTEM INC,PRIVATE,PRIVATE,TENET HEALTHSYSTEM,INVESTOR-OWNED,0,378,FL000006,EFHL,100053, , , , , , ,SATELLITE TO A DISH,3 MBPS TO 6 MBPS,3 MBPS TO 6 MBPS,4,HTTP://WWW.HIALEAHHOSP.COM/EN-US/PAGES/DEFAULT.ASPX,1960,GEOPLAN,FDEM, ,25.84517563,-80.2692158,17RNJ7323258742,188,11.74123349,HIALEAH HOSPITAL,V,2011-05-10,2017-09-06,252,25.84517563,-80.2692158,247
272,0131350450030,10225006,UNIVERSITY OF MIAMI HOSPITAL,1400 NW 12TH AVE,MIAMI,33136,MIAMI-DADE,305-325-5511,HOSPITALS - ACUTE CARE,UNIVERSITY OF MIAMI,PRIVATE,PRIVATE,UNIVERSITY OF MIAMI HOSPITAL DIVISION,INVESTOR-OWNED,0,560,FL000126,EFHL,100009,OPTICAL FIBER,100 MBPS TO 1 GBPS,GREATER THAN 1 GBPS, , , , , , ,2,HTTP://WWW.UMIAMIHOSPITAL.COM,1961,GEOPLAN,FDEM, ,25.78862041,-80.21617369,17RNJ7858552509,181,8.93612062,UNIVERSITY OF MIAMI HOSPITAL,V,2011-05-10,2017-09-06,247,25.78862041,-80.21617369,248
273,0131350650010,10224905,BASCOM PALMER EYE INST & HOSPITAL,900 NW 17TH ST,MIAMI,33136,MIAMI-DADE,305-326-6000,HOSPITALS - ACUTE CARE,MIAMI-DADE COUNTY,COUNTY,PUBLIC,UNIVERSITY OF MIAMI SPECIALTY HOSPITALS,NOT-FOR-PROFIT,0,100,FL000043,EFHM,100240, , , , , , , , , , ,HTTP://BASCOMPALMER.ORG/SITE/,1973,GEOPLAN,FDEM, ,25.79096423,-80.21071357,17RNJ7913152772,182,1.62054311,BASCOM PALMER EYE INST & HOSPITAL,V,2011-05-10,2017-09-06,248,25.79096423,-80.21071357,249
274,0131350180250,N/A,JACKSON PLAZA REHABILITATION & NURSING CENTER,1861 NW 8TH AVE,MIAMI,33136,MIAMI-DADE,305-347-3380,HOSPITALS - REHABILITATION,UNIVERSITY PLAZA PROPERTIES IN,PRIVATE,PRIVATE,HEBREW HOMES PLAZA HEALTH NETWORK,NOT-FOR-PROFIT,0,120,N/A,EFHM,N/A, , , , , , , , , , ,HTTP://WWW.HEBREWHOMES.ORG/INDEX.HTML#/JACKSON/,2013,GEOPLAN,GEOPLAN, ,25.79348777,-80.20814195,17RNJ7938753053,184,2.46379953,JACKSON PLAZA REHABILITATION & NURSING CENTER,V,2012-11-19,2017-09-06,249,25.79348777,-80.20814195,250
275,0232220110360,10224921,MOUNT SINAI MEDICAL CENTER,4300 ALTON RD,MIAMI BEACH,33140,MIAMI-DADE,305-674-2121,HOSPITALS - ACUTE CARE,MOUNT SINAI MEDICAL CTR OF FL,PRIVATE,PRIVATE,MOUNT SINAI HEALTH SYSTEM,NOT-FOR-PROFIT,0,672,FL000059,EFHL,100034, , , , , , , , , ,1,HTTP://WWW.MSMC.COM/,1958,GEOPLAN,FDEM, ,25.81321049,-80.13978601,17RNJ8622655280,185,56.44963833,MOUNT SINAI MEDICAL CENTER,V,2016-05-17,2017-09-06,250,25.81321049,-80.13978601,251
276,0131240430020,10224909,MIAMI JEWISH HEALTH SYSTEMS,5200 NE SECOND AVE,MIAMI,33137,MIAMI-DADE,305-751-8626,HOSPITALS - ACUTE CARE,MIAMI JEWISH HOME & HOSPITAL,PRIVATE,PRIVATE,N/A,NOT-FOR-PROFIT,0,32,FL000047,EFHS,100197, , , , , , , , , , ,HTTP://WWW.MIAMIJEWISHHEALTHSYSTEMS.ORG/,1980,GEOPLAN,FDEM, ,25.8228518,-80.19252534,17RNJ8093356314,186,20.05703666,MIAMI JEWISH HEALTH SYSTEMS,V,2012-11-19,2017-09-06,251,25.8228518,-80.19252534,252
277,0430021650020,10224994,SOUTHERN WINDS HOSPITAL,4225 W 20TH AVE,HIALEAH,33012,MIAMI-DADE,305-558-9700,HOSPITALS - PSYCHIATRIC,WESTCHESTER GENERAL HOSPITAL I,PRIVATE,PRIVATE,SOUTHERN WINDS HOSPITAL,INVESTOR-OWNED,0,72,FL000114,EFHM,110040, , , , , , , , , , ,HTTP://WWW.WESTCHESTERHOSPITAL.COM/WEBSITE/,1988,GEOPLAN,FDEM, ,25.86038319,-80.32155827,17RNJ6797860398,189,1.90353119,SOUTHERN WINDS HOSPITAL,V,2011-05-10,2017-09-06,253,25.86038319,-80.32155827,253
278,3031020310010,10224917,NORTH SHORE MEDICAL CENTER,1100 NW 95TH ST,MIAMI,33150,MIAMI-DADE,305-835-6000,HOSPITALS - ACUTE CARE,TENET HEALTHSYSTEM NORTH SHORE,PRIVATE,PRIVATE,TENET HEALTHSYSTEM,INVESTOR-OWNED,0,357,FL000055,EFHL,100029, , , ,OTHER,3 MBPS TO 6 MBPS,1.5 MBPS TO 3 MBPS,OTHER COPPER WIRELINE,768 KBPS TO 1.5 KBPS,1.5 MBPS TO 3 MBPS,3,HTTP://WWW.NORTHSHOREMEDICAL.COM/EN-US/PAGES/DEFAULT.ASPX,1955,GEOPLAN,FDEM, ,25.85960419,-80.21419729,17RNJ7873660372,190,30.34405732,NORTH SHORE MEDICAL CENTER,V,2011-05-10,2017-09-06,254,25.85960419,-80.21419729,254
279,0430020000071,10224870,PALM SPRINGS GENERAL HOSPITAL,1475 W 49TH ST,HIALEAH,33012,MIAMI-DADE,305-588-2500,HOSPITALS - ACUTE CARE,BRUSA INC,PRIVATE,PRIVATE,PALM SPRINGS GENERAL HOSPITAL,INVESTOR-OWNED,0,247,FL000008,EFHL,100050, , , ,DIAL UP ANALOG,768 KBPS TO 1.5 KBPS,200 KBPS TO 768 KBPS,DSL ASYMMETRIC,200 KBPS TO 768 KBPS,768 KBPS TO 1.5 KBPS,4,HTTP://PSGHOSP.COM/,1964,GEOPLAN,FDEM, ,25.86848725,-80.31245365,17RNJ6888561300,191,14.39673768,PALM SPRINGS GENERAL HOSPITAL,V,2011-05-10,2017-09-06,255,25.86848725,-80.31245365,255
280,0420270010610,10225085,PALMETTO GENERAL HOSPITAL,2001 W 68TH ST,HIALEAH,33016,MIAMI-DADE,305-823-5000,HOSPITALS - ACUTE CARE,LIFEMARK HOSPITALS INC,PRIVATE,PRIVATE,TENET HEALTHSYSTEM,INVESTOR-OWNED,0,360,FL000235,EFHL,100187,DSL SYMMETRIC,DON'T KNOW,DON'T KNOW, , , , , , ,2,HTTP://WWW.PALMETTOGENERAL.COM/EN-US/PAGES/DEFAULT.ASPX,1969,GEOPLAN,FDEM, ,25.88586739,-80.32648949,17RNJ6746963218,192,44.67782537,PALMETTO GENERAL HOSPITAL,V,2011-05-10,2017-09-06,256,25.88586739,-80.32648949,256
281,0622290890010,10224930,ST CATHERINES REHABILITATION HOSPITAL,1050 NE 125TH ST,NORTH MIAMI,33161,MIAMI-DADE,305-357-1735,HOSPITALS - ACUTE CARE,VILLA MARIA NURSING & REHAB CT,PRIVATE,PRIVATE,CATHOLIC HEALTH SERVICES,NOT-FOR-PROFIT,0,22,FL000068,EFHS,103004, , , , , , , , , , ,HTTP://WWW.CATHOLICHEALTHSERVICES.ORG/,1968,GEOPLAN,FDEM, ,25.88989687,-80.17719738,17RNJ8242363749,193,8.78876997,ST CATHERINES REHABILITATION HOSPITAL,V,2016-05-17,2017-09-06,257,25.88989687,-80.17719738,257
282,3421150000010,N/A,NORTH DADE HEALTH CENTER,16555 NW 25TH AVE,MIAMI GARDENS,33054,MIAMI-DADE,786-466-1500,HOSPITALS - ACUTE CARE,MIAMI-DADE COUNTY,COUNTY,PUBLIC,JACKSON HEALTH SYSTEM,PUBLIC/GOVERNMENT,0,60,N/A,EFHM,N/A, , , , , , , , , , ,HTTP://WWW.JHSMIAMI.ORG/BODY.CFM?ID=8882,1979,GEOPLAN,FHA,RELOCATED AND NAME CHANGE,25.90833555,-80.24319941,17RNJ7579965751,194,17.09777989,NORTH DADE HEALTH CENTER,V,2011-05-10,2017-09-06,258,25.90833555,-80.24319941,258
283,0721120080010,10224990,JACKSON NORTH MEDICAL CENTER- PARKWAY REGIONAL MED CENTER,160 NW 170TH ST,NORTH MIAMI BEACH,33169,MIAMI-DADE,305-651-1100,HOSPITALS - ACUTE CARE,MIAMI-DADE COUNTY,COUNTY,PUBLIC,JACKSON HEALTH SYSTEM,PUBLIC/GOVERNMENT,0,382,FL000110,EFHL,100114, , , , , , , , , , ,HTTP://WWW.JHSMIAMI.ORG/BODY.CFM?ID=9200,1960,GEOPLAN,FDEM, ,25.93060591,-80.20375728,17RNJ7973468241,195,17.1704576,JACKSON NORTH MEDICAL CENTER- PARKWAY REGIONAL MED CENTER,V,2016-05-17,2017-09-06,259,25.93060591,-80.20375728,259
284,2812340010340,10224865,AVENTURA HOSPITAL - MEDICAL CENTER - CANCER CENTER,20900 BISCAYNE BLVD,MIAMI,33180,MIAMI-DADE,305-682-7000,HOSPITALS - ACUTE CARE,MIAMI BEACH HEALTHCARE GROUP L,PRIVATE,PRIVATE,HCA EAST FLORIDA DIVISION,INVESTOR-OWNED,0,407,FL000003,EFHL,100131, , , ,OTHER,50 MBPS TO 100 MBPS,10 MBPS TO 25 MBPS,OPTICAL FIBER,6 MBPS TO 10 MBPS,3 MBPS TO 6 MBPS,4,HTTP://AVENTURAHOSPITAL.COM/HOME/INDEX.DOT,1972,GEOPLAN,FDEM, ,25.96984456,-80.14533326,17RNJ8555772624,196,19.41168664,AVENTURA HOSPITAL - MEDICAL CENTER - CANCER CENTER,V,2011-05-10,2017-09-06,260,25.96984456,-80.14533326,260
285,514020090010,10053863,MEMORIAL HOSPITAL-MIRAMAR,1901 SW 172ND AVE,MIRAMAR,33029,BROWARD,954-538-5000,HOSPITALS - ACUTE CARE,SOUTH BROWARD HOSPITAL DISTRIC,PRIVATE,PRIVATE,MEMORIAL HEALTHCARE SYSTEM,PUBLIC/GOVERNMENT,0,178,N/A,EFHL,23960050, , , ,OPTICAL FIBER,25 MBPS TO 50 MBPS,10 MBPS TO 25 MBPS,OPTICAL FIBER,25 MBPS TO 50 MBPS,25 MBPS TO 50 MBPS,3,HTTP://WWW.MEMORIALMIRAMAR.COM/,2005,GEOPLAN,FDEM, ,25.99085055,-80.37275861,17RNJ6277874821,197,110.2560929,MEMORIAL HOSPITAL-MIRAMAR,V,2011-05-10,2017-09-06,261,25.99085055,-80.37275861,261
286,514121010010,10224872,SOUTH FLORIDA STATE HOSPITAL,800 E CYPRESS DR,HOLLYWOOD,33025,BROWARD,954-392-3000,HOSPITALS - PSYCHIATRIC,STATE OF FLORIDA,STATE,PUBLIC,"GEO CARE, INC.",PUBLIC,0,350,FL000010,EFHL,104001, , , , , , , , , , ,HTTP://WWW.THEGEOGROUPINC.COM/FACILITY.ASP?FID=33,1970,GEOPLAN,FDEM, ,26.00143248,-80.24978424,17RNJ7508076058,198,48.18733576,SOUTH FLORIDA STATE HOSPITAL,V,2012-11-19,2017-09-06,262,26.00143248,-80.24978424,262
287,514220060021,10225072,MEMORIAL REGIONAL HOSPITAL SOUTH,3600 WASHINGTON ST,HOLLYWOOD,33021,BROWARD,954-518-5000,HOSPITALS - ACUTE CARE,SOUTH BROWARD HOSPITAL DISTRIC,PRIVATE,PRIVATE,MEMORIAL HEALTHCARE SYSTEM,PUBLIC/GOVERNMENT,0,267,FL000192,EFHL,100225, , , ,OPTICAL FIBER,25 MBPS TO 50 MBPS,10 MBPS TO 25 MBPS,OPTICAL FIBER,25 MBPS TO 50 MBPS, ,3,HTTP://WWW.MEMORIALREGIONALSOUTH.COM,1974,GEOPLAN,FDEM, ,26.00202277,-80.17988636,17RNJ8207576165,199,8.3600957,MEMORIAL REGIONAL HOSPITAL SOUTH,V,2016-05-17,2017-09-06,263,26.00202277,-80.17988636,263
288,514013140010,10224997,MEMORIAL HOSPITAL WEST,703 N FLAMINGO RD,HOLLYWOOD,33028,BROWARD,954-436-5000,HOSPITALS - ACUTE CARE,SOUTH BROWARD HOSPITAL DISTRIC,PRIVATE,PRIVATE,MEMORIAL HEALTHCARE SYSTEM,PUBLIC/GOVERNMENT,0,384,FL000117,EFHL,111527, , , ,OPTICAL FIBER,25 MBPS TO 50 MBPS,10 MBPS TO 25 MBPS,OPTICAL FIBER,25 MBPS TO 50 MBPS,25 MBPS TO 50 MBPS,3,HTTP://WWW.MEMORIALWEST.COM/,1996,GEOPLAN,FDEM, ,26.013211,-80.31107753,17RNJ6893977329,200,35.5235697,MEMORIAL HOSPITAL WEST,V,2016-05-17,2017-09-06,264,26.013211,-80.31107753,264
289,514207021000,10224871,JOE DIMAGGIO CHILDREN'S HOSPITAL UNDER MEMORIAL HOSPITAL,3501 JOHNSON ST,HOLLYWOOD,33021,BROWARD,954-987-2000,HOSPITALS - ACUTE CARE,SOUTH BROWARD HOSPITAL DISTRIC,PRIVATE,PRIVATE,MEMORIAL HEALTHCARE SYSTEM,PUBLIC/GOVERNMENT,0,777,FL000009,EFHL,100038, , , ,OPTICAL FIBER,50 MBPS TO 100 MBPS,LESS THAN 200 KBPS,DIAL UP ANALOG,LESS THAN 200 KBPS,25 MBPS TO 50 MBPS,3,HTTP://WWW.MEMORIALREGIONAL.COM/,1952,GEOPLAN,FDEM,JOE DIMAGGIO CHILDREN'S HOSPITAL UNDER MEMORIAL,26.01848218,-80.18036676,17RNJ8201677988,201,27.64954556,JOE DIMAGGIO CHILDREN'S HOSPITAL UNDER MEMORIAL HOSPITAL,V,2016-05-17,2017-09-06,265,26.01848218,-80.18036676,265
290,514215017570,10224869,KINDRED HOSPITAL SOUTH FLORIDA - HOLLYWOOD,1859 VAN BUREN ST,HOLLYWOOD,33020,BROWARD,954-920-9000,HOSPITALS - ACUTE CARE,VENTAS REALTY LTD PRTNR,PRIVATE,PRIVATE,KINDRED EAST REGION OFFICE,INVESTOR-OWNED,0,119,FL000007,EFHM,100042, , , , , , , , , , ,HTTP://WWW.KHSFHOLLYWOOD.COM/,1950,GEOPLAN,FDEM, ,26.00992977,-80.14412987,17RNJ8564877064,202,1.66993692,KINDRED HOSPITAL SOUTH FLORIDA - HOLLYWOOD,V,2016-05-17,2017-09-06,266,26.00992977,-80.14412987,266
291,514207020980,10225071,LARKIN COMMUNITY HOSPITAL BEHAVIORAL HEALTH SERVICES,1201 N 37TH AVE,HOLLYWOOD,33021,BROWARD,954-962-1355,HOSPITALS - PSYCHIATRIC,HIGH RIDGE MANAGEMENT CORP,PRIVATE,PRIVATE,HIGH RIDGE MANAGEMENT CORP.,INVESTOR-OWNED,0,60,FL000191,EFHM,104015, , , , , , , , , , ,HTTP://WWW.HOLLYWOODPAVILION.COM/,1978,GEOPLAN,FDEM,LARKINCOMMUNITY HOSPITAL BEHAVIORALHEALTH SERVICES,26.02113122,-80.18054342,17RNJ8199678281,203,1.85942171,LARKIN COMMUNITY HOSPITAL BEHAVIORAL HEALTH SERVICES,V,2016-05-17,2017-09-06,267,26.02113122,-80.18054342,267
292,00414333060000010,10224939,PALMS WEST HOSPITAL - CHILDRENS HOSPITAL AT PALMS WEST,13001 SOUTHERN BLVD,LOXAHATCHEE,33470,PALM BEACH,561-798-3300,HOSPITALS - ACUTE CARE,PALMS WEST HOSPITAL LIMITED PA,PRIVATE,PRIVATE,HCA EAST FLORIDA DIVISION,INVESTOR-OWNED,0,204,FL000077,EFHL,110006, , , , , , , , , , ,HTTP://WWW.PALMSWESTHOSPITAL.COM/,1986,GEOPLAN,FDEM,INCLUDES THE CHILDREN'S HOSPITAL AT PALMS WEST,26.68380001,-80.25253331,17RNK7436851632,204,90.94998776,PALMS WEST HOSPITAL - CHILDRENS HOSPITAL AT PALMS WEST,V,2016-05-17,2017-09-06,268,26.68380001,-80.25253331,268
293,74434315000060100,10225101,GOOD SAMARITAN MEDICAL CENTER,1309 N FLAGLER DR,WEST PALM BEACH,33401,PALM BEACH,561-655-5511,HOSPITALS - ACUTE CARE,TENET GOOD SAMARITAN INC,PRIVATE,PRIVATE,TENET HEALTHSYSTEM,INVESTOR-OWNED,0,333,FL000225,EFHL,110403, , , , , , , , , , ,HTTP://WWW.GOODSAMARITANMC.COM/,1988,GEOPLAN,FDEM, ,26.72555649,-80.05197094,17RNK9428956390,205,21.05788927,GOOD SAMARITAN MEDICAL CENTER,V,2011-05-10,2017-09-06,269,26.72555649,-80.05197094,269
294,3 34 43 01 010 0345-001.0,10225039,HENDRY REGIONAL MEDICAL CENTER,524 W SAGAMORE AVE,CLEWISTON,33440,HENDRY,863-983-9121,HOSPITALS - ACUTE CARE,HENDRY CO HOSPITAL AUTHORITY,PRIVATE,PRIVATE,QUORUM HEALTH RESOURCES,PUBLIC/GOVERNMENT,0,25,FL000159,EFHS,100098,OTHER,3 MBPS TO 6 MBPS,3 MBPS TO 6 MBPS, , , , , , ,2,HTTP://WWW.HENDRYREGIONAL.ORG/,1983,GEOPLAN,FDEM, ,26.75247128,-80.94133343,17RNK0583359021,206,10.32034693,HENDRY REGIONAL MEDICAL CENTER,V,2011-05-10,2017-09-06,270,26.75247128,-80.94133343,270
295,74434304150000021,10225102,JEROME GOLDEN CENTER FOR BEHAVIORAL HEALTH,1041 45TH ST,WEST PALM BEACH,33407,PALM BEACH,561-383-8000,HOSPITALS - PSYCHIATRIC,JEROME GOLDEN CENTER FOR BEHAV,PRIVATE,PRIVATE,N/A,NOT-FOR-PROFIT,0,44,FL000226,EFHS,104008, , , , , , , , , , ,HTTP://WWW.OAKWOODCENTER.ORG/,1970,GEOPLAN,FDEM,JEROME GOLDEN CENTER FOR BEHAVIORAL HEALTH,26.75398522,-80.06749813,17RNK9272159527,207,11.27871569,JEROME GOLDEN CENTER FOR BEHAVIORAL HEALTH,V,2016-05-17,2017-09-06,271,26.75398522,-80.06749813,271
296,74434304330020010,10225103,ST MARY'S MEDICAL CENTER,901 45TH ST,WEST PALM BEACH,33407,PALM BEACH,561-844-6300,HOSPITALS - ACUTE CARE,TENET ST MARYS INC,PRIVATE,PRIVATE,TENET HEALTHSYSTEM,INVESTOR-OWNED,0,464,FL000227,EFHL,100010, , , ,SATELLITE TO A DISH,50 MBPS TO 100 MBPS,1.5 MBPS TO 3 MBPS,OTHER COPPER WIRELINE,50 MBPS TO 100 MBPS,50 MBPS TO 100 MBPS,3,HTTP://WWW.STMARYSMC.COM,1938,GEOPLAN,FDEM,TWO HOSPITALS ON ONE PARCEL,26.75590627,-80.06186977,17RNK9327959744,208,81.68736599,ST MARY'S MEDICAL CENTER,V,2016-05-17,2017-09-06,272,26.75590627,-80.06186977,272
297,74434304330020010,10053884,PALM BEACH CHILDREN'S HOSPITAL - ST. MARY'S,901 45TH ST,WEST PALM BEACH,33407,PALM BEACH,561-844-6300,HOSPITALS - CHILDREN/ACUTE CARE,TENET ST MARYS INC,PRIVATE,PRIVATE,N/A,INVESTOR-OWNED,0,81,N/A,EFHM,N/A, , , , , , , , , , ,HTTP://WWW.STMARYSMC.COM,1938,GEOPLAN,FDEM,PALM BEACH CHILDREN'S HOSPITAL - ST. MARY'S,26.75532749,-80.06197578,17RNK9326959680,209,81.64089513,PALM BEACH CHILDREN'S HOSPITAL - ST. MARY'S,V,2016-05-17,2017-09-06,273,26.75532749,-80.06197578,273
298,74434306000001030,10225100,JFK MEDICAL CENTER NORTH CAMPUS - WEST PALM HOSPITAL - FORMERLY COLUMBIA HOSPITAL,2201 45TH ST,WEST PALM BEACH,33407,PALM BEACH,561-842-6141,HOSPITALS - ACUTE CARE,COMMUNITY HOSPITAL OF THE P B,PRIVATE,PRIVATE,HCA EAST FLORIDA DIVISION,INVESTOR-OWNED,0,245,FL000224,EFHL,100234, , , ,OTHER COPPER WIRELINE,GREATER THAN 1 GBPS,200 KBPS TO 768 KBPS,DSL ASYMMETRIC,3 MBPS TO 6 MBPS,3 MBPS TO 6 MBPS,3,HTTP://WWW.COLUMBIAHOSPITAL.COM/,1975,GEOPLAN,FDEM,JFK MEDICAL CENTER NORTH CAMPUS-WEST PALM HOSPITAL,26.76145059,-80.08763274,17RNK9071360339,210,43.21582809,JFK MEDICAL CENTER NORTH CAMPUS - WEST PALM HOSPITAL - FORMERLY COLUMBIA HOSPITAL,V,2016-05-17,2017-09-06,274,26.76145059,-80.08763274,274
299,56424225000007070,10224996,WEST PALM BEACH VETERANS AFFAIRS MEDICAL CENTER,7305 N MILITARY TRAIL,WEST PALM BEACH,33410,PALM BEACH,561-422-8262,HOSPITALS - FEDERAL,UNITED STATES OF AMERICA,FEDERAL,PUBLIC,FEDERAL GOVERNMENT,PUBLIC,0,270,FL000116,EFHL,N/A, , , , , , , , , , ,HTTP://WWW.WESTPALMBEACH.VA.GOV/,1995,GEOPLAN,FDEM, ,26.78506553,-80.11208539,17RNK8826462938,211,69.18320782,WEST PALM BEACH VETERANS AFFAIRS MEDICAL CENTER,V,2012-11-19,2017-09-06,275,26.78506553,-80.11208539,275
300,52434207410010000,10224941,PALM BEACH GARDENS MEDICAL CENTER,3360 BURNS RD,PALM BEACH GARDENS,33410,PALM BEACH,561-622-1411,HOSPITALS - ACUTE CARE,HEALTH CARE PROPERTY INVESTORS,PRIVATE,PRIVATE,TENET HEALTHSYSTEM,INVESTOR-OWNED,0,199,FL000079,EFHL,100176, , , , , , , , , , ,HTTP://WWW.PBGMC.COM/EN-US/PAGES/DEFAULT.ASPX,1964,GEOPLAN,FDEM, ,26.82958874,-80.08666516,17RNK9075567887,212,22.02003905,PALM BEACH GARDENS MEDICAL CENTER,V,2011-05-10,2017-09-06,276,26.82958874,-80.08666516,276
301,30424112000001120,10225083,JUPITER MEDICAL CENTER,1210 S OLD DIXIE HWY,JUPITER,33458,PALM BEACH,561-747-2234,HOSPITALS - ACUTE CARE,JUPITER MEDICAL CENTER INC,PRIVATE,PRIVATE,JUPITER MEDICAL CENTER INC,NOT-FOR-PROFIT,0,207,FL000233,EFHL,100253, , , ,OTHER,10 MBPS TO 25 MBPS, ,MPLS 10 MBPS,10 MBPS TO 25 MBPS,10 MBPS TO 25 MBPS,3,HTTP://WWW.JUPITERMED.COM/,1978,GEOPLAN,FDEM, ,26.92280008,-80.0962654,17RNK8972878205,213,35.91932315,JUPITER MEDICAL CENTER,V,2016-05-17,2017-09-06,277,26.92280008,-80.0962654,277
302,412306284002,10224953,BAYFRONT HEALTH PUNTA GORDA - FORMERLY CHARLOTTE REGIONAL MEDICAL CENTER,809 E MARION AVE,PUNTA GORDA,33950,CHARLOTTE,941-639-3131,HOSPITALS - ACUTE CARE,PUNTA GORDA MEDICAL CENTER INC,PRIVATE,PRIVATE,HEALTH MANAGEMENT ASSOCIATES,INVESTOR-OWNED,0,208,FL000091,EFHL,100047, , , , , , , , , , ,HTTP://WWW.CHARLOTTEREGIONAL.COM/,1956,GEOPLAN,FDEM,BAYFRONT HEALTH PUNTA GORDA,26.94116088,-82.04015708,17RLK9674480343,214,13.75766945,BAYFRONT HEALTH PUNTA GORDA - FORMERLY CHARLOTTE REGIONAL MEDICAL CENTER,V,2016-05-17,2017-09-06,278,26.94116088,-82.04015708,278
303,412306286001,10053887,RIVERSIDE BEHAVIORAL CENTER - BAYFRONT HEALTH,733 E OLYMPIA AVE,PUNTA GORDA,33950,CHARLOTTE,941-637-2474,HOSPITALS - PSYCHIATRIC,PUNTA GORDA MEDICAL CENTER INC,PRIVATE,PRIVATE,N/A,INVESTOR-OWNED,0,52,N/A,EFHM,N/A, , , , , , , , , , ,HTTP://WWW.CHARLOTTEREGIONAL.COM,1966,GEOPLAN,FDEM,PART OF BAYFRONT HEALTH,26.93899856,-82.04034463,17RLK9672380104,215,4.64267118,RIVERSIDE BEHAVIORAL CENTER - BAYFRONT HEALTH,V,2012-11-19,2017-09-06,279,26.93899856,-82.04034463,279
304,0856070001,10225082,ENGLEWOOD COMMUNITY HOSPITAL,700 MEDICAL BLVD,ENGLEWOOD,34223,SARASOTA,941-475-6571,HOSPITALS - ACUTE CARE,ENGLEWOOD COMMUNITY HOSPITAL I,PRIVATE,PRIVATE,HCA WEST FLORIDA DIVISION,INVESTOR-OWNED,0,100,FL000232,EFHM,110004, , , ,DON'T KNOW,DON'T KNOW,DON'T KNOW,DON'T KNOW,DON'T KNOW,DON'T KNOW,4,HTTP://WWW.ENGLEWOODCOMMHOSPITAL.COM/,1985,GEOPLAN,FDEM, ,26.95002017,-82.32654433,17RLK6832281590,216,12.04555432,ENGLEWOOD COMMUNITY HOSPITAL,V,2011-05-10,2017-09-06,280,26.95002017,-82.32654433,280
305,244042001020000005,10224993,SANDY PINES PSYCHIATRIC HOSPITAL,11301 SE TEQUESTA TER,TEQUESTA,33469,MARTIN,561-744-0211,HOSPITALS - PSYCHIATRIC,SP BEHAVIORAL LLC,PRIVATE,PRIVATE,PSYCHIATRIC SOLUTIONS INC,INVESTOR-OWNED,0,80,FL000113,EFHM,N/A, , , , , , , , , , ,HTTP://WWW.SANDYPINESHOSPITAL.COM,1989,GEOPLAN,FDEM, ,26.97682692,-80.10220716,17RNK8909584185,217,19.50754495,SANDY PINES PSYCHIATRIC HOSPITAL,V,2011-05-10,2017-09-06,281,26.97682692,-80.10220716,281
306,402215451001,10225076,FAWCETT MEMORIAL HOSPITAL,21298 OLEAN BLVD,PORT CHARLOTTE,33952,CHARLOTTE,941-629-1181,HOSPITALS - ACUTE CARE,FAWCETT MEMORIAL HOSPITAL INC,PRIVATE,PRIVATE,HCA WEST FLORIDA DIVISION,INVESTOR-OWNED,0,237,FL000196,EFHL,100236, , , ,DON'T KNOW,DON'T KNOW,DON'T KNOW,DON'T KNOW,DON'T KNOW,DON'T KNOW,4,HTTP://WWW.FAWCETTHOSPITAL.COM/,1968,GEOPLAN,FDEM, ,26.98860375,-82.09796163,17RLK9105185647,218,9.77547356,FAWCETT MEMORIAL HOSPITAL,V,2016-05-17,2017-09-06,282,26.98860375,-82.09796163,282
307,402215452001,10225075,BAYFRONT HEALTH PORT CHARLOTTE - FORMERLY PEACE RIVER REGIONAL MEDICAL CENTER,2500 HARBOR BLVD,PORT CHARLOTTE,33952,CHARLOTTE,941-766-4122,HOSPITALS - ACUTE CARE,PORT CHARLOTTE HMA INC,PRIVATE,PRIVATE,HEALTH MANAGEMENT ASSOCIATES,INVESTOR-OWNED,0,254,FL000195,EFHL,100077,CABLE MODEM,DON'T KNOW,DON'T KNOW, , , , , , ,2,HTTP://WWW.PEACERIVERREGIONAL.COM,1962,GEOPLAN,FDEM,BAYFRONT HEALTH PORT CHARLOTTE,26.98914778,-82.09561081,17RLK9128485705,219,16.09531481,BAYFRONT HEALTH PORT CHARLOTTE - FORMERLY PEACE RIVER REGIONAL MEDICAL CENTER,V,2016-05-17,2017-09-06,283,26.98914778,-82.09561081,283
308,0429060017,10225097,VENICE REGIONAL MEDICAL CENTER,540 THE RIALTO,VENICE,34285,SARASOTA,941-485-7711,HOSPITALS - ACUTE CARE,VENICE HMA LLC,PRIVATE,PRIVATE,HEALTH MANAGEMENT ASSOCIATES,INVESTOR-OWNED,0,312,FL000221,EFHL,100070, , , , , , , , , , ,HTTP://WWW.VENICEREGIONAL.COM,1955,GEOPLAN,FDEM, ,27.09078586,-82.44468738,17RLK5677197313,220,9.16154829,VENICE REGIONAL MEDICAL CENTER,V,2011-05-10,2017-09-06,284,27.09078586,-82.44468738,284
309,553841000068000407,N/A,MARTIN HOSPITAL SOUTH,2100 SE SALERNO RD,STUART,34997,MARTIN,772-223-2300,HOSPITALS - ACUTE CARE,MARTIN MEMORIAL MEDICAL CENTER,PRIVATE,PRIVATE,"MARTIN MEMORIAL HEALTH SYSTEMS, INC.",NOT-FOR-PROFIT,0,100,N/A,EFHM,120009,OPTICAL FIBER,1.5 MBPS TO 3 MBPS,1.5 MBPS TO 3 MBPS, , , , , , ,2,HTTP://WWW.MMHS.COM/,1992,GEOPLAN,FHA,MARTIN HOSPITAL SOUTH,27.13306201,-80.22411602,17RNL7689001411,221,27.3517085,MARTIN HOSPITAL SOUTH,V,2016-05-17,2017-09-06,285,27.13306201,-80.22411602,285
310,043841020004000004,10224981,MARTIN MEDICAL CENTER,200 SE HOSPITAL AVE,STUART,34994,MARTIN,772-287-5200,HOSPITALS - ACUTE CARE,MARTIN MEMORIAL MEDICAL CENTER,PRIVATE,PRIVATE,"MARTIN MEMORIAL HEALTH SYSTEMS, INC.",NOT-FOR-PROFIT,0,244,FL000216,EFHL,100044,OPTICAL FIBER,1.5 MBPS TO 3 MBPS,1.5 MBPS TO 3 MBPS, , , , , , ,2,HTTP://WWW.MMHS.COM/,1986,GEOPLAN,FDEM,MARTIN MEDICAL CENTER,27.20001701,-80.24288891,17RNL7498508816,222,15.73655199,MARTIN MEDICAL CENTER,V,2016-05-17,2017-09-06,286,27.20001701,-80.24288891,286
311,30-37-25-0A00-1230-0000,10224984,DESOTO MEMORIAL HOSPITAL,900 N ROBERTS AVE,ARCADIA,34266,DESOTO,863-494-3535,HOSPITALS - ACUTE CARE,DESOTO MEMORIAL HOSPTIAL INC,PRIVATE,PRIVATE,QUORUM HEALTH RESOURCES,NOT-FOR-PROFIT,0,49,FL000104,EFHS,100175, , , , , , , , , , ,HTTP://WWW.DMH.ORG/,1962,GEOPLAN,FDEM, ,27.22740445,-81.851108,17RML1572611909,223,21.21932327,DESOTO MEMORIAL HOSPITAL,V,2011-05-10,2017-09-06,287,27.22740445,-81.851108,287
312,1-09-37-35-0A00-00011-0000,10224929,RAULERSON HOSPITAL,1796 US HWY 441 N,OKEECHOBEE,34972,OKEECHOBEE,863-763-2151,HOSPITALS - ACUTE CARE,OKEECHOBEE HOSPITAL INC,PRIVATE,PRIVATE,HCA EAST FLORIDA DIVISION,INVESTOR-OWNED,0,100,FL000067,EFHM,100252, , , , , , , , , , ,HTTP://WWW.RAULERSONHOSPITAL.COM/,1979,GEOPLAN,FDEM, ,27.25975336,-80.82888796,17RNL1693815217,224,11.02511462,RAULERSON HOSPITAL,V,2011-05-10,2017-09-06,288,27.25975336,-80.82888796,288
313,3420-750-0005-000-8,10224951,ST LUCIE MEDICAL CENTER,1800 SE TIFFANY AVE,PORT ST LUCIE,34952,ST LUCIE,772-335-4000,HOSPITALS - ACUTE CARE,HCA,PRIVATE,PRIVATE,HCA EAST FLORIDA DIVISION,INVESTOR-OWNED,0,229,FL000089,EFHL,100260, , , ,OTHER,50 MBPS TO 100 MBPS,10 MBPS TO 25 MBPS,OPTICAL FIBER,6 MBPS TO 10 MBPS,3 MBPS TO 6 MBPS,4,HTTP://WWW.STLUCIEMED.COM/,1983,GEOPLAN,FDEM, ,27.28887167,-80.294461,17RNL6982118628,225,16.95530495,ST LUCIE MEDICAL CENTER,V,2011-05-10,2017-09-06,289,27.28887167,-80.294461,289
314,292135000000132,10053883,LAKESIDE BEHAVIORAL HEALTHCARE - KENNEDY CAMPUS,434 W KENNEDY BLVD,ORLANDO,32810,ORANGE,407-875-3700,HOSPITALS - PSYCHIATRIC,ASPIRE HEALTH PARTNERS INC,PRIVATE,PRIVATE,N/A,NOT-FOR-PROFIT,0,136,N/A,EFHM,N/A, , , , , , , , , , ,HTTP://WWW.MED.UCF.EDU/ACADEMICS/MD/CLINICALPARTNERS/LAKESIDE.ASP,1992,GEOPLAN,FDEM,MERGED INTO ASPIRE HEALTH,28.61763332,-81.39152315,17RMM6172665687,288,21.50496539,LAKESIDE BEHAVIORAL HEALTHCARE - KENNEDY CAMPUS,V,2016-05-17,2017-09-06,314,28.61763332,-81.39152315,314
315,292136846401011,N/A,LA AMISTAD RESIDENTIAL TREATMENT CENTER,1650 N PARK AVE,MAITLAND,32751,ORANGE,407-647-0660,HOSPITALS - PSYCHIATRIC,LA AMSITAD RESIDENTIAL TREATME,PRIVATE,PRIVATE,UNIVERSAL HEALTH SERVICES INC,INVESTOR-OWNED,0,40,N/A,EFHS,110051, , , , , , , , , , ,HTTP://WWW.LAMISTAD.COM/,1986,GEOPLAN,FHA, ,28.61302074,-81.36422617,17RMM6439365167,289,3.00488422,LA AMISTAD RESIDENTIAL TREATMENT CENTER,V,2012-11-19,2017-09-06,315,28.61302074,-81.36422617,315
316,21 352800  529,10225095,PARRISH MEDICAL CENTER,951 N WASHINGTON AVE,TITUSVILLE,32796,BREVARD,321-268-6111,HOSPITALS - ACUTE CARE,NORTH BREVARD COUNTY HOSPITAL,PRIVATE,PRIVATE,PARRISH MEDICAL CENTER,PUBLIC/GOVERNMENT,0,210,FL000219,EFHL,100028, , , ,OPTICAL FIBER,GREATER THAN 1 GBPS,10 MBPS TO 25 MBPS,OPTICAL FIBER,GREATER THAN 1 GBPS,GREATER THAN 1 GBPS,4,HTTP://WWW.PARRISHMED.COM/,1991,GEOPLAN,FDEM, ,28.63059151,-80.8240848,17RNM1719567072,290,52.4709379,PARRISH MEDICAL CENTER,V,2011-05-10,2017-09-06,316,28.63059151,-80.8240848,316
317,13212953900000010,N/A,FLORIDA HOSPITAL ALTAMONTE,601 E ALTAMONTE DR,ALTAMONTE SPRINGS,32701,SEMINOLE,407-303-2200,HOSPITALS - ACUTE CARE,ADVENTIST HEALTH STSTEMS/ SUNB,PRIVATE,PRIVATE,ADVENTIST HEALTH SYSTEM,NOT-FOR-PROFIT,0,398,N/A,EFHL,120004, , , ,OPTICAL FIBER, , ,OPTICAL FIBER,100 MBPS TO 1 GBPS,100 MBPS TO 1 GBPS,3,HTTP://WWW.FLORIDAHOSPITALALTAMONTE.COM,1974,GEOPLAN,FHA, ,28.66565648,-81.37024287,17RMM6382371000,291,38.09895494,FLORIDA HOSPITAL ALTAMONTE,V,2016-05-17,2017-09-06,317,28.66565648,-81.37024287,317
318,27 373300  252,N/A,KINDRED HOSPITAL MELBOURNE,765 W NASA BLVD,MELBOURNE,32901,BREVARD,321-733-5725,HOSPITALS - ACUTE CARE,CITY OF MELBOURNE,MUNICIPAL,PUBLIC,KINDRED EAST REGION OFFICE,INVESTOR-OWNED,0,60,N/A,EFHM,23960090, , , , , , , , , , ,HTTP://WWW.KHMELBOURNE.COM/,2009,GEOPLAN,IMAGE RESEARCH, ,28.09283665,-80.63226468,17RNM3612607541,292,4.98960915,KINDRED HOSPITAL MELBOURNE,V,2011-04-11,2017-09-06,318,28.09283665,-80.63226468,318
319,00374319000001050,N/A,LAKESIDE MEDICAL CENTER,39200 HOOKER HWY,BELLE GLADE,33430,PALM BEACH,561-996-6571,HOSPITALS - ACUTE CARE,STATE OF FLORIDA,STATE,PUBLIC,DISTRICT HOSPITAL HOLDINGS INC,NOT-FOR-PROFIT,0,70,N/A,EFHM,100130, , , , , , , , , , ,HTTP://WWW.LAKESIDEMEDICAL.ORG/INDEX.ASPX?PAGE=260,2009,GEOPLAN,IMAGE RESEARCH, ,26.72454689,-80.67097199,17RNK3272455969,293,49.98907299,LAKESIDE MEDICAL CENTER,V,2011-04-11,2017-09-06,319,26.72454689,-80.67097199,319
320,1677361400R,N/A,MAYO CLINIC,4500 SAN PABLO RD,JACKSONVILLE,32224,DUVAL,904-953-2000,HOSPITALS - ACUTE CARE,MAYO CLINIC FLORIDA,PRIVATE,PRIVATE,MAYO CLINIC FLORIDA,NOT-FOR-PROFIT,0,304,N/A,EFHL,100151, , , ,OPTICAL FIBER,100 MBPS TO 1 GBPS,10 MBPS TO 25 MBPS,OPTICAL FIBER,100 MBPS TO 1 GBPS,100 MBPS TO 1 GBPS,4,HTTP://WWW.MAYOCLINIC.ORG/MAYO-CLINIC-HOSPITAL-JAX/,1995,GEOPLAN,IMAGE RESEARCH, ,30.26418282,-81.44066892,17RMP5761148142,294,371.4190043,MAYO CLINIC,V,2016-05-17,2017-09-06,320,30.26418282,-81.44066892,320
321,1826250000077000050,N/A,MORTON PLANT NORTH BAY HOSPITAL RECOVERY CENTER,21808 STATE ROAD 54,LUTZ,33549,PASCO,813-428-6100,HOSPITALS - PSYCHIATRIC,SUNSHINE HOLDINGS LLC,PRIVATE,PRIVATE,MORTON PLANT HOSPITAL ASSOCIATION INC,NOT-FOR-PROFIT,0,72,N/A,EFHM,23960102, , , , , , , , , , ,HTTP://WWW.MORTONPLANT.COM/BODY.CFM?ID=1451,1990,GEOPLAN,IMAGE RESEARCH, ,28.18683201,-82.45515074,17RLM5716518756,295,6.49800446,MORTON PLANT NORTH BAY HOSPITAL RECOVERY CENTER,V,2016-05-17,2017-09-06,321,28.18683201,-82.45515074,321
322,3078360000250,N/A,SOUTH FLORIDA EVALUATION AND TREATMENT CENTER,18680 SW 376 ST,FLORIDA CITY,33034,MIAMI-DADE,786-349-6000,HOSPITALS - PSYCHIATRIC,STATE OF FLORIDA,STATE,PUBLIC,"GEO CARE, INC.",PUBLIC,0,238,N/A,EFHL,120014, , , , , , , , , , ,HTTP://WWW.THEGEOGROUPINC.COM/FACILITY.ASP?FID=82,2008,GEOPLAN,IMAGE RESEARCH, ,25.41927825,-80.49142364,17RNJ5114511473,296,40.77656737,SOUTH FLORIDA EVALUATION AND TREATMENT CENTER,V,2011-04-11,2017-09-06,322,25.41927825,-80.49142364,322
323,2720330630010,N/A,ST CATHERINE'S WEST REHABILITATION HOSPITAL,8850 NW 122ND ST,HIALEAH GARDENS,33018,MIAMI-DADE,305-351-7181,HOSPITALS - REHABILITATION,CATHOLIC HEALTH SERVICES INC,PRIVATE,PRIVATE,CATHOLIC HEALTH SERVICES,NOT-FOR-PROFIT,0,40,N/A,EFHS,23960097, , , , , , , , , , ,HTTP://WWW.CATHOLICHEALTHSERVICES.ORG/?ID=372&SID=1,2008,GEOPLAN,IMAGE RESEARCH, ,25.88377579,-80.34297944,17RNJ6581962978,297,2.46755509,ST CATHERINE'S WEST REHABILITATION HOSPITAL,V,2011-04-11,2017-09-06,323,25.88377579,-80.34297944,323
324,182716ZZZ000000580600U,N/A,ST JOSEPHS HOSPITAL NORTH,4211 VAN DYKE RD,LUTZ,33558,HILLSBOROUGH,813-443-7000,HOSPITALS - ACUTE CARE,ST JOSEPH'S HEALTH CARE CENTER,PRIVATE,PRIVATE,BAYCARE - ST. JOSEPH'S-BAPTIST HEALTH CAR,NOT-FOR-PROFIT,0,76,N/A,EFHM,23960100, , , , , , , , , , ,HTTP://WWW.SJBHEALTH.ORG/,2006,GEOPLAN,IMAGE RESEARCH, ,28.12946838,-82.50966782,17RLM5173412465,298,46.27568003,ST JOSEPHS HOSPITAL NORTH,V,2011-04-11,2017-09-06,324,28.12946838,-82.50966782,324
325,18252200802A2000000,N/A,FLORIDA HOSPITAL AT CONNERTON,9441 HEALTH CENTER DR,LAND O' LAKES,34637,PASCO,866-787-5822,HOSPITALS - ACUTE CARE,UNIVERSITY COMMUNITY HOSPITAL,PRIVATE,PRIVATE,UNIVERSITY COMMUNITY HOSPITAL INC,NOT-FOR-PROFIT,0,50,N/A,EFHM,23960082, , , , , , , , , , ,HTTP://WWW.UCHLTAC.ORG/,2008,GEOPLAN,IMAGE RESEARCH,FLORIDA HOSPITAL AT CONNERTON,28.29545872,-82.48998061,17RLM5389430833,299,33.17154175,FLORIDA HOSPITAL AT CONNERTON,V,2016-05-17,2017-09-06,325,28.29545872,-82.48998061,325
326,231924110000000504,N/A,LEESBURG REHABILITATION HOSPITAL,700 N PALMETTO ST,LEESBURG,34748,LAKE,352-323-5762,HOSPITALS - REHABILITATION,LRMC NORTH INC,PRIVATE,PRIVATE,LEESBURG REGIONAL MEDICAL CENTER INC,NOT-FOR-PROFIT,0,22,N/A,EFHS,100214, , , , , , , , , , ,HTTP://WWW.CFHALLIANCE.ORG/SVC_WELLNESSCENTER.HTM,1973,GEOPLAN,IMAGE RESEARCH,LEESBURG REHABILITATION HOSPITAL,28.81821592,-81.87433608,17RMM1468988160,300,11.35999304,LEESBURG REHABILITATION HOSPITAL,V,2016-05-17,2017-09-06,326,28.81821592,-81.87433608,326
327,32143100000040,N/A,FLORIDA HOSPITAL MEMORIAL MEDICAL CENTER,301 MEMORIAL MEDICAL PKWY,DAYTONA BEACH,32117,VOLUSIA,386-231-6000,HOSPITALS - ACUTE CARE,MEMORIAL HEALTH SYSTEMS INC,PRIVATE,PRIVATE,ADVENTIST HEALTH SYSTEM,NOT-FOR-PROFIT,0,277,N/A,EFHL,100169,OPTICAL FIBER,100 MBPS TO 1 GBPS,100 MBPS TO 1 GBPS, , , , , , ,2,HTTP://WWW.FLORIDAHOSPITALMEMORIAL.ORG,2010,GEOPLAN,IMAGE RESEARCH, ,29.24308983,-81.10770328,17RMN8953434923,301,138.4315382,FLORIDA HOSPITAL MEMORIAL MEDICAL CENTER,V,2011-04-11,2017-09-06,327,29.24308983,-81.10770328,327
328,15 28 27 00000 440 0300,N/A,BAYCARE ALLIANT HOSPITAL - 1ST FLOOR OF MEASE DUNEDIN HOSPITAL,601 MAIN ST,DUNEDIN,34698,PINELLAS,727-736-9999,HOSPITALS - ACUTE CARE,MEASE HOSPITAL INC,PRIVATE,PRIVATE,BAYCARE HEALTH SYSTEM,NOT-FOR-PROFIT,0,48,N/A,EFHS,23960085, , , , , , , , , , ,HTTP://WWW.BAYCARE.ORG/,1959,GEOPLAN,GEOPLAN,LOCATED ON 1ST FLOOR OF MEASE DUNEDIN HOSPITAL,28.0140368,-82.78291198,17RLM2470600039,302,35.63627246,BAYCARE ALLIANT HOSPITAL - 1ST FLOOR OF MEASE DUNEDIN HOSPITAL,V,2016-05-17,2017-09-06,328,28.0140368,-82.78291198,328
329,03040-155R,N/A,SACRED HEART HOSPITAL ON THE GULF,3801 E US HWY 98,PORT ST JOE,32456,GULF,850-229-5600,HOSPITALS - ACUTE CARE,SACRED HEART HEALTH SYSTEM INC,PRIVATE,PRIVATE,SACRED HEART HEALTH SYSTEM INC,NOT-FOR-PROFIT,19,19,N/A,EFHS,23960084,OPTICAL FIBER,10 MBPS TO 25 MBPS,10 MBPS TO 25 MBPS, , , , , , ,2,HTTP://WWW.SACRED-HEART.ORG/GULF/,2009,GEOPLAN,IMAGE RESEARCH, ,29.77895285,-85.28777607,16RFT6551795520,303,36.36149966,SACRED HEART HOSPITAL ON THE GULF,V,2011-04-19,2017-09-06,329,29.77895285,-85.28777607,329
330,0802795000R,N/A,BAPTIST MEDICAL CENTER JACKSONVILLE,800 PRUDENTIAL DR,JACKSONVILLE,32207,DUVAL,904-567-4000,HOSPITALS - ACUTE CARE,SOUTHERN BAPTIST HOSPITAL OF F,PRIVATE,PRIVATE,BAPTIST HEALTH,NOT-FOR-PROFIT,0,486,N/A,EFHL,N/A, , , , , , , , , , ,HTTP://COMMUNITY.E-BAPTISTHEALTH.COM/BMC/DOWNTOWN/INDEX.HTML,2006,GEOPLAN,FHA,BAPTIST MEDICAL CENTER JACKSONVILLE,30.31521697,-81.66492315,17RMP3607353902,304,33.23715037,BAPTIST MEDICAL CENTER JACKSONVILLE,V,2016-05-17,2017-09-06,330,30.31521697,-81.66492315,330
331,302425605201000,N/A,NEMOURS CHILDREN'S HOSPITAL,13535 NEMOURS PKWY,ORLANDO,32827,ORANGE,407-567-4000,HOSPITALS - ACUTE CARE,NEMOURS FOUNDATION,PRIVATE,PRIVATE,N/A,NOT-FOR-PROFIT,0,100,N/A,EFHM,N/A, , , , , , , , , , ,HTTP://WWW.NEMOURS.ORG/ABOUT/LOCATION/NCHORLANDO.HTML,2012,GEOPLAN,FHA, ,28.37724309,-81.27294554,17RMM7325739023,305,59.99695996,NEMOURS CHILDREN'S HOSPITAL,V,2016-05-17,2017-09-06,331,28.37724309,-81.27294554,331
332,302216000000016,N/A,ORLANDO VA MEDICAL CENTER,5201 RAYMOND ST,ORLANDO,32803,ORANGE,407-629-1599,HOSPITALS - FEDERAL,UNITED STATES OF AMERICA,FEDERAL,PUBLIC,FEDERAL GOVERNMENT,PUBLIC,0,134,N/A,EFHM,N/A, , , , , , , , , , ,HTTP://WWW.ORLANDO.VA.GOV/INDEX.ASP,1975,GEOPLAN,FHA, ,28.57995737,-81.32172252,17RMM6853861492,306,44.59585902,ORLANDO VA MEDICAL CENTER,V,2016-05-17,2017-09-06,332,28.57995737,-81.32172252,332
333,26 361602    A    1,N/A,VIERA HOSPITAL,8745 N WICKHAM RD,MELBOURNE,32940,BREVARD,321-434-9000,HOSPITALS - ACUTE CARE,HEALTH FIRST INC,PRIVATE,PRIVATE,"HEALTH FIRST, INC.",NOT-FOR-PROFIT,0,84,N/A,EFHM,N/A, , , , , , , , , , ,HTTP://WWW.VIERAHOSPITAL.ORG/HOSPITALS_SERVICES/VIERA/,2008,GEOPLAN,FHA, ,28.22826792,-80.72950597,17RNM2653922519,307,50.64903769,VIERA HOSPITAL,V,2012-11-16,2017-09-06,333,28.22826792,-80.72950597,333
334,2037090016,10053871,BAYSIDE CENTER FOR BEHAVIORAL HEALTH AT SARASOTA MEMORIAL HOSPITAL,1650 S OSPREY AVE,SARASOTA,34239,SARASOTA,941-917-7760,HOSPITALS - PSYCHIATRIC,SARASOTA COUNTY,COUNTY,PUBLIC,N/A,PUBLIC/GOVERNMENT,0,86,N/A,EFHM,N/A, , , , , , , , , , ,HTTP://WWW.SMH.COM/P.ASPX?P=17,1960,GEOPLAN,FDEM,AT SARASOTA MEMORIAL HOSPITAL,27.31870398,-82.53413814,17RLL4821122668,232,3.56059373,BAYSIDE CENTER FOR BEHAVIORAL HEALTH AT SARASOTA MEMORIAL HOSPITAL,V,2016-05-17,2017-09-06,334,27.31870398,-82.53413814,334
335,3406-501-0014-500-9,10225069,NEW HORIZONS OF TREASURE COAST - MENTAL HEALTH CENTER,4500 W MIDWAY RD,FORT PIERCE,34981,ST LUCIE,772-468-5600,HOSPITALS - PSYCHIATRIC,NEW HORIZONS OF THE TREAS CST,PRIVATE,PRIVATE,"NEW HORIZONS OF THE TC, INC.",INVESTOR-OWNED,0,150,FL000189,EFHL,N/A, , , , , , , , , , ,HTTP://WWW.NHTCINC.ORG/,1997,GEOPLAN,FDEM, ,27.37594566,-80.37146421,17RNL6215228233,233,32.7744188,NEW HORIZONS OF TREASURE COAST - MENTAL HEALTH CENTER,V,2011-05-10,2017-09-06,335,27.37594566,-80.37146421,335
336,587907159,N/A,LAKEWOOD RANCH MEDICAL CENTER,8330 LAKEWOOD RANCH BLVD,BRADENTON,34202,MANATEE,941-782-2100,HOSPITALS - ACUTE CARE,MANATEE MEMORIAL HOSPITAL LP,PRIVATE,PRIVATE,UNIVERSAL HEALTH SERVICES INC,INVESTOR-OWNED,0,120,N/A,EFHM,23960046, , , , , , , , , , ,HTTP://WWW.LAKEWOODRANCHMEDICALCENTER.COM,2004,GEOPLAN,FHA, ,27.39082314,-82.43545806,17RLL5806830542,234,30.55967084,LAKEWOOD RANCH MEDICAL CENTER,V,2011-05-10,2017-09-06,336,27.39082314,-82.43545806,336
337,2416-504-0200-000-2,10225010,LAWNWOOD REGIONAL MEDICAL CENTER AND HEART INSTITUTE,1700 S 23RD ST,FORT PIERCE,34950,ST LUCIE,772-461-4000,HOSPITALS - ACUTE CARE,HCA,PRIVATE,PRIVATE,HCA EAST FLORIDA DIVISION,INVESTOR-OWNED,0,370,FL000130,EFHL,100246, , , , , , , , , , ,HTTP://WWW.LAWNWOODMED.COM/,1977,GEOPLAN,FDEM, ,27.43200284,-80.34566191,17RNL6467134455,235,24.2903885,LAWNWOOD REGIONAL MEDICAL CENTER AND HEART INSTITUTE,V,2016-05-17,2017-09-06,337,27.43200284,-80.34566191,337
338,2416-504-0199-030-0,N/A,TREASURE COAST BEHAVIORAL HEALTHCARE AT LAWNWOOD,1860 N LAWNWOOD CIR,FORT PIERCE,34950,ST LUCIE,772-466-1500,HOSPITALS - PSYCHIATRIC,HCA,PRIVATE,PRIVATE,HCA EAST FLORIDA DIVISION,INVESTOR-OWNED,0,24,N/A,EFHS,N/A, , , , , , , , , , ,HTTP://LAWNWOODMED.COM/HOME/INDEX.DOT,1985,GEOPLAN,FHA,TREASURE COAST BEHAVIORAL HEALTHCARE AT LAWNWOOD,27.43747964,-80.34394231,17RNL6483835063,236,10.38437806,TREASURE COAST BEHAVIORAL HEALTHCARE AT LAWNWOOD,V,2016-05-17,2017-09-06,338,27.43747964,-80.34394231,338
339,S04352901000000020,10224975,HIGHLANDS REGIONAL MEDICAL CENTER,3600 S HIGHLANDS AVE,SEBRING,33870,HIGHLANDS,863-385-6101,HOSPITALS - ACUTE CARE,HIGHLANDS COUNTY HOSPITAL,PRIVATE,PRIVATE,HEALTH MANAGEMENT ASSOCIATES,INVESTOR-OWNED,0,126,FL000210,EFHM,100049, , , , , , , , , , ,HTTP://WWW.HIGHLANDSREGIONAL.COM/,1965,GEOPLAN,FDEM, ,27.46570453,-81.43298245,17RML5722038093,237,13.82930179,HIGHLANDS REGIONAL MEDICAL CENTER,V,2012-11-19,2017-09-06,339,27.46570453,-81.43298245,339
340,3938400011,10225016,BLAKE MEDICAL CENTER,2020 59TH ST W,BRADENTON,34209,MANATEE,941-792-6611,HOSPITALS - ACUTE CARE,HCA HEALTH SERVICES OF FLORIDA,PRIVATE,PRIVATE,HCA WEST FLORIDA DIVISION,INVESTOR-OWNED,0,383,FL000136,EFHL,100213,LICENSED TERRESTRIAL FIXED WIRELESS,GREATER THAN 1 GBPS,GREATER THAN 1 GBPS, , , , , , ,2,HTTP://WWW.BLAKEMEDICALCENTER.COM/,1973,GEOPLAN,FDEM, ,27.48195633,-82.62316297,17RLL3963740867,238,23.97453904,BLAKE MEDICAL CENTER,V,2011-05-10,2017-09-06,340,27.48195633,-82.62316297,340
341,1569300005,N/A,CENTERSTONE HOSPITAL AND ADDICTION CENTER - FORMERLY MANATEE GLENS HOSPITAL,2020 26TH AVE E,BRADENTON,34208,MANATEE,941-782-4600,HOSPITALS - PSYCHIATRIC,MANATEE GLENS CORPORATION,PRIVATE,PRIVATE,MANATEE GLENS CORP.,NOT-FOR-PROFIT,0,30,N/A,EFHS,110028, , , , , , , , , , ,HTTP://WWW.MANATEEGLENS.ORG/,1980,GEOPLAN,FHA,CENTERSTONE HOSPITAL AND ADDICTION CENTER,27.47629966,-82.53945149,17RLL4790140135,239,15.07108019,CENTERSTONE HOSPITAL AND ADDICTION CENTER - FORMERLY MANATEE GLENS HOSPITAL,V,2016-05-17,2017-09-06,341,27.47629966,-82.53945149,341
342,3163600103,10225022,MANATEE MEMORIAL HOSPITAL,206 SECOND ST E,BRADENTON,34208,MANATEE,941-746-5111,HOSPITALS - ACUTE CARE,MANATEE MEMORIAL HOSPITAL LP,PRIVATE,PRIVATE,UNIVERSAL HEALTH SERVICES INC,INVESTOR-OWNED,0,295,FL000142,EFHL,100035, , , ,CABLE MODEM DOCSIS 3.0,3 MBPS TO 6 MBPS,1.5 MBPS TO 3 MBPS,OTHER COPPER WIRELINE,1.5 MBPS TO 3 MBPS,768 KBPS TO 1.5 KBPS,3,HTTP://WWW.MANATEEMEMORIAL.COM/,1960,GEOPLAN,FDEM, ,27.4971432,-82.56183304,17RLL4571942471,240,16.98185878,MANATEE MEMORIAL HOSPITAL,V,2016-05-17,2017-09-06,342,27.4971432,-82.56183304,342
343,09-34-25-0000-07520-0000,N/A,FLORIDA HOSPITAL WAUCHULA,533 W CARLTON ST,WAUCHULA,33873,HARDEE,863-773-3101,HOSPITALS - ACUTE CARE,ADVENTIST HEALTH SYSTEM/,PRIVATE,PRIVATE,ADVENTIST HEALTH SYSTEM,NOT-FOR-PROFIT,0,25,N/A,EFHS,100282, , , , , , , , , , ,HTTP://WWW.FHHEARTLAND.ORG/CONTACTUS.ASPX,1970,GEOPLAN,FHA, ,27.53548239,-81.81698756,17RML1932846013,241,8.36831175,FLORIDA HOSPITAL WAUCHULA,V,2011-05-10,2017-09-06,343,27.53548239,-81.81698756,343
344,C04342803003100000,10224987,FLORIDA HOSPITAL HEARTLAND MEDICAL CENTER,4200 SUN N LAKE BLVD,SEBRING,33872,HIGHLANDS,863-314-4466,HOSPITALS - ACUTE CARE,ADVENTIST HEALTH S/S INC D/B/A,PRIVATE,PRIVATE,ADVENTIST HEALTH SYSTEM,NOT-FOR-PROFIT,0,147,FL000107,EFHM,100109, , , , , , , , , , ,HTTP://WWW.FHHEARTLAND.ORG/,2004,GEOPLAN,FDEM, ,27.53927798,-81.50956025,17RML4968746271,242,91.88579436,FLORIDA HOSPITAL HEARTLAND MEDICAL CENTER,V,2016-05-17,2017-09-06,344,27.53927798,-81.50956025,344
345,32392600000700000001.4,10225099,HEALTHSOUTH TREASURE COAST REHABILITATION HOSPITAL,1600 37TH ST,VERO BEACH,32960,INDIAN RIVER,772-778-2100,HOSPITALS - REHABILITATION,OCEAN HEALTH ASSOCIATES LTD,PRIVATE,PRIVATE,HEALTHSOUTH CORPORATION,INVESTOR-OWNED,0,90,FL000223,EFHM,110017, , , , , , , , , , ,HTTP://WWW.HEALTHSOUTHTREASURECOAST.COM/,1986,GEOPLAN,FDEM,HEALTHSOUTH TREASURE COAST REHABILITATION HOSPITAL,27.66122179,-80.40010577,17RNL5916759819,243,8.96544651,HEALTHSOUTH TREASURE COAST REHABILITATION HOSPITAL,V,2016-05-17,2017-09-06,345,27.66122179,-80.40010577,345
346,32393600000300000001.0,10225098,INDIAN RIVER MEDICAL CENTER,1000 36TH ST,VERO BEACH,32960,INDIAN RIVER,772-567-4311,HOSPITALS - ACUTE CARE,INDIAN RIVER COUNTY HOSPITAL,PRIVATE,PRIVATE,INDIAN RIVER MEMORIAL HOSPITAL,NOT-FOR-PROFIT,0,286,FL000222,EFHL,100105,OTHER COPPER WIRELINE,6 MBPS TO 10 MBPS,10 MBPS TO 25 MBPS, , , , , , ,2,HTTP://WWW.IRMC.CC/GUI/CONTENT.ASP,1978,GEOPLAN,FDEM,INDIAN RIVER MEDICAL CENTER,27.65862183,-80.39396491,17RNL5977459534,244,48.66490671,INDIAN RIVER MEDICAL CENTER,V,2016-05-17,2017-09-06,346,27.65862183,-80.39396491,346
347,32392500000500000003.2,N/A,INDIAN RIVER MEDICAL CENTER-BEHAVIORAL HEALTH CENTER,1190 37TH ST,VERO BEACH,32960,INDIAN RIVER,772-563-4666,HOSPITALS - PSYCHIATRIC,INDIAN RIVER COUNTY HOSPITAL,PRIVATE,PRIVATE,CENTER FOR EMOTIONAL HEALTH,NOT-FOR-PROFIT,0,46,N/A,EFHS,N/A, , , , , , , , , , ,HTTP://INDIAN-RIVER.FL.US/HEALTH/HOSPITALS/EMOTIONAL.HTML,1987,GEOPLAN,GEOPLAN, ,27.66116802,-80.3962669,17RNL5954659815,245,7.97238333,INDIAN RIVER MEDICAL CENTER-BEHAVIORAL HEALTH CENTER,V,2011-05-10,2017-09-06,347,27.66116802,-80.3962669,347
348,193212ZZZ000001780200U,10225087,SOUTH BAY HOSPITAL,4016 SUN CENTER BLVD,SUN CITY CENTER,33573,HILLSBOROUGH,813-634-3301,HOSPITALS - ACUTE CARE,SUN CITY HOSPITAL INC,PRIVATE,PRIVATE,HCA WEST FLORIDA DIVISION,INVESTOR-OWNED,0,112,FL000237,EFHM,100259, , , ,DON'T KNOW,DON'T KNOW,DON'T KNOW,DON'T KNOW,DON'T KNOW,DON'T KNOW,4,HTTP://WWW.SOUTHBAYHOSPITAL.COM/,1982,GEOPLAN,FDEM, ,27.71358715,-82.36532011,17RLL6539866222,246,17.10516486,SOUTH BAY HOSPITAL,V,2011-05-10,2017-09-06,348,27.71358715,-82.36532011,348
349,17 31 31 01323 001 0010,10225031,KINDRED HOSPITAL BAY AREA - ST PETERSBURG,3030 SIXTH ST S,ST PETERSBURG,33705,PINELLAS,727-894-8719,HOSPITALS - ACUTE CARE,VENTAS REALTY LTD PTNRSHP,PRIVATE,PRIVATE,KINDRED EAST REGION OFFICE,INVESTOR-OWNED,0,82,FL000151,EFHM,23960011, , , , , , , , , , ,HTTP://WWW.KINDREDSTPETE.COM/,1970,GEOPLAN,FDEM, ,27.7407807,-82.63988902,17RLL3836569565,247,9.8488091,KINDRED HOSPITAL BAY AREA - ST PETERSBURG,V,2012-11-19,2017-09-06,349,27.7407807,-82.63988902,349